{"type":"FeatureCollection","features":[{"type":"Feature","id":"ol4","properties":{},"geometry":{"type":"MultiPolygon","coordinates":[[[[-28.079,54.809],[-27.937,54.867],[-27.796,54.924],[-27.65,54.981],[-27.508,55.038],[-27.267,55.012],[-27.025,54.986],[-26.783,54.959],[-26.542,54.932],[-26.3,54.904],[-26.058,54.876],[-25.962,54.793],[-26.012,54.654],[-26.062,54.516],[-26.204,54.46],[-26.346,54.405],[-26.492,54.349],[-26.633,54.294],[-26.775,54.238],[-26.917,54.182],[-27.058,54.126],[-27.2,54.07],[-27.337,54.013],[-27.479,53.956],[-27.617,53.9],[-27.854,53.925],[-27.95,54.007],[-28.05,54.089],[-28.146,54.171],[-28.104,54.31],[-28.062,54.449],[-28.163,54.531],[-28.121,54.67],[-28.079,54.809]],[[-27.937,52.426],[-27.804,52.483],[-27.667,52.54],[-27.533,52.597],[-27.4,52.654],[-27.171,52.628],[-26.942,52.601],[-26.983,52.463],[-27.025,52.324],[-27.071,52.185],[-27.113,52.046],[-27.246,51.99],[-27.287,51.851],[-27.421,51.794],[-27.646,51.82],[-27.871,51.844],[-28.096,51.869],[-28.058,52.008],[-28.15,52.09],[-28.113,52.229],[-28.071,52.369],[-27.937,52.426]],[[-36.437,50.117],[-36.425,50.258],[-36.308,50.325],[-36.192,50.391],[-36.075,50.458],[-35.854,50.449],[-35.75,50.374],[-35.646,50.299],[-35.663,50.158],[-35.558,50.083],[-35.575,49.941],[-35.587,49.8],[-35.604,49.659],[-35.617,49.518],[-35.633,49.377],[-35.746,49.311],[-35.863,49.245],[-35.875,49.104],[-35.988,49.038],[-36.104,48.972],[-36.317,48.98],[-36.433,48.913],[-36.646,48.921],[-36.863,48.928],[-36.962,49.002],[-37.067,49.076],[-37.058,49.217],[-37.046,49.358],[-36.933,49.426],[-36.921,49.567],[-36.808,49.634],[-36.692,49.701],[-36.683,49.842],[-36.567,49.909],[-36.554,50.05],[-36.437,50.117]],[[-44.329,46.59],[-44.233,46.664],[-44.242,46.805],[-44.142,46.879],[-44.046,46.953],[-43.946,47.027],[-43.846,47.1],[-43.746,47.174],[-43.538,47.18],[-43.433,47.112],[-43.325,47.044],[-43.217,46.976],[-43.108,46.907],[-43.004,46.839],[-42.896,46.771],[-42.792,46.702],[-42.783,46.561],[-42.779,46.419],[-42.879,46.346],[-42.975,46.274],[-42.971,46.132],[-43.067,46.059],[-43.167,45.986],[-43.267,45.913],[-43.363,45.84],[-43.567,45.834],[-43.767,45.829],[-43.971,45.823],[-44.175,45.816],[-44.279,45.883],[-44.387,45.951],[-44.492,46.018],[-44.6,46.084],[-44.613,46.226],[-44.513,46.3],[-44.525,46.441],[-44.429,46.516],[-44.329,46.59]],[[-61.113,36.544],[-61.046,36.629],[-61.087,36.767],[-61.129,36.904],[-61.062,36.989],[-61.104,37.126],[-61.212,37.178],[-61.254,37.316],[-61.425,37.283],[-61.533,37.334],[-61.642,37.386],[-61.812,37.352],[-61.879,37.267],[-61.942,37.181],[-61.9,37.045],[-61.792,36.993],[-61.858,36.908],[-61.812,36.771],[-61.771,36.634],[-61.667,36.582],[-61.558,36.53],[-61.454,36.478],[-61.283,36.511],[-61.113,36.544]],[[-66.179,30.921],[-66.121,31.008],[-66.067,31.095],[-66.008,31.182],[-65.85,31.22],[-65.792,31.307],[-65.633,31.344],[-65.475,31.382],[-65.417,31.469],[-65.258,31.506],[-65.154,31.457],[-64.996,31.494],[-64.95,31.358],[-64.908,31.221],[-64.863,31.085],[-64.762,31.035],[-64.721,30.899],[-64.675,30.763],[-64.575,30.713],[-64.475,30.662],[-64.375,30.612],[-64.275,30.562],[-64.233,30.426],[-64.133,30.375],[-64.033,30.325],[-63.992,30.188],[-63.892,30.138],[-63.85,30.001],[-63.808,29.864],[-63.767,29.728],[-63.725,29.591],[-63.783,29.504],[-63.742,29.368],[-63.8,29.281],[-63.758,29.145],[-63.721,29.008],[-63.779,28.922],[-63.738,28.785],[-63.796,28.699],[-63.854,28.613],[-63.908,28.526],[-64.067,28.491],[-64.125,28.404],[-64.279,28.368],[-64.433,28.333],[-64.587,28.296],[-64.687,28.346],[-64.787,28.396],[-64.942,28.36],[-65.038,28.409],[-65.138,28.459],[-65.292,28.423],[-65.492,28.522],[-65.392,28.472],[-65.546,28.435],[-65.7,28.398],[-65.758,28.311],[-65.913,28.273],[-65.967,28.186],[-66.121,28.148],[-66.179,28.061],[-66.333,28.023],[-66.433,28.072],[-66.587,28.034],[-66.683,28.083],[-66.783,28.132],[-66.883,28.18],[-66.983,28.229],[-67.025,28.364],[-67.125,28.413],[-67.171,28.549],[-67.217,28.684],[-67.158,28.771],[-67.204,28.907],[-67.15,28.994],[-67.096,29.082],[-67.042,29.169],[-66.983,29.256],[-66.929,29.343],[-66.875,29.431],[-66.817,29.518],[-66.762,29.605],[-66.708,29.692],[-66.55,29.731],[-66.496,29.818],[-66.437,29.904],[-66.383,29.992],[-66.225,30.03],[-66.171,30.117],[-66.212,30.253],[-66.158,30.34],[-66.204,30.476],[-66.146,30.563],[-66.192,30.698],[-66.238,30.834],[-66.179,30.921]],[[-65.146,16.011],[-65.004,16.048],[-64.863,16.085],[-64.721,16.121],[-64.629,16.071],[-64.488,16.108],[-64.4,16.058],[-64.308,16.008],[-64.167,16.044],[-64.075,15.994],[-64.038,15.858],[-64,15.721],[-64.054,15.635],[-64.104,15.549],[-64.246,15.513],[-64.387,15.476],[-64.529,15.44],[-64.621,15.489],[-64.758,15.453],[-64.85,15.503],[-64.942,15.552],[-65.029,15.602],[-65.071,15.738],[-65.108,15.875],[-65.146,16.011]],[[-67.825,12.202],[-67.867,12.338],[-67.725,12.377],[-67.675,12.464],[-67.625,12.551],[-67.579,12.639],[-67.437,12.678],[-67.3,12.717],[-67.25,12.804],[-67.108,12.843],[-66.971,12.881],[-66.829,12.92],[-66.692,12.958],[-66.6,12.909],[-66.512,12.861],[-66.471,12.725],[-66.433,12.589],[-66.483,12.502],[-66.442,12.366],[-66.354,12.317],[-66.267,12.268],[-66.225,12.132],[-66.137,12.083],[-66.096,11.948],[-66.058,11.812],[-66.017,11.676],[-66.067,11.589],[-66.117,11.502],[-66.167,11.415],[-66.217,11.328],[-66.267,11.241],[-66.404,11.203],[-66.454,11.116],[-66.504,11.029],[-66.642,10.99],[-66.692,10.903],[-66.742,10.816],[-66.879,10.777],[-66.929,10.69],[-67.067,10.651],[-67.117,10.564],[-67.254,10.525],[-67.392,10.486],[-67.479,10.534],[-67.571,10.583],[-67.658,10.631],[-67.75,10.679],[-67.788,10.815],[-67.829,10.95],[-67.779,11.038],[-67.821,11.173],[-67.858,11.309],[-67.9,11.445],[-67.942,11.581],[-67.892,11.668],[-67.933,11.804],[-67.971,11.939],[-67.925,12.027],[-67.875,12.114],[-67.825,12.202]],[[-69.608,7.929],[-69.65,8.065],[-69.604,8.153],[-69.554,8.241],[-69.421,8.281],[-69.329,8.233],[-69.242,8.186],[-69.154,8.138],[-69.113,8.003],[-69.071,7.868],[-69.117,7.78],[-69.254,7.74],[-69.392,7.699],[-69.479,7.747],[-69.571,7.794],[-69.608,7.929]],[[-80.121,-5.644],[-80.075,-5.556],[-80.029,-5.467],[-79.896,-5.424],[-79.846,-5.336],[-79.712,-5.293],[-79.667,-5.204],[-79.529,-5.162],[-79.396,-5.119],[-79.304,-5.165],[-79.217,-5.211],[-79.129,-5.257],[-79.038,-5.303],[-78.95,-5.349],[-78.908,-5.484],[-78.817,-5.53],[-78.729,-5.576],[-78.637,-5.622],[-78.596,-5.757],[-78.508,-5.802],[-78.417,-5.848],[-78.283,-5.806],[-78.192,-5.851],[-78.104,-5.897],[-77.967,-5.854],[-77.879,-5.9],[-77.742,-5.857],[-77.608,-5.814],[-77.562,-5.726],[-77.425,-5.682],[-77.292,-5.64],[-77.154,-5.597],[-77.021,-5.554],[-76.883,-5.511],[-76.796,-5.556],[-76.663,-5.513],[-76.571,-5.559],[-76.483,-5.605],[-76.392,-5.651],[-76.304,-5.696],[-76.212,-5.742],[-76.125,-5.787],[-76.033,-5.833],[-75.946,-5.879],[-75.9,-6.013],[-75.812,-6.059],[-75.767,-6.193],[-75.725,-6.327],[-75.771,-6.416],[-75.725,-6.55],[-75.771,-6.639],[-75.729,-6.773],[-75.683,-6.908],[-75.642,-7.042],[-75.596,-7.176],[-75.55,-7.31],[-75.462,-7.355],[-75.417,-7.489],[-75.371,-7.623],[-75.329,-7.757],[-75.375,-7.846],[-75.421,-7.935],[-75.467,-8.024],[-75.512,-8.112],[-75.554,-8.201],[-75.692,-8.244],[-75.738,-8.333],[-75.783,-8.422],[-75.917,-8.465],[-76.054,-8.509],[-76.1,-8.597],[-76.146,-8.686],[-76.283,-8.73],[-76.325,-8.818],[-76.371,-8.907],[-76.508,-8.951],[-76.554,-9.039],[-76.692,-9.083],[-76.738,-9.172],[-76.783,-9.26],[-76.917,-9.304],[-76.962,-9.392],[-77.1,-9.436],[-77.238,-9.479],[-77.371,-9.522],[-77.462,-9.477],[-77.554,-9.432],[-77.642,-9.386],[-77.779,-9.429],[-77.871,-9.384],[-77.913,-9.249],[-78.004,-9.204],[-78.096,-9.158],[-78.183,-9.113],[-78.275,-9.067],[-78.363,-9.021],[-78.408,-8.887],[-78.5,-8.841],[-78.587,-8.795],[-78.679,-8.75],[-78.767,-8.704],[-78.858,-8.658],[-78.95,-8.612],[-79.038,-8.566],[-79.129,-8.521],[-79.217,-8.475],[-79.308,-8.429],[-79.442,-8.472],[-79.533,-8.426],[-79.625,-8.38],[-79.758,-8.422],[-79.85,-8.376],[-79.937,-8.33],[-79.983,-8.196],[-80.071,-8.149],[-80.117,-8.015],[-80.204,-7.969],[-80.246,-7.834],[-80.292,-7.699],[-80.333,-7.564],[-80.375,-7.429],[-80.329,-7.341],[-80.371,-7.206],[-80.417,-7.071],[-80.371,-6.982],[-80.413,-6.847],[-80.367,-6.759],[-80.321,-6.67],[-80.363,-6.535],[-80.317,-6.446],[-80.267,-6.357],[-80.312,-6.223],[-80.267,-6.134],[-80.217,-6.045],[-80.262,-5.911],[-80.217,-5.822],[-80.167,-5.733],[-80.121,-5.644]],[[-83.521,-14.39],[-83.475,-14.302],[-83.425,-14.213],[-83.375,-14.125],[-83.238,-14.083],[-83.187,-13.995],[-83.142,-13.907],[-83.092,-13.818],[-83.046,-13.73],[-82.996,-13.641],[-82.95,-13.553],[-82.808,-13.511],[-82.763,-13.423],[-82.712,-13.334],[-82.667,-13.246],[-82.621,-13.157],[-82.479,-13.115],[-82.387,-13.162],[-82.3,-13.208],[-82.208,-13.255],[-82.163,-13.39],[-82.121,-13.524],[-82.075,-13.659],[-82.033,-13.794],[-81.992,-13.929],[-82.038,-14.018],[-81.992,-14.152],[-82.042,-14.241],[-82.087,-14.33],[-82.046,-14.464],[-82.092,-14.553],[-82.142,-14.641],[-82.187,-14.73],[-82.238,-14.819],[-82.375,-14.861],[-82.517,-14.903],[-82.654,-14.945],[-82.746,-14.898],[-82.888,-14.94],[-82.979,-14.894],[-83.117,-14.935],[-83.208,-14.889],[-83.3,-14.842],[-83.392,-14.795],[-83.483,-14.749],[-83.525,-14.613],[-83.571,-14.478],[-83.521,-14.39]],[[-83.108,-16.634],[-83.058,-16.546],[-82.917,-16.504],[-82.779,-16.462],[-82.637,-16.42],[-82.546,-16.466],[-82.454,-16.512],[-82.408,-16.647],[-82.363,-16.782],[-82.321,-16.916],[-82.367,-17.005],[-82.508,-17.047],[-82.65,-17.089],[-82.742,-17.043],[-82.833,-16.997],[-82.929,-16.95],[-83.021,-16.904],[-83.062,-16.769],[-83.108,-16.634]],[[-87.533,-18.561],[-87.483,-18.474],[-87.342,-18.435],[-87.196,-18.396],[-87.054,-18.356],[-86.913,-18.317],[-86.817,-18.365],[-86.675,-18.325],[-86.533,-18.285],[-86.442,-18.333],[-86.4,-18.469],[-86.45,-18.557],[-86.5,-18.644],[-86.55,-18.732],[-86.6,-18.82],[-86.65,-18.908],[-86.796,-18.947],[-86.846,-19.035],[-86.988,-19.074],[-87.133,-19.114],[-87.275,-19.153],[-87.371,-19.105],[-87.462,-19.057],[-87.554,-19.008],[-87.596,-18.872],[-87.638,-18.736],[-87.588,-18.649],[-87.533,-18.561]],[[-98.133,-17.319],[-98.075,-17.236],[-98.021,-17.153],[-97.879,-17.123],[-97.821,-17.04],[-97.679,-17.01],[-97.625,-16.926],[-97.479,-16.896],[-97.392,-16.95],[-97.246,-16.919],[-97.104,-16.889],[-97.05,-16.805],[-96.996,-16.721],[-97.029,-16.584],[-96.975,-16.501],[-96.917,-16.417],[-96.775,-16.386],[-96.721,-16.302],[-96.579,-16.271],[-96.525,-16.187],[-96.379,-16.155],[-96.238,-16.124],[-96.096,-16.092],[-96.042,-16.007],[-95.988,-15.923],[-95.933,-15.839],[-95.879,-15.755],[-95.825,-15.67],[-95.863,-15.534],[-95.808,-15.449],[-95.754,-15.365],[-95.7,-15.28],[-95.646,-15.196],[-95.592,-15.111],[-95.542,-15.027],[-95.4,-14.994],[-95.258,-14.961],[-95.117,-14.929],[-95.025,-14.98],[-94.992,-15.117],[-94.954,-15.253],[-94.921,-15.39],[-94.975,-15.475],[-94.937,-15.611],[-94.992,-15.696],[-94.954,-15.833],[-95.008,-15.918],[-94.975,-16.054],[-94.937,-16.191],[-94.992,-16.276],[-95.046,-16.361],[-95.1,-16.446],[-95.154,-16.53],[-95.208,-16.615],[-95.171,-16.752],[-95.225,-16.836],[-95.192,-16.973],[-95.1,-17.025],[-95.067,-17.162],[-95.033,-17.299],[-94.942,-17.351],[-94.854,-17.403],[-94.762,-17.455],[-94.729,-17.592],[-94.637,-17.644],[-94.604,-17.781],[-94.567,-17.918],[-94.621,-18.003],[-94.675,-18.088],[-94.729,-18.173],[-94.783,-18.258],[-94.842,-18.343],[-94.896,-18.428],[-94.95,-18.512],[-95.096,-18.545],[-95.15,-18.63],[-95.296,-18.662],[-95.437,-18.694],[-95.583,-18.726],[-95.729,-18.758],[-95.875,-18.789],[-96.021,-18.821],[-96.163,-18.852],[-96.308,-18.884],[-96.454,-18.914],[-96.6,-18.945],[-96.692,-18.892],[-96.833,-18.923],[-96.925,-18.869],[-97.013,-18.816],[-97.104,-18.762],[-97.192,-18.709],[-97.225,-18.572],[-97.312,-18.518],[-97.346,-18.381],[-97.437,-18.327],[-97.471,-18.19],[-97.558,-18.136],[-97.646,-18.083],[-97.738,-18.029],[-97.825,-17.975],[-97.858,-17.838],[-97.946,-17.784],[-98.033,-17.731],[-98.067,-17.594],[-98.1,-17.456],[-98.133,-17.319]],[[-93.05,-15.888],[-93,-15.802],[-92.946,-15.717],[-92.804,-15.682],[-92.663,-15.647],[-92.571,-15.697],[-92.429,-15.662],[-92.342,-15.713],[-92.25,-15.763],[-92.163,-15.814],[-92.125,-15.951],[-92.175,-16.036],[-92.229,-16.122],[-92.371,-16.158],[-92.512,-16.193],[-92.604,-16.142],[-92.746,-16.177],[-92.887,-16.212],[-92.979,-16.161],[-93.067,-16.11],[-93.104,-15.974],[-93.05,-15.888]],[[-93.504,-17.598],[-93.363,-17.564],[-93.4,-17.427],[-93.488,-17.376],[-93.579,-17.324],[-93.667,-17.273],[-93.812,-17.307],[-93.954,-17.341],[-94.046,-17.289],[-94.187,-17.323],[-94.242,-17.408],[-94.296,-17.493],[-94.35,-17.578],[-94.317,-17.715],[-94.225,-17.767],[-94.133,-17.818],[-93.992,-17.785],[-93.9,-17.836],[-93.758,-17.803],[-93.613,-17.769],[-93.558,-17.683],[-93.504,-17.598]],[[-96.262,-21.259],[-95.233,-21.039],[-95.196,-21.176],[-95.254,-21.261],[-95.308,-21.346],[-95.367,-21.43],[-95.604,-21.409],[-95.512,-21.462],[-95.663,-21.494],[-95.808,-21.525],[-95.9,-21.472],[-96.05,-21.503],[-96.142,-21.45],[-96.229,-21.396],[-96.262,-21.259]],[[-95.892,-20.891],[-95.596,-20.828],[-95.742,-20.859],[-96.3,-21.121],[-96.15,-21.09],[-96.096,-21.006],[-95.946,-20.975],[-95.892,-20.891]],[[-94.971,-23.303],[-94.913,-23.218],[-94.854,-23.133],[-94.8,-23.048],[-94.742,-22.963],[-94.683,-22.878],[-94.533,-22.846],[-94.479,-22.761],[-94.421,-22.676],[-94.271,-22.643],[-94.217,-22.558],[-94.067,-22.525],[-93.917,-22.492],[-93.825,-22.544],[-93.733,-22.596],[-93.696,-22.733],[-93.604,-22.785],[-93.567,-22.922],[-93.625,-23.008],[-93.679,-23.093],[-93.646,-23.23],[-93.7,-23.316],[-93.85,-23.349],[-93.908,-23.434],[-93.962,-23.52],[-94.021,-23.605],[-94.171,-23.638],[-94.229,-23.723],[-94.379,-23.756],[-94.529,-23.788],[-94.583,-23.873],[-94.738,-23.906],[-94.829,-23.853],[-94.979,-23.885],[-95.071,-23.832],[-95.108,-23.694],[-95.142,-23.557],[-95.083,-23.472],[-95.025,-23.387],[-94.971,-23.303]],[[-93.2,-29.902],[-93.142,-29.817],[-93.179,-29.68],[-93.121,-29.594],[-93.058,-29.509],[-93.1,-29.371],[-93.042,-29.286],[-93.079,-29.148],[-93.117,-29.011],[-93.058,-28.926],[-93.096,-28.788],[-93.037,-28.702],[-93.079,-28.565],[-93.021,-28.48],[-92.958,-28.394],[-92.9,-28.308],[-92.746,-28.274],[-92.592,-28.24],[-92.433,-28.205],[-92.279,-28.17],[-92.125,-28.135],[-91.967,-28.1],[-91.812,-28.065],[-91.754,-27.979],[-91.6,-27.943],[-91.542,-27.857],[-91.488,-27.771],[-91.429,-27.685],[-91.371,-27.598],[-91.317,-27.512],[-91.258,-27.426],[-91.2,-27.339],[-91.146,-27.253],[-91.087,-27.167],[-90.933,-27.131],[-90.879,-27.044],[-90.725,-27.008],[-90.571,-26.971],[-90.417,-26.935],[-90.267,-26.898],[-90.208,-26.811],[-90.154,-26.724],[-90,-26.687],[-89.946,-26.601],[-89.892,-26.514],[-89.833,-26.427],[-89.683,-26.39],[-89.629,-26.303],[-89.575,-26.216],[-89.517,-26.129],[-89.462,-26.042],[-89.408,-25.955],[-89.354,-25.868],[-89.3,-25.781],[-89.246,-25.694],[-89.192,-25.607],[-89.137,-25.52],[-89.083,-25.433],[-88.929,-25.395],[-88.875,-25.308],[-88.725,-25.27],[-88.575,-25.231],[-88.425,-25.193],[-88.329,-25.242],[-88.179,-25.203],[-88.083,-25.251],[-87.933,-25.212],[-87.833,-25.261],[-87.683,-25.222],[-87.533,-25.182],[-87.383,-25.143],[-87.333,-25.056],[-87.279,-24.968],[-87.225,-24.88],[-87.271,-24.745],[-87.217,-24.657],[-87.163,-24.57],[-87.113,-24.482],[-87.154,-24.346],[-87.104,-24.259],[-87.05,-24.171],[-87.096,-24.036],[-87.137,-23.9],[-87.179,-23.764],[-87.225,-23.629],[-87.171,-23.541],[-87.217,-23.406],[-87.258,-23.27],[-87.204,-23.182],[-87.25,-23.047],[-87.196,-22.959],[-87.242,-22.823],[-87.187,-22.736],[-87.229,-22.6],[-87.275,-22.464],[-87.317,-22.329],[-87.358,-22.193],[-87.308,-22.105],[-87.254,-22.018],[-87.204,-21.93],[-87.15,-21.842],[-87.004,-21.803],[-86.858,-21.764],[-86.712,-21.724],[-86.567,-21.684],[-86.471,-21.732],[-86.379,-21.779],[-86.283,-21.827],[-86.187,-21.875],[-86.092,-21.922],[-86,-21.97],[-85.904,-22.017],[-85.808,-22.065],[-85.663,-22.024],[-85.517,-21.984],[-85.371,-21.943],[-85.321,-21.855],[-85.175,-21.814],[-85.125,-21.726],[-85.075,-21.638],[-85.021,-21.55],[-84.971,-21.462],[-84.829,-21.421],[-84.775,-21.332],[-84.725,-21.244],[-84.583,-21.203],[-84.533,-21.115],[-84.387,-21.074],[-84.242,-21.032],[-84.146,-21.079],[-84.004,-21.037],[-83.908,-21.084],[-83.813,-21.13],[-83.717,-21.176],[-83.575,-21.134],[-83.479,-21.181],[-83.383,-21.227],[-83.287,-21.273],[-83.142,-21.231],[-83.05,-21.277],[-82.954,-21.323],[-82.808,-21.281],[-82.663,-21.238],[-82.571,-21.284],[-82.425,-21.241],[-82.329,-21.287],[-82.233,-21.333],[-82.137,-21.378],[-82.042,-21.424],[-81.946,-21.469],[-81.9,-21.603],[-81.804,-21.649],[-81.758,-21.782],[-81.663,-21.828],[-81.613,-21.962],[-81.567,-22.096],[-81.467,-22.141],[-81.421,-22.274],[-81.371,-22.408],[-81.275,-22.453],[-81.229,-22.587],[-81.179,-22.72],[-81.225,-22.809],[-81.275,-22.897],[-81.325,-22.986],[-81.371,-23.074],[-81.517,-23.118],[-81.567,-23.207],[-81.712,-23.25],[-81.858,-23.294],[-81.908,-23.382],[-82.054,-23.426],[-82.1,-23.514],[-82.15,-23.603],[-82.296,-23.646],[-82.346,-23.734],[-82.492,-23.778],[-82.542,-23.866],[-82.687,-23.909],[-82.788,-23.864],[-82.883,-23.818],[-82.979,-23.772],[-83.129,-23.815],[-83.225,-23.769],[-83.371,-23.812],[-83.517,-23.854],[-83.567,-23.943],[-83.617,-24.031],[-83.571,-24.165],[-83.475,-24.211],[-83.375,-24.257],[-83.279,-24.303],[-83.183,-24.349],[-83.083,-24.394],[-82.988,-24.44],[-82.888,-24.485],[-82.792,-24.531],[-82.692,-24.576],[-82.646,-24.71],[-82.596,-24.844],[-82.546,-24.977],[-82.596,-25.066],[-82.646,-25.154],[-82.696,-25.243],[-82.746,-25.331],[-82.892,-25.374],[-82.942,-25.463],[-82.992,-25.551],[-83.142,-25.594],[-83.192,-25.682],[-83.242,-25.771],[-83.292,-25.859],[-83.342,-25.948],[-83.292,-26.081],[-83.342,-26.17],[-83.296,-26.304],[-83.346,-26.392],[-83.296,-26.526],[-83.246,-26.659],[-83.296,-26.748],[-83.246,-26.882],[-83.296,-26.97],[-83.346,-27.058],[-83.396,-27.147],[-83.35,-27.28],[-83.4,-27.369],[-83.45,-27.457],[-83.4,-27.591],[-83.45,-27.679],[-83.4,-27.812],[-83.45,-27.901],[-83.4,-28.034],[-83.35,-28.168],[-83.3,-28.301],[-83.35,-28.39],[-83.4,-28.478],[-83.45,-28.566],[-83.5,-28.655],[-83.554,-28.743],[-83.604,-28.831],[-83.654,-28.92],[-83.704,-29.008],[-83.758,-29.096],[-83.808,-29.185],[-83.858,-29.273],[-83.808,-29.406],[-83.858,-29.495],[-83.913,-29.583],[-83.962,-29.671],[-84.117,-29.714],[-84.167,-29.803],[-84.325,-29.845],[-84.479,-29.888],[-84.529,-29.976],[-84.583,-30.064],[-84.633,-30.152],[-84.687,-30.241],[-84.738,-30.329],[-84.792,-30.417],[-84.742,-30.551],[-84.687,-30.684],[-84.637,-30.818],[-84.587,-30.951],[-84.533,-31.085],[-84.587,-31.173],[-84.637,-31.261],[-84.692,-31.349],[-84.746,-31.437],[-84.796,-31.526],[-84.954,-31.568],[-85.113,-31.611],[-85.167,-31.699],[-85.321,-31.741],[-85.375,-31.829],[-85.533,-31.871],[-85.587,-31.959],[-85.642,-32.047],[-85.696,-32.135],[-85.642,-32.269],[-85.592,-32.403],[-85.542,-32.537],[-85.488,-32.67],[-85.437,-32.804],[-85.492,-32.892],[-85.546,-32.98],[-85.6,-33.068],[-85.65,-33.156],[-85.704,-33.244],[-85.758,-33.332],[-85.812,-33.419],[-85.867,-33.507],[-85.925,-33.595],[-85.979,-33.683],[-86.033,-33.771],[-86.087,-33.859],[-86.142,-33.947],[-86.087,-34.08],[-86.142,-34.168],[-86.2,-34.256],[-86.254,-34.344],[-86.308,-34.432],[-86.363,-34.519],[-86.417,-34.607],[-86.475,-34.695],[-86.638,-34.737],[-86.692,-34.824],[-86.75,-34.912],[-86.913,-34.953],[-86.967,-35.041],[-87.133,-35.082],[-87.187,-35.17],[-87.354,-35.211],[-87.408,-35.298],[-87.467,-35.386],[-87.525,-35.473],[-87.579,-35.561],[-87.638,-35.648],[-87.583,-35.782],[-87.642,-35.87],[-87.592,-36.004],[-87.646,-36.092],[-87.704,-36.179],[-87.762,-36.267],[-87.821,-36.354],[-87.988,-36.394],[-88.154,-36.435],[-88.212,-36.522],[-88.379,-36.562],[-88.437,-36.65],[-88.496,-36.737],[-88.554,-36.824],[-88.613,-36.911],[-88.671,-36.999],[-88.621,-37.133],[-88.679,-37.22],[-88.625,-37.355],[-88.687,-37.442],[-88.746,-37.529],[-88.804,-37.616],[-88.75,-37.751],[-88.812,-37.838],[-88.871,-37.925],[-88.929,-38.012],[-88.988,-38.099],[-89.05,-38.186],[-89.221,-38.226],[-89.279,-38.312],[-89.342,-38.4],[-89.513,-38.439],[-89.575,-38.526],[-89.633,-38.613],[-89.696,-38.699],[-89.867,-38.738],[-89.929,-38.825],[-90.217,-38.816],[-90.104,-38.864],[-90.275,-38.902],[-90.45,-38.94],[-90.562,-38.892],[-90.738,-38.93],[-90.85,-38.881],[-91.025,-38.918],[-91.2,-38.956],[-91.263,-39.042],[-91.437,-39.079],[-91.5,-39.165],[-91.675,-39.202],[-91.85,-39.238],[-92.025,-39.275],[-92.204,-39.311],[-92.312,-39.261],[-92.492,-39.296],[-92.6,-39.246],[-92.712,-39.196],[-92.887,-39.231],[-93,-39.18],[-93.113,-39.129],[-93.221,-39.079],[-93.333,-39.027],[-93.379,-38.891],[-93.425,-38.754],[-93.467,-38.617],[-93.404,-38.532],[-93.337,-38.447],[-93.383,-38.31],[-93.317,-38.224],[-93.254,-38.139],[-93.187,-38.053],[-93.125,-37.968],[-92.95,-37.933],[-92.887,-37.848],[-92.933,-37.711],[-92.975,-37.574],[-93.083,-37.523],[-93.192,-37.472],[-93.3,-37.421],[-93.408,-37.37],[-93.517,-37.318],[-93.562,-37.181],[-93.667,-37.13],[-93.712,-36.993],[-93.646,-36.908],[-93.692,-36.771],[-93.733,-36.634],[-93.775,-36.497],[-93.817,-36.359],[-93.925,-36.308],[-93.967,-36.171],[-94.071,-36.119],[-94.113,-35.981],[-94.217,-35.929],[-94.258,-35.792],[-94.363,-35.74],[-94.471,-35.687],[-94.508,-35.55],[-94.613,-35.497],[-94.717,-35.445],[-94.758,-35.307],[-94.863,-35.255],[-94.9,-35.117],[-94.942,-34.98],[-94.875,-34.895],[-94.917,-34.757],[-94.85,-34.672],[-94.787,-34.588],[-94.829,-34.45],[-94.762,-34.365],[-94.7,-34.28],[-94.637,-34.195],[-94.571,-34.11],[-94.408,-34.077],[-94.342,-33.992],[-94.179,-33.96],[-94.013,-33.927],[-93.846,-33.894],[-93.679,-33.86],[-93.517,-33.826],[-93.35,-33.793],[-93.187,-33.759],[-93.021,-33.724],[-92.958,-33.639],[-92.896,-33.553],[-92.937,-33.416],[-92.879,-33.331],[-92.921,-33.194],[-92.962,-33.056],[-92.9,-32.971],[-92.837,-32.885],[-92.879,-32.748],[-92.817,-32.662],[-92.758,-32.577],[-92.696,-32.491],[-92.637,-32.405],[-92.575,-32.319],[-92.517,-32.233],[-92.454,-32.147],[-92.496,-32.011],[-92.437,-31.925],[-92.479,-31.788],[-92.417,-31.702],[-92.458,-31.565],[-92.5,-31.428],[-92.542,-31.291],[-92.583,-31.154],[-92.683,-31.103],[-92.721,-30.966],[-92.821,-30.914],[-92.863,-30.777],[-92.962,-30.726],[-93.004,-30.589],[-93.1,-30.537],[-93.142,-30.4],[-93.179,-30.263],[-93.221,-30.126],[-93.158,-30.04],[-93.2,-29.902]],[[-105.358,-28.104],[-105.287,-28.026],[-105.221,-27.947],[-105.062,-27.929],[-104.971,-27.989],[-104.883,-28.049],[-104.725,-28.03],[-104.567,-28.011],[-104.408,-27.992],[-104.25,-27.972],[-104.092,-27.952],[-103.933,-27.932],[-103.846,-27.992],[-103.754,-28.051],[-103.596,-28.031],[-103.504,-28.09],[-103.479,-28.229],[-103.387,-28.289],[-103.296,-28.348],[-103.204,-28.407],[-103.113,-28.466],[-103.021,-28.525],[-102.929,-28.584],[-102.771,-28.562],[-102.704,-28.481],[-102.546,-28.459],[-102.479,-28.379],[-102.321,-28.357],[-102.254,-28.276],[-102.096,-28.253],[-101.937,-28.231],[-101.779,-28.207],[-101.687,-28.265],[-101.596,-28.323],[-101.437,-28.3],[-101.346,-28.357],[-101.317,-28.496],[-101.225,-28.554],[-101.196,-28.693],[-101.167,-28.832],[-101.142,-28.971],[-101.204,-29.053],[-101.179,-29.191],[-101.242,-29.273],[-101.308,-29.354],[-101.375,-29.436],[-101.538,-29.459],[-101.6,-29.54],[-101.762,-29.564],[-101.829,-29.645],[-101.896,-29.726],[-102.054,-29.748],[-102.217,-29.771],[-102.375,-29.793],[-102.538,-29.815],[-102.629,-29.756],[-102.725,-29.697],[-102.817,-29.639],[-102.908,-29.58],[-103.004,-29.521],[-103.096,-29.462],[-103.187,-29.403],[-103.371,-29.284],[-103.279,-29.344],[-103.442,-29.364],[-103.6,-29.385],[-103.667,-29.465],[-103.829,-29.485],[-103.896,-29.565],[-103.967,-29.644],[-104.125,-29.664],[-104.196,-29.744],[-104.354,-29.763],[-104.517,-29.782],[-104.583,-29.861],[-104.746,-29.88],[-104.908,-29.899],[-105.067,-29.917],[-105.229,-29.935],[-105.321,-29.874],[-105.413,-29.814],[-105.504,-29.752],[-105.596,-29.691],[-105.687,-29.63],[-105.775,-29.569],[-105.867,-29.508],[-105.887,-29.369],[-105.908,-29.229],[-105.842,-29.151],[-105.771,-29.072],[-105.704,-28.994],[-105.725,-28.854],[-105.654,-28.776],[-105.587,-28.697],[-105.517,-28.619],[-105.45,-28.541],[-105.471,-28.401],[-105.404,-28.322],[-105.425,-28.183],[-105.358,-28.104]],[[-106.596,-31.283],[-106.617,-31.143],[-106.542,-31.065],[-106.471,-30.987],[-106.4,-30.909],[-106.329,-30.831],[-106.258,-30.753],[-106.096,-30.737],[-105.933,-30.72],[-105.771,-30.703],[-105.608,-30.686],[-105.513,-30.748],[-105.421,-30.809],[-105.329,-30.869],[-105.238,-30.931],[-105.146,-30.991],[-105.054,-31.052],[-104.958,-31.113],[-104.867,-31.174],[-104.775,-31.234],[-104.679,-31.295],[-104.587,-31.356],[-104.496,-31.416],[-104.329,-31.397],[-104.262,-31.317],[-104.096,-31.298],[-104.029,-31.219],[-103.958,-31.139],[-103.796,-31.119],[-103.629,-31.099],[-103.562,-31.019],[-103.4,-30.999],[-103.238,-30.978],[-103.142,-31.037],[-103.05,-31.097],[-102.954,-31.156],[-102.858,-31.215],[-102.767,-31.274],[-102.671,-31.333],[-102.646,-31.472],[-102.621,-31.612],[-102.687,-31.692],[-102.663,-31.832],[-102.733,-31.912],[-102.8,-31.993],[-102.775,-32.132],[-102.75,-32.272],[-102.725,-32.412],[-102.7,-32.551],[-102.767,-32.632],[-102.742,-32.771],[-102.717,-32.911],[-102.787,-32.991],[-102.762,-33.131],[-102.833,-33.211],[-102.904,-33.292],[-102.975,-33.372],[-103.046,-33.452],[-103.117,-33.532],[-103.283,-33.553],[-103.379,-33.494],[-103.475,-33.434],[-103.571,-33.374],[-103.596,-33.234],[-103.692,-33.174],[-103.787,-33.114],[-103.883,-33.054],[-103.979,-32.994],[-104.075,-32.934],[-104.242,-32.953],[-104.408,-32.972],[-104.575,-32.991],[-104.646,-33.07],[-104.812,-33.089],[-104.979,-33.107],[-105.146,-33.124],[-105.313,-33.142],[-105.408,-33.081],[-105.429,-32.941],[-105.525,-32.879],[-105.617,-32.818],[-105.638,-32.678],[-105.658,-32.538],[-105.587,-32.46],[-105.517,-32.381],[-105.442,-32.302],[-105.462,-32.163],[-105.392,-32.084],[-105.321,-32.005],[-105.342,-31.866],[-105.438,-31.804],[-105.529,-31.743],[-105.621,-31.682],[-105.787,-31.699],[-105.95,-31.716],[-106.042,-31.654],[-106.208,-31.67],[-106.3,-31.608],[-106.392,-31.547],[-106.483,-31.484],[-106.575,-31.422],[-106.596,-31.283]],[[-116.925,-51.729],[-116.808,-51.66],[-116.692,-51.591],[-116.575,-51.522],[-116.458,-51.453],[-116.233,-51.456],[-116.004,-51.458],[-115.779,-51.459],[-115.55,-51.461],[-115.325,-51.462],[-115.096,-51.462],[-114.871,-51.462],[-114.642,-51.462],[-114.417,-51.461],[-114.187,-51.46],[-113.962,-51.458],[-113.733,-51.456],[-113.621,-51.525],[-113.392,-51.522],[-113.167,-51.519],[-113.05,-51.588],[-112.933,-51.657],[-112.813,-51.726],[-112.696,-51.794],[-112.579,-51.863],[-112.462,-51.931],[-112.342,-51.999],[-112.333,-52.141],[-112.325,-52.282],[-112.204,-52.35],[-112.196,-52.491],[-112.075,-52.559],[-111.954,-52.627],[-111.833,-52.694],[-111.821,-52.836],[-111.7,-52.903],[-111.692,-53.044],[-111.8,-53.118],[-111.912,-53.191],[-112.025,-53.265],[-112.142,-53.338],[-112.254,-53.411],[-112.367,-53.484],[-112.483,-53.557],[-112.596,-53.63],[-112.712,-53.703],[-112.829,-53.776],[-112.942,-53.848],[-113.058,-53.921],[-113.175,-53.993],[-113.292,-54.066],[-113.413,-54.138],[-113.529,-54.21],[-113.646,-54.282],[-113.767,-54.354],[-113.883,-54.425],[-114.125,-54.427],[-114.246,-54.499],[-114.367,-54.57],[-114.613,-54.571],[-114.733,-54.642],[-114.975,-54.642],[-115.096,-54.713],[-115.221,-54.784],[-115.342,-54.854],[-115.467,-54.924],[-115.592,-54.994],[-115.712,-55.064],[-115.958,-55.063],[-116.208,-55.061],[-116.454,-55.059],[-116.7,-55.056],[-116.821,-54.983],[-117.067,-54.98],[-117.187,-54.907],[-117.433,-54.903],[-117.679,-54.898],[-117.796,-54.825],[-118.042,-54.819],[-118.287,-54.813],[-118.404,-54.739],[-118.521,-54.665],[-118.638,-54.591],[-118.75,-54.517],[-118.742,-54.376],[-118.729,-54.235],[-118.842,-54.161],[-118.829,-54.019],[-118.817,-53.878],[-118.692,-53.811],[-118.679,-53.67],[-118.554,-53.603],[-118.429,-53.536],[-118.421,-53.394],[-118.296,-53.327],[-118.171,-53.259],[-118.05,-53.192],[-118.042,-53.05],[-117.917,-52.982],[-117.796,-52.915],[-117.675,-52.847],[-117.554,-52.779],[-117.433,-52.71],[-117.312,-52.642],[-117.304,-52.501],[-117.187,-52.432],[-117.067,-52.363],[-117.058,-52.222],[-117.054,-52.081],[-117.046,-51.939],[-116.929,-51.871],[-116.925,-51.729]],[[-158.817,-63.323],[-158.625,-63.21],[-158.375,-63.294],[-158.121,-63.379],[-158.087,-63.477],[-158.054,-63.576],[-158.246,-63.69],[-158.467,-63.704],[-158.721,-63.62],[-158.975,-63.534],[-159.004,-63.435],[-158.817,-63.323]],[[177.083,-60.939],[177.283,-60.963],[177.487,-60.985],[177.642,-61.105],[177.796,-61.225],[178,-61.247],[178.158,-61.366],[178.363,-61.388],[178.521,-61.507],[178.725,-61.527],[178.888,-61.646],[179.096,-61.666],[179.258,-61.784],[179.425,-61.902],[179.592,-62.02],[179.55,-62.118],[179.508,-62.216],[179.467,-62.314],[179.213,-62.392],[178.958,-62.47],[178.746,-62.449],[178.487,-62.526],[178.275,-62.505],[178.067,-62.484],[177.854,-62.462],[177.692,-62.342],[177.529,-62.222],[177.371,-62.102],[177.213,-61.982],[177.004,-61.959],[176.85,-61.838],[176.642,-61.814],[176.488,-61.693],[176.283,-61.669],[176.129,-61.547],[175.979,-61.426],[176.033,-61.329],[176.083,-61.232],[176.333,-61.159],[176.388,-61.062],[176.638,-60.989],[176.838,-61.013],[177.083,-60.939]],[[172.233,-59.856],[172.421,-59.886],[172.613,-59.916],[172.8,-59.946],[172.933,-60.071],[173.067,-60.196],[173.2,-60.32],[173.396,-60.349],[173.588,-60.378],[173.725,-60.502],[173.921,-60.53],[174.117,-60.558],[174.313,-60.585],[174.454,-60.709],[174.396,-60.805],[174.342,-60.901],[174.088,-60.97],[173.888,-60.942],[173.633,-61.01],[173.433,-60.981],[173.179,-61.048],[172.979,-61.019],[172.783,-60.99],[172.588,-60.96],[172.392,-60.93],[172.196,-60.9],[172,-60.869],[171.804,-60.838],[171.608,-60.807],[171.413,-60.776],[171.221,-60.744],[171.092,-60.617],[170.9,-60.585],[170.771,-60.458],[170.646,-60.331],[170.713,-60.236],[170.779,-60.142],[171.033,-60.079],[171.096,-59.985],[171.35,-59.922],[171.6,-59.858],[171.854,-59.794],[172.042,-59.825],[172.233,-59.856]],[[161.429,-58.998],[161.604,-59.043],[161.775,-59.089],[161.95,-59.133],[162.038,-59.267],[162.213,-59.312],[162.388,-59.356],[162.479,-59.49],[162.654,-59.534],[162.833,-59.578],[163.096,-59.531],[163.358,-59.484],[163.621,-59.436],[163.883,-59.388],[163.967,-59.297],[164.046,-59.207],[164.308,-59.158],[164.388,-59.067],[164.646,-59.017],[164.725,-58.926],[164.979,-58.876],[165.058,-58.784],[165.138,-58.692],[165.217,-58.601],[165.467,-58.55],[165.546,-58.458],[165.621,-58.366],[165.696,-58.275],[165.771,-58.183],[166.021,-58.13],[166.267,-58.077],[166.517,-58.024],[166.687,-58.062],[166.863,-58.101],[167.038,-58.138],[167.217,-58.176],[167.321,-58.306],[167.496,-58.344],[167.604,-58.474],[167.708,-58.603],[167.638,-58.696],[167.567,-58.789],[167.496,-58.882],[167.242,-58.937],[167.171,-59.03],[166.917,-59.085],[166.842,-59.177],[166.588,-59.232],[166.513,-59.324],[166.438,-59.416],[166.358,-59.508],[166.467,-59.639],[166.571,-59.77],[166.754,-59.808],[166.863,-59.939],[167.05,-59.977],[167.233,-60.014],[167.346,-60.145],[167.458,-60.275],[167.571,-60.405],[167.496,-60.497],[167.417,-60.591],[167.533,-60.721],[167.454,-60.813],[167.379,-60.906],[167.3,-60.999],[167.033,-61.054],[166.954,-61.146],[166.683,-61.201],[166.604,-61.293],[166.333,-61.347],[166.058,-61.4],[165.783,-61.452],[165.7,-61.544],[165.425,-61.596],[165.342,-61.687],[165.063,-61.739],[164.783,-61.789],[164.504,-61.839],[164.221,-61.889],[164.029,-61.847],[163.746,-61.895],[163.554,-61.853],[163.275,-61.9],[163.083,-61.857],[162.8,-61.904],[162.517,-61.95],[162.325,-61.906],[162.038,-61.951],[161.85,-61.906],[161.563,-61.95],[161.279,-61.994],[161.087,-61.948],[160.9,-61.902],[160.612,-61.944],[160.425,-61.897],[160.242,-61.85],[159.954,-61.891],[159.767,-61.844],[159.579,-61.796],[159.396,-61.748],[159.212,-61.699],[159.129,-61.564],[158.946,-61.515],[158.763,-61.466],[158.583,-61.417],[158.504,-61.281],[158.325,-61.231],[158.142,-61.182],[157.963,-61.132],[157.888,-60.995],[157.713,-60.945],[157.533,-60.894],[157.462,-60.757],[157.283,-60.707],[157.108,-60.656],[156.933,-60.605],[156.758,-60.553],[156.588,-60.502],[156.517,-60.364],[156.346,-60.312],[156.175,-60.26],[156.004,-60.208],[155.937,-60.07],[155.875,-59.932],[155.979,-59.848],[155.913,-59.71],[156.188,-59.677],[156.292,-59.592],[156.563,-59.558],[156.663,-59.473],[156.933,-59.439],[157.1,-59.49],[157.371,-59.455],[157.542,-59.505],[157.813,-59.469],[158.079,-59.433],[158.25,-59.482],[158.517,-59.445],[158.617,-59.358],[158.712,-59.271],[158.979,-59.233],[159.071,-59.145],[159.167,-59.058],[159.263,-58.97],[159.354,-58.883],[159.617,-58.843],[159.879,-58.803],[160.142,-58.762],[160.313,-58.809],[160.479,-58.856],[160.654,-58.903],[160.913,-58.861],[161.083,-58.907],[161.258,-58.952],[161.429,-58.998]]]]}}]}
