{"type":"FeatureCollection","features":[{"type":"Feature","id":"ol5","properties":{},"geometry":{"type":"MultiPolygon","coordinates":[[[[-79.996,-6.272],[-79.95,-6.184],[-79.904,-6.095],[-79.858,-6.006],[-79.812,-5.917],[-79.767,-5.829],[-79.629,-5.786],[-79.583,-5.698],[-79.45,-5.655],[-79.358,-5.701],[-79.271,-5.747],[-79.179,-5.793],[-79.092,-5.839],[-79,-5.885],[-78.913,-5.931],[-78.825,-5.977],[-78.779,-6.112],[-78.692,-6.158],[-78.6,-6.204],[-78.512,-6.249],[-78.421,-6.295],[-78.333,-6.341],[-78.246,-6.387],[-78.2,-6.522],[-78.113,-6.567],[-78.067,-6.702],[-78.025,-6.837],[-78.071,-6.926],[-78.025,-7.06],[-77.983,-7.195],[-77.942,-7.329],[-77.85,-7.375],[-77.762,-7.421],[-77.671,-7.466],[-77.579,-7.512],[-77.537,-7.647],[-77.446,-7.692],[-77.404,-7.827],[-77.358,-7.961],[-77.404,-8.05],[-77.363,-8.184],[-77.408,-8.273],[-77.542,-8.316],[-77.592,-8.405],[-77.725,-8.448],[-77.817,-8.402],[-77.95,-8.446],[-78.042,-8.4],[-78.133,-8.354],[-78.175,-8.22],[-78.267,-8.174],[-78.308,-8.039],[-78.354,-7.905],[-78.442,-7.859],[-78.533,-7.813],[-78.621,-7.767],[-78.712,-7.722],[-78.846,-7.764],[-78.937,-7.719],[-79.071,-7.761],[-79.163,-7.716],[-79.3,-7.758],[-79.433,-7.801],[-79.525,-7.755],[-79.613,-7.709],[-79.704,-7.663],[-79.792,-7.617],[-79.883,-7.571],[-79.925,-7.436],[-79.967,-7.301],[-80.013,-7.167],[-80.054,-7.032],[-80.008,-6.943],[-80.05,-6.808],[-80.004,-6.719],[-80.046,-6.585],[-80,-6.496],[-79.954,-6.407],[-79.996,-6.272]],[[-92.492,-28.874],[-92.433,-28.788],[-92.375,-28.702],[-92.217,-28.667],[-92.158,-28.581],[-92.004,-28.546],[-91.85,-28.511],[-91.692,-28.476],[-91.633,-28.389],[-91.479,-28.354],[-91.421,-28.267],[-91.363,-28.181],[-91.208,-28.145],[-91.154,-28.059],[-91.096,-27.973],[-91.037,-27.886],[-90.983,-27.8],[-90.925,-27.713],[-90.867,-27.627],[-90.812,-27.541],[-90.658,-27.504],[-90.6,-27.417],[-90.45,-27.381],[-90.296,-27.344],[-90.142,-27.307],[-90.083,-27.22],[-89.933,-27.183],[-89.875,-27.096],[-89.821,-27.009],[-89.767,-26.923],[-89.708,-26.836],[-89.558,-26.798],[-89.5,-26.711],[-89.446,-26.624],[-89.392,-26.537],[-89.238,-26.5],[-89.183,-26.413],[-89.129,-26.326],[-89.075,-26.239],[-89.021,-26.152],[-88.967,-26.064],[-88.817,-26.026],[-88.758,-25.939],[-88.704,-25.852],[-88.554,-25.814],[-88.404,-25.775],[-88.254,-25.736],[-88.104,-25.698],[-88.004,-25.746],[-87.908,-25.794],[-87.758,-25.755],[-87.658,-25.804],[-87.508,-25.764],[-87.413,-25.812],[-87.262,-25.773],[-87.208,-25.685],[-87.058,-25.645],[-87.004,-25.558],[-86.95,-25.47],[-86.9,-25.382],[-86.846,-25.295],[-86.796,-25.207],[-86.742,-25.119],[-86.687,-25.032],[-86.638,-24.944],[-86.583,-24.856],[-86.629,-24.721],[-86.575,-24.633],[-86.525,-24.546],[-86.567,-24.41],[-86.613,-24.275],[-86.563,-24.187],[-86.604,-24.052],[-86.65,-23.916],[-86.692,-23.781],[-86.738,-23.645],[-86.779,-23.51],[-86.729,-23.422],[-86.675,-23.334],[-86.721,-23.199],[-86.667,-23.111],[-86.521,-23.071],[-86.471,-22.984],[-86.321,-22.943],[-86.175,-22.903],[-86.079,-22.951],[-85.933,-22.91],[-85.837,-22.957],[-85.692,-22.917],[-85.542,-22.876],[-85.446,-22.923],[-85.3,-22.882],[-85.154,-22.841],[-85.008,-22.8],[-84.863,-22.759],[-84.767,-22.806],[-84.721,-22.941],[-84.771,-23.029],[-84.821,-23.117],[-84.871,-23.205],[-84.921,-23.293],[-84.975,-23.381],[-85.025,-23.469],[-84.979,-23.604],[-85.029,-23.692],[-84.983,-23.827],[-84.937,-23.962],[-84.988,-24.05],[-84.892,-24.097],[-84.846,-24.232],[-84.8,-24.366],[-84.754,-24.501],[-84.708,-24.636],[-84.663,-24.77],[-84.712,-24.859],[-84.763,-24.947],[-84.812,-25.035],[-84.867,-25.123],[-84.917,-25.211],[-84.967,-25.299],[-85.021,-25.387],[-85.071,-25.475],[-85.121,-25.563],[-85.175,-25.651],[-85.125,-25.786],[-85.029,-25.832],[-84.929,-25.879],[-84.779,-25.837],[-84.629,-25.796],[-84.533,-25.842],[-84.433,-25.888],[-84.333,-25.934],[-84.238,-25.98],[-84.137,-26.026],[-84.087,-26.161],[-84.042,-26.295],[-83.992,-26.429],[-84.042,-26.517],[-84.096,-26.605],[-84.046,-26.739],[-84.096,-26.827],[-84.15,-26.916],[-84.2,-27.004],[-84.25,-27.092],[-84.3,-27.181],[-84.354,-27.269],[-84.404,-27.357],[-84.354,-27.491],[-84.408,-27.579],[-84.458,-27.667],[-84.508,-27.756],[-84.462,-27.89],[-84.512,-27.978],[-84.562,-28.066],[-84.517,-28.2],[-84.567,-28.288],[-84.617,-28.376],[-84.671,-28.464],[-84.821,-28.507],[-84.875,-28.595],[-84.925,-28.683],[-84.979,-28.771],[-85.029,-28.859],[-85.183,-28.901],[-85.238,-28.989],[-85.287,-29.077],[-85.342,-29.165],[-85.396,-29.253],[-85.446,-29.341],[-85.4,-29.475],[-85.45,-29.563],[-85.504,-29.651],[-85.558,-29.739],[-85.608,-29.827],[-85.663,-29.915],[-85.613,-30.049],[-85.667,-30.137],[-85.721,-30.225],[-85.771,-30.313],[-85.725,-30.447],[-85.775,-30.535],[-85.829,-30.623],[-85.883,-30.711],[-85.937,-30.799],[-85.992,-30.887],[-86.046,-30.974],[-86.1,-31.062],[-86.254,-31.104],[-86.308,-31.192],[-86.467,-31.233],[-86.625,-31.274],[-86.783,-31.314],[-86.942,-31.355],[-87.042,-31.308],[-87.2,-31.349],[-87.304,-31.301],[-87.462,-31.342],[-87.517,-31.429],[-87.675,-31.469],[-87.733,-31.557],[-87.787,-31.644],[-87.842,-31.731],[-87.9,-31.819],[-87.954,-31.906],[-88.008,-31.994],[-88.067,-32.081],[-88.121,-32.168],[-88.283,-32.208],[-88.442,-32.247],[-88.546,-32.199],[-88.704,-32.238],[-88.808,-32.19],[-88.971,-32.229],[-89.075,-32.18],[-89.175,-32.132],[-89.337,-32.17],[-89.442,-32.121],[-89.6,-32.159],[-89.704,-32.111],[-89.808,-32.062],[-89.908,-32.013],[-89.954,-31.877],[-89.896,-31.79],[-89.837,-31.703],[-89.679,-31.665],[-89.621,-31.578],[-89.462,-31.54],[-89.404,-31.453],[-89.35,-31.366],[-89.292,-31.279],[-89.233,-31.192],[-89.179,-31.106],[-89.225,-30.97],[-89.167,-30.883],[-89.212,-30.747],[-89.258,-30.611],[-89.358,-30.562],[-89.458,-30.514],[-89.562,-30.464],[-89.663,-30.416],[-89.762,-30.366],[-89.921,-30.404],[-90.021,-30.355],[-90.179,-30.392],[-90.338,-30.429],[-90.496,-30.466],[-90.654,-30.503],[-90.754,-30.453],[-90.913,-30.489],[-91.012,-30.439],[-91.113,-30.389],[-91.212,-30.339],[-91.313,-30.289],[-91.413,-30.239],[-91.512,-30.188],[-91.671,-30.224],[-91.771,-30.173],[-91.929,-30.209],[-92.029,-30.158],[-92.187,-30.193],[-92.288,-30.142],[-92.387,-30.091],[-92.488,-30.04],[-92.525,-29.903],[-92.567,-29.766],[-92.608,-29.629],[-92.546,-29.543],[-92.587,-29.406],[-92.529,-29.32],[-92.567,-29.183],[-92.508,-29.097],[-92.55,-28.96],[-92.492,-28.874]],[[-84.413,-22.189],[-84.363,-22.101],[-84.217,-22.059],[-84.121,-22.106],[-84.025,-22.152],[-83.879,-22.11],[-83.783,-22.157],[-83.738,-22.291],[-83.788,-22.379],[-83.933,-22.421],[-83.983,-22.51],[-84.129,-22.552],[-84.275,-22.593],[-84.421,-22.635],[-84.471,-22.723],[-84.617,-22.764],[-84.808,-22.671],[-84.758,-22.583],[-84.708,-22.495],[-84.658,-22.407],[-84.512,-22.365],[-84.462,-22.277],[-84.413,-22.189]],[[-94.038,-34.732],[-93.975,-34.646],[-93.913,-34.561],[-93.746,-34.528],[-93.683,-34.442],[-93.517,-34.409],[-93.35,-34.375],[-93.183,-34.341],[-93.021,-34.307],[-92.917,-34.358],[-92.75,-34.323],[-92.687,-34.238],[-92.521,-34.203],[-92.462,-34.117],[-92.4,-34.031],[-92.233,-33.996],[-92.175,-33.91],[-92.113,-33.824],[-92.05,-33.738],[-91.992,-33.652],[-91.929,-33.566],[-91.767,-33.53],[-91.604,-33.494],[-91.5,-33.544],[-91.396,-33.595],[-91.292,-33.645],[-91.187,-33.695],[-91.083,-33.744],[-90.979,-33.794],[-90.817,-33.757],[-90.708,-33.807],[-90.604,-33.856],[-90.5,-33.906],[-90.338,-33.869],[-90.175,-33.831],[-90.008,-33.793],[-89.846,-33.756],[-89.787,-33.669],[-89.729,-33.582],[-89.671,-33.495],[-89.613,-33.408],[-89.45,-33.37],[-89.287,-33.331],[-89.183,-33.38],[-89.079,-33.428],[-88.975,-33.476],[-88.867,-33.524],[-88.762,-33.573],[-88.717,-33.708],[-88.771,-33.795],[-88.725,-33.93],[-88.675,-34.065],[-88.733,-34.152],[-88.683,-34.287],[-88.742,-34.374],[-88.8,-34.462],[-88.75,-34.597],[-88.808,-34.684],[-88.867,-34.771],[-88.817,-34.906],[-88.875,-34.993],[-88.933,-35.08],[-88.992,-35.167],[-89.05,-35.254],[-89.108,-35.341],[-89.167,-35.428],[-89.225,-35.516],[-89.392,-35.554],[-89.45,-35.641],[-89.508,-35.728],[-89.567,-35.815],[-89.738,-35.854],[-89.904,-35.892],[-89.962,-35.979],[-90.129,-36.017],[-90.3,-36.055],[-90.467,-36.092],[-90.633,-36.13],[-90.742,-36.081],[-90.913,-36.118],[-91.017,-36.068],[-91.067,-35.932],[-91.171,-35.883],[-91.279,-35.833],[-91.388,-35.783],[-91.492,-35.734],[-91.663,-35.77],[-91.767,-35.72],[-91.937,-35.756],[-92.104,-35.791],[-92.167,-35.877],[-92.229,-35.963],[-92.396,-35.999],[-92.567,-36.034],[-92.629,-36.12],[-92.796,-36.154],[-92.904,-36.104],[-93.012,-36.052],[-93.179,-36.087],[-93.288,-36.036],[-93.329,-35.899],[-93.433,-35.847],[-93.542,-35.796],[-93.583,-35.659],[-93.687,-35.607],[-93.792,-35.555],[-93.833,-35.418],[-93.937,-35.366],[-94.046,-35.314],[-94.083,-35.177],[-94.125,-35.039],[-94.063,-34.954],[-94.104,-34.817],[-94.038,-34.732]],[[-116.142,-52.376],[-116.025,-52.306],[-116.021,-52.165],[-115.904,-52.095],[-115.787,-52.025],[-115.558,-52.026],[-115.442,-51.956],[-115.325,-51.886],[-115.096,-51.886],[-114.867,-51.886],[-114.637,-51.886],[-114.525,-51.956],[-114.408,-52.026],[-114.292,-52.096],[-114.175,-52.166],[-114.175,-52.308],[-114.171,-52.449],[-114.283,-52.521],[-114.283,-52.662],[-114.4,-52.733],[-114.512,-52.804],[-114.629,-52.876],[-114.746,-52.946],[-114.863,-53.017],[-114.983,-53.088],[-115.1,-53.159],[-115.217,-53.229],[-115.337,-53.299],[-115.454,-53.37],[-115.575,-53.44],[-115.692,-53.51],[-115.813,-53.58],[-115.933,-53.65],[-116.054,-53.72],[-116.175,-53.789],[-116.296,-53.859],[-116.421,-53.928],[-116.542,-53.997],[-116.663,-54.067],[-116.904,-54.063],[-117.146,-54.059],[-117.387,-54.055],[-117.504,-53.982],[-117.496,-53.841],[-117.487,-53.699],[-117.363,-53.631],[-117.358,-53.49],[-117.233,-53.421],[-117.113,-53.353],[-117.104,-53.211],[-116.983,-53.143],[-116.863,-53.074],[-116.742,-53.005],[-116.625,-52.936],[-116.504,-52.867],[-116.5,-52.725],[-116.379,-52.656],[-116.262,-52.587],[-116.258,-52.445],[-116.142,-52.376]],[[160.633,-59.35],[160.808,-59.396],[160.983,-59.442],[161.158,-59.489],[161.333,-59.534],[161.421,-59.669],[161.504,-59.803],[161.417,-59.892],[161.325,-59.981],[161.233,-60.07],[160.963,-60.113],[160.871,-60.202],[160.596,-60.244],[160.325,-60.286],[160.229,-60.374],[159.954,-60.415],[159.683,-60.455],[159.404,-60.495],[159.129,-60.534],[158.954,-60.486],[158.875,-60.349],[158.796,-60.213],[158.896,-60.126],[158.996,-60.039],[159.092,-59.951],[159.187,-59.864],[159.283,-59.776],[159.554,-59.737],[159.65,-59.649],[159.742,-59.561],[159.838,-59.473],[159.929,-59.386],[160.196,-59.345],[160.463,-59.303],[160.633,-59.35]]]]}}]}
