{"type":"FeatureCollection","features":[{"type":"Feature","id":"ol3","properties":{},"geometry":{"type":"MultiPolygon","coordinates":[[[[-28.808,55.741],[-28.667,55.799],[-28.521,55.857],[-28.271,55.833],[-28.125,55.891],[-27.979,55.948],[-27.729,55.923],[-27.483,55.898],[-27.233,55.872],[-26.988,55.846],[-26.742,55.819],[-26.592,55.875],[-26.446,55.93],[-26.296,55.986],[-26.146,56.041],[-25.996,56.096],[-25.946,56.234],[-25.796,56.289],[-25.642,56.344],[-25.492,56.398],[-25.437,56.537],[-25.287,56.591],[-25.133,56.645],[-24.883,56.614],[-24.729,56.668],[-24.575,56.721],[-24.517,56.859],[-24.363,56.912],[-24.204,56.965],[-24.146,57.103],[-23.992,57.155],[-23.929,57.293],[-23.771,57.345],[-23.613,57.397],[-23.454,57.449],[-23.392,57.586],[-23.233,57.638],[-23.071,57.689],[-22.913,57.741],[-22.75,57.792],[-22.587,57.843],[-22.329,57.807],[-22.167,57.857],[-21.913,57.821],[-21.654,57.783],[-21.4,57.746],[-21.308,57.659],[-21.217,57.571],[-20.962,57.533],[-20.708,57.494],[-20.546,57.542],[-20.383,57.59],[-20.221,57.638],[-20.054,57.686],[-19.892,57.733],[-19.725,57.78],[-19.471,57.738],[-19.217,57.696],[-18.967,57.654],[-18.879,57.565],[-18.629,57.522],[-18.546,57.433],[-18.462,57.344],[-18.212,57.3],[-18.129,57.21],[-18.046,57.121],[-17.962,57.032],[-17.883,56.942],[-17.8,56.853],[-17.883,56.719],[-17.962,56.584],[-18.125,56.54],[-18.204,56.405],[-18.367,56.36],[-18.529,56.315],[-18.604,56.181],[-18.767,56.135],[-18.925,56.089],[-19.083,56.043],[-19.242,55.997],[-19.4,55.95],[-19.642,55.992],[-19.883,56.033],[-20.042,55.986],[-20.283,56.026],[-20.525,56.066],[-20.683,56.018],[-20.925,56.057],[-21.083,56.008],[-21.238,55.959],[-21.479,55.997],[-21.725,56.034],[-21.971,56.072],[-22.212,56.108],[-22.458,56.144],[-22.704,56.179],[-22.858,56.129],[-23.104,56.163],[-23.258,56.112],[-23.321,55.974],[-23.229,55.889],[-23.287,55.751],[-23.196,55.666],[-22.954,55.631],[-22.863,55.546],[-22.621,55.51],[-22.471,55.561],[-22.229,55.525],[-21.988,55.489],[-21.746,55.452],[-21.658,55.365],[-21.421,55.327],[-21.333,55.24],[-21.246,55.153],[-21.163,55.066],[-21.075,54.979],[-20.992,54.891],[-21.058,54.755],[-20.975,54.668],[-21.042,54.532],[-20.954,54.445],[-21.021,54.309],[-21.171,54.26],[-21.321,54.211],[-21.467,54.162],[-21.617,54.113],[-21.762,54.063],[-21.913,54.013],[-22.058,53.963],[-22.121,53.827],[-22.033,53.74],[-22.096,53.604],[-22.158,53.467],[-22.071,53.381],[-22.133,53.244],[-22.275,53.194],[-22.337,53.057],[-22.396,52.92],[-22.537,52.87],[-22.596,52.733],[-22.654,52.596],[-22.571,52.51],[-22.488,52.424],[-22.404,52.338],[-22.458,52.201],[-22.379,52.115],[-22.433,51.978],[-22.492,51.841],[-22.55,51.705],[-22.604,51.568],[-22.742,51.517],[-22.796,51.38],[-22.933,51.329],[-23.071,51.278],[-23.208,51.226],[-23.342,51.175],[-23.562,51.208],[-23.779,51.242],[-23.917,51.189],[-24.133,51.222],[-24.271,51.169],[-24.404,51.116],[-24.537,51.063],[-24.587,50.925],[-24.721,50.872],[-24.771,50.734],[-24.817,50.596],[-24.95,50.543],[-25.079,50.489],[-25.125,50.351],[-25.258,50.297],[-25.387,50.243],[-25.521,50.189],[-25.562,50.051],[-25.692,49.996],[-25.908,50.025],[-26.125,50.053],[-26.337,50.081],[-26.554,50.109],[-26.642,50.191],[-26.858,50.218],[-27.075,50.245],[-27.292,50.271],[-27.421,50.214],[-27.638,50.24],[-27.767,50.183],[-27.892,50.126],[-27.929,49.986],[-27.967,49.847],[-28.096,49.79],[-28.221,49.733],[-28.346,49.675],[-28.562,49.698],[-28.687,49.64],[-28.9,49.663],[-29.025,49.604],[-29.15,49.546],[-29.275,49.487],[-29.396,49.428],[-29.429,49.289],[-29.462,49.149],[-29.492,49.009],[-29.404,48.929],[-29.433,48.789],[-29.467,48.65],[-29.379,48.569],[-29.408,48.429],[-29.442,48.29],[-29.471,48.151],[-29.504,48.011],[-29.533,47.871],[-29.65,47.812],[-29.771,47.753],[-29.8,47.613],[-29.917,47.554],[-30.125,47.574],[-30.242,47.514],[-30.358,47.454],[-30.567,47.473],[-30.775,47.492],[-30.979,47.511],[-31.096,47.45],[-31.304,47.468],[-31.512,47.485],[-31.604,47.564],[-31.696,47.643],[-31.787,47.721],[-31.879,47.8],[-31.971,47.878],[-32.062,47.956],[-32.158,48.035],[-32.25,48.113],[-32.346,48.191],[-32.437,48.269],[-32.533,48.347],[-32.625,48.425],[-32.837,48.44],[-32.933,48.517],[-33.029,48.595],[-33.125,48.672],[-33.337,48.686],[-33.433,48.763],[-33.529,48.84],[-33.629,48.918],[-33.725,48.994],[-33.821,49.071],[-33.921,49.148],[-34.021,49.225],[-34.117,49.301],[-34.333,49.313],[-34.45,49.249],[-34.567,49.184],[-34.683,49.119],[-34.8,49.054],[-34.913,48.989],[-35.029,48.924],[-35.146,48.859],[-35.158,48.718],[-35.275,48.652],[-35.387,48.587],[-35.5,48.521],[-35.517,48.38],[-35.629,48.314],[-35.742,48.249],[-35.754,48.108],[-35.867,48.041],[-35.979,47.975],[-35.992,47.834],[-36.104,47.768],[-36.117,47.627],[-36.125,47.486],[-36.137,47.345],[-36.25,47.278],[-36.258,47.137],[-36.271,46.996],[-36.283,46.855],[-36.296,46.714],[-36.304,46.573],[-36.413,46.506],[-36.425,46.366],[-36.533,46.299],[-36.637,46.232],[-36.842,46.239],[-36.95,46.172],[-37.054,46.104],[-37.163,46.037],[-37.267,45.97],[-37.371,45.902],[-37.479,45.834],[-37.583,45.767],[-37.687,45.699],[-37.696,45.558],[-37.8,45.49],[-37.904,45.421],[-38.004,45.353],[-38.208,45.358],[-38.408,45.362],[-38.504,45.434],[-38.604,45.507],[-38.704,45.579],[-38.7,45.72],[-38.796,45.793],[-38.896,45.865],[-38.892,46.006],[-38.992,46.078],[-38.988,46.219],[-38.983,46.361],[-39.087,46.433],[-39.083,46.574],[-39.079,46.716],[-39.075,46.857],[-38.971,46.926],[-38.967,47.068],[-38.962,47.209],[-38.958,47.35],[-38.85,47.419],[-38.742,47.488],[-38.738,47.629],[-38.629,47.699],[-38.525,47.767],[-38.517,47.909],[-38.512,48.05],[-38.617,48.123],[-38.608,48.264],[-38.712,48.336],[-38.708,48.478],[-38.704,48.619],[-38.7,48.76],[-38.587,48.829],[-38.583,48.971],[-38.471,49.039],[-38.363,49.108],[-38.25,49.177],[-38.242,49.318],[-38.133,49.386],[-38.125,49.528],[-38.012,49.596],[-37.9,49.664],[-37.788,49.733],[-37.671,49.8],[-37.558,49.868],[-37.55,50.009],[-37.433,50.077],[-37.321,50.145],[-37.312,50.286],[-37.196,50.354],[-37.183,50.495],[-37.175,50.636],[-37.283,50.71],[-37.271,50.851],[-37.262,50.993],[-37.254,51.134],[-37.242,51.275],[-37.125,51.343],[-37.004,51.41],[-36.887,51.477],[-36.875,51.618],[-36.863,51.76],[-36.746,51.827],[-36.733,51.968],[-36.721,52.109],[-36.829,52.183],[-36.817,52.325],[-36.808,52.466],[-36.796,52.607],[-36.783,52.748],[-36.771,52.889],[-36.65,52.957],[-36.637,53.098],[-36.512,53.164],[-36.5,53.306],[-36.375,53.373],[-36.137,53.364],[-36.013,53.431],[-35.775,53.422],[-35.537,53.412],[-35.3,53.402],[-35.067,53.392],[-34.954,53.316],[-34.721,53.306],[-34.613,53.229],[-34.375,53.218],[-34.142,53.206],[-34.033,53.129],[-33.929,53.052],[-33.692,53.039],[-33.587,52.962],[-33.608,52.821],[-33.504,52.744],[-33.525,52.604],[-33.55,52.463],[-33.571,52.322],[-33.696,52.258],[-33.717,52.118],[-33.842,52.054],[-33.967,51.989],[-33.988,51.849],[-34.113,51.784],[-34.238,51.72],[-34.358,51.656],[-34.483,51.591],[-34.604,51.526],[-34.729,51.462],[-34.85,51.397],[-34.867,51.256],[-34.988,51.191],[-35.004,51.049],[-34.9,50.974],[-34.796,50.898],[-34.696,50.822],[-34.592,50.746],[-34.492,50.669],[-34.387,50.593],[-34.167,50.581],[-34.067,50.504],[-33.962,50.428],[-33.863,50.351],[-33.762,50.274],[-33.542,50.261],[-33.325,50.247],[-33.204,50.311],[-33.079,50.374],[-32.958,50.437],[-32.837,50.5],[-32.812,50.64],[-32.692,50.703],[-32.667,50.844],[-32.646,50.984],[-32.621,51.125],[-32.596,51.265],[-32.571,51.406],[-32.546,51.546],[-32.646,51.624],[-32.625,51.765],[-32.725,51.843],[-32.7,51.983],[-32.675,52.124],[-32.779,52.202],[-32.754,52.343],[-32.729,52.483],[-32.704,52.624],[-32.575,52.686],[-32.55,52.827],[-32.525,52.968],[-32.5,53.108],[-32.367,53.171],[-32.238,53.233],[-32.212,53.373],[-32.183,53.514],[-32.05,53.576],[-31.921,53.638],[-31.892,53.778],[-31.758,53.84],[-31.625,53.902],[-31.492,53.963],[-31.458,54.103],[-31.325,54.165],[-31.296,54.305],[-31.158,54.366],[-31.129,54.506],[-31.096,54.646],[-30.958,54.707],[-30.821,54.768],[-30.787,54.908],[-30.65,54.969],[-30.508,55.029],[-30.267,55.009],[-30.125,55.069],[-29.988,55.129],[-29.846,55.189],[-29.704,55.248],[-29.562,55.307],[-29.421,55.366],[-29.383,55.506],[-29.242,55.565],[-29.096,55.624],[-28.954,55.682],[-28.808,55.741]],[[-35.633,46.05],[-35.429,46.04],[-35.225,46.031],[-35.117,46.096],[-34.917,46.085],[-34.821,46.01],[-34.617,45.999],[-34.525,45.923],[-34.542,45.782],[-34.554,45.641],[-34.663,45.577],[-34.771,45.512],[-34.879,45.447],[-34.988,45.381],[-35.092,45.316],[-35.292,45.326],[-35.387,45.402],[-35.587,45.411],[-35.683,45.486],[-35.775,45.561],[-35.762,45.702],[-35.858,45.777],[-35.846,45.918],[-35.742,45.984],[-35.633,46.05]],[[-49.196,47.318],[-49.104,47.396],[-49.013,47.473],[-48.917,47.551],[-48.825,47.629],[-48.617,47.644],[-48.525,47.721],[-48.429,47.799],[-48.221,47.813],[-48.012,47.826],[-47.917,47.903],[-47.704,47.916],[-47.496,47.929],[-47.383,47.865],[-47.171,47.877],[-46.962,47.889],[-46.846,47.824],[-46.733,47.76],[-46.525,47.771],[-46.413,47.706],[-46.3,47.64],[-46.187,47.575],[-46.171,47.434],[-46.058,47.369],[-46.046,47.228],[-46.029,47.086],[-46.017,46.946],[-46,46.804],[-46.096,46.729],[-46.083,46.588],[-45.971,46.522],[-45.863,46.457],[-45.658,46.466],[-45.562,46.541],[-45.358,46.55],[-45.263,46.625],[-45.054,46.634],[-44.958,46.708],[-44.863,46.783],[-44.871,46.924],[-44.775,46.999],[-44.675,47.073],[-44.579,47.148],[-44.587,47.289],[-44.492,47.363],[-44.392,47.437],[-44.4,47.578],[-44.304,47.652],[-44.204,47.726],[-44.104,47.8],[-44,47.874],[-43.9,47.948],[-43.692,47.954],[-43.587,48.027],[-43.379,48.033],[-43.167,48.038],[-42.954,48.043],[-42.846,47.974],[-42.738,47.906],[-42.733,47.764],[-42.725,47.623],[-42.617,47.554],[-42.613,47.413],[-42.504,47.344],[-42.4,47.275],[-42.292,47.206],[-42.083,47.209],[-41.979,47.14],[-41.871,47.07],[-41.767,47.001],[-41.663,46.931],[-41.554,46.862],[-41.554,46.72],[-41.45,46.65],[-41.446,46.509],[-41.442,46.368],[-41.546,46.296],[-41.442,46.226],[-41.437,46.085],[-41.437,45.944],[-41.433,45.802],[-41.329,45.732],[-41.329,45.591],[-41.325,45.449],[-41.325,45.308],[-41.321,45.167],[-41.321,45.026],[-41.417,44.954],[-41.417,44.813],[-41.413,44.671],[-41.508,44.6],[-41.508,44.459],[-41.504,44.317],[-41.6,44.246],[-41.7,44.174],[-41.896,44.171],[-42.092,44.169],[-42.192,44.238],[-42.296,44.307],[-42.3,44.448],[-42.4,44.517],[-42.504,44.586],[-42.604,44.655],[-42.708,44.723],[-42.808,44.792],[-42.913,44.86],[-43.017,44.929],[-43.117,44.997],[-43.221,45.065],[-43.325,45.133],[-43.429,45.201],[-43.629,45.196],[-43.829,45.19],[-44.029,45.184],[-44.125,45.11],[-44.221,45.036],[-44.212,44.895],[-44.308,44.821],[-44.296,44.679],[-44.392,44.605],[-44.483,44.531],[-44.579,44.457],[-44.671,44.383],[-44.767,44.308],[-44.858,44.234],[-45.054,44.225],[-45.15,44.151],[-45.346,44.142],[-45.542,44.133],[-45.646,44.199],[-45.842,44.189],[-45.95,44.255],[-46.054,44.321],[-46.25,44.311],[-46.358,44.376],[-46.462,44.441],[-46.479,44.582],[-46.583,44.647],[-46.692,44.712],[-46.8,44.777],[-46.817,44.918],[-46.921,44.983],[-46.937,45.124],[-47.046,45.188],[-47.062,45.329],[-47.171,45.394],[-47.192,45.535],[-47.3,45.599],[-47.5,45.587],[-47.7,45.574],[-47.904,45.561],[-48.104,45.548],[-48.212,45.611],[-48.417,45.597],[-48.617,45.583],[-48.729,45.646],[-48.929,45.631],[-49.042,45.694],[-49.242,45.679],[-49.442,45.663],[-49.642,45.647],[-49.733,45.569],[-49.821,45.49],[-49.908,45.412],[-49.996,45.333],[-50.196,45.316],[-50.396,45.299],[-50.508,45.36],[-50.621,45.422],[-50.733,45.483],[-50.758,45.623],[-50.671,45.702],[-50.583,45.781],[-50.496,45.86],[-50.296,45.878],[-50.208,45.956],[-50.117,46.035],[-50.029,46.114],[-49.825,46.13],[-49.738,46.209],[-49.646,46.287],[-49.558,46.365],[-49.467,46.443],[-49.379,46.522],[-49.4,46.662],[-49.308,46.74],[-49.217,46.818],[-49.242,46.959],[-49.262,47.099],[-49.287,47.239],[-49.196,47.318]],[[-56,38.924],[-55.925,39.007],[-55.746,39.033],[-55.642,38.976],[-55.608,38.837],[-55.679,38.754],[-55.858,38.729],[-55.967,38.786],[-56,38.924]],[[-66.562,32.809],[-66.504,32.896],[-66.446,32.983],[-66.387,33.07],[-66.329,33.158],[-66.379,33.293],[-66.321,33.38],[-66.367,33.515],[-66.417,33.651],[-66.358,33.738],[-66.404,33.873],[-66.346,33.96],[-66.396,34.095],[-66.337,34.182],[-66.279,34.269],[-66.221,34.356],[-66.163,34.443],[-66.104,34.53],[-66.046,34.617],[-65.988,34.704],[-65.929,34.791],[-65.871,34.878],[-65.812,34.965],[-65.858,35.1],[-65.908,35.236],[-66.017,35.284],[-66.062,35.419],[-66.113,35.554],[-66.163,35.689],[-66.104,35.776],[-66.042,35.863],[-65.875,35.902],[-65.767,35.854],[-65.6,35.892],[-65.492,35.843],[-65.387,35.794],[-65.217,35.833],[-65.113,35.783],[-65.004,35.734],[-64.896,35.685],[-64.729,35.723],[-64.562,35.76],[-64.392,35.796],[-64.333,35.883],[-64.163,35.919],[-64.104,36.006],[-63.933,36.042],[-63.871,36.128],[-63.812,36.214],[-63.642,36.251],[-63.579,36.337],[-63.517,36.423],[-63.454,36.509],[-63.392,36.595],[-63.437,36.731],[-63.375,36.817],[-63.421,36.953],[-63.529,37.004],[-63.575,37.14],[-63.683,37.19],[-63.792,37.24],[-63.904,37.29],[-64.013,37.339],[-64.121,37.389],[-64.229,37.439],[-64.279,37.574],[-64.217,37.661],[-64.154,37.747],[-64.092,37.833],[-64.029,37.919],[-63.967,38.006],[-63.904,38.092],[-63.842,38.178],[-63.887,38.314],[-63.825,38.4],[-63.762,38.486],[-63.7,38.573],[-63.637,38.659],[-63.575,38.745],[-63.508,38.831],[-63.446,38.917],[-63.271,38.953],[-63.208,39.039],[-63.142,39.125],[-62.967,39.16],[-62.792,39.196],[-62.725,39.281],[-62.55,39.316],[-62.483,39.402],[-62.308,39.437],[-62.242,39.523],[-62.175,39.608],[-62.113,39.694],[-61.933,39.728],[-61.867,39.813],[-61.8,39.899],[-61.733,39.984],[-61.667,40.069],[-61.488,40.103],[-61.421,40.189],[-61.242,40.222],[-61.175,40.307],[-60.996,40.34],[-60.925,40.425],[-60.858,40.51],[-60.679,40.543],[-60.496,40.576],[-60.429,40.661],[-60.246,40.693],[-60.067,40.725],[-59.954,40.672],[-59.775,40.704],[-59.592,40.735],[-59.521,40.819],[-59.45,40.903],[-59.383,40.988],[-59.2,41.019],[-59.129,41.103],[-59.058,41.187],[-58.988,41.271],[-58.917,41.355],[-58.846,41.439],[-58.658,41.469],[-58.475,41.499],[-58.292,41.529],[-58.108,41.558],[-57.996,41.503],[-57.883,41.449],[-57.771,41.394],[-57.658,41.339],[-57.55,41.284],[-57.437,41.229],[-57.4,41.091],[-57.363,40.953],[-57.325,40.814],[-57.396,40.731],[-57.471,40.648],[-57.542,40.564],[-57.504,40.426],[-57.575,40.343],[-57.65,40.259],[-57.613,40.121],[-57.683,40.038],[-57.646,39.899],[-57.608,39.761],[-57.571,39.623],[-57.642,39.539],[-57.604,39.401],[-57.675,39.318],[-57.638,39.179],[-57.533,39.124],[-57.496,38.986],[-57.387,38.93],[-57.279,38.875],[-57.175,38.82],[-57.067,38.764],[-56.962,38.709],[-56.854,38.653],[-56.821,38.514],[-56.996,38.487],[-57.067,38.404],[-57.137,38.321],[-57.208,38.238],[-57.279,38.154],[-57.35,38.071],[-57.421,37.988],[-57.317,37.933],[-57.208,37.877],[-57.104,37.822],[-57,37.766],[-56.825,37.793],[-56.646,37.82],[-56.471,37.847],[-56.437,37.708],[-56.333,37.652],[-56.3,37.513],[-56.371,37.43],[-56.442,37.348],[-56.408,37.209],[-56.479,37.126],[-56.55,37.043],[-56.621,36.961],[-56.692,36.878],[-56.758,36.795],[-56.829,36.712],[-56.796,36.573],[-56.867,36.49],[-56.933,36.407],[-56.9,36.268],[-56.971,36.185],[-56.937,36.047],[-57.004,35.964],[-56.971,35.825],[-57.042,35.742],[-57.008,35.603],[-57.075,35.52],[-57.142,35.437],[-57.212,35.354],[-57.383,35.326],[-57.55,35.298],[-57.721,35.27],[-57.892,35.242],[-58.058,35.213],[-58.229,35.184],[-58.296,35.101],[-58.467,35.071],[-58.533,34.988],[-58.6,34.904],[-58.767,34.874],[-58.871,34.928],[-58.971,34.983],[-59.008,35.121],[-59.113,35.175],[-59.15,35.313],[-59.187,35.451],[-59.287,35.505],[-59.325,35.643],[-59.429,35.697],[-59.467,35.835],[-59.571,35.888],[-59.675,35.942],[-59.846,35.911],[-60.017,35.879],[-60.187,35.848],[-60.358,35.816],[-60.525,35.784],[-60.696,35.752],[-60.867,35.72],[-61.033,35.688],[-61.204,35.655],[-61.375,35.622],[-61.542,35.589],[-61.712,35.555],[-61.775,35.47],[-61.942,35.436],[-62.113,35.402],[-62.175,35.317],[-62.238,35.231],[-62.3,35.146],[-62.363,35.06],[-62.425,34.974],[-62.488,34.889],[-62.55,34.803],[-62.508,34.666],[-62.571,34.581],[-62.633,34.495],[-62.692,34.409],[-62.754,34.323],[-62.817,34.238],[-62.879,34.152],[-62.837,34.015],[-62.896,33.929],[-62.958,33.843],[-62.917,33.707],[-62.875,33.57],[-62.833,33.433],[-62.792,33.296],[-62.75,33.159],[-62.646,33.108],[-62.604,32.971],[-62.667,32.885],[-62.625,32.748],[-62.687,32.663],[-62.646,32.525],[-62.542,32.474],[-62.442,32.423],[-62.337,32.371],[-62.238,32.319],[-62.075,32.353],[-61.975,32.301],[-61.875,32.249],[-61.833,32.112],[-61.733,32.06],[-61.692,31.923],[-61.654,31.786],[-61.717,31.7],[-61.675,31.563],[-61.738,31.478],[-61.8,31.392],[-61.858,31.307],[-61.921,31.221],[-61.979,31.136],[-62.042,31.05],[-62.1,30.965],[-62.163,30.879],[-62.221,30.794],[-62.383,30.76],[-62.442,30.674],[-62.6,30.64],[-62.762,30.606],[-62.921,30.571],[-62.979,30.486],[-63.037,30.4],[-63.1,30.314],[-63.058,30.177],[-63.117,30.091],[-63.075,29.954],[-63.133,29.868],[-63.096,29.731],[-63.054,29.594],[-63.113,29.508],[-63.017,29.457],[-62.975,29.32],[-62.875,29.269],[-62.779,29.217],[-62.679,29.166],[-62.583,29.114],[-62.483,29.063],[-62.446,28.926],[-62.346,28.874],[-62.308,28.737],[-62.367,28.651],[-62.329,28.514],[-62.387,28.428],[-62.446,28.342],[-62.604,28.308],[-62.663,28.223],[-62.721,28.137],[-62.875,28.103],[-63.029,28.068],[-63.087,27.982],[-63.242,27.947],[-63.4,27.912],[-63.554,27.877],[-63.708,27.842],[-63.863,27.807],[-64.017,27.771],[-64.171,27.735],[-64.325,27.699],[-64.483,27.663],[-64.579,27.713],[-64.733,27.677],[-64.829,27.727],[-64.983,27.691],[-65.083,27.74],[-65.179,27.79],[-65.433,27.803],[-65.337,27.753],[-65.488,27.716],[-65.642,27.679],[-65.7,27.592],[-65.754,27.505],[-65.812,27.418],[-65.867,27.331],[-65.921,27.245],[-65.975,27.158],[-65.933,27.021],[-65.892,26.885],[-65.85,26.749],[-65.904,26.662],[-65.863,26.526],[-65.917,26.439],[-66.071,26.401],[-66.221,26.364],[-66.375,26.326],[-66.525,26.288],[-66.625,26.337],[-66.775,26.298],[-66.871,26.347],[-66.971,26.396],[-67.013,26.532],[-67.058,26.668],[-67.1,26.803],[-67.046,26.891],[-66.992,26.978],[-67.033,27.114],[-67.079,27.249],[-67.179,27.298],[-67.275,27.346],[-67.321,27.482],[-67.421,27.531],[-67.517,27.579],[-67.617,27.627],[-67.717,27.675],[-67.813,27.723],[-67.858,27.859],[-67.958,27.906],[-68.058,27.954],[-68.104,28.09],[-68.204,28.138],[-68.25,28.273],[-68.296,28.408],[-68.342,28.543],[-68.387,28.678],[-68.433,28.813],[-68.379,28.901],[-68.425,29.036],[-68.371,29.124],[-68.317,29.211],[-68.262,29.299],[-68.208,29.386],[-68.258,29.521],[-68.204,29.609],[-68.25,29.744],[-68.296,29.879],[-68.342,30.014],[-68.287,30.102],[-68.337,30.236],[-68.283,30.324],[-68.329,30.459],[-68.275,30.547],[-68.221,30.634],[-68.167,30.722],[-68.113,30.809],[-68.054,30.897],[-68,30.984],[-67.946,31.072],[-67.992,31.207],[-67.937,31.294],[-67.883,31.382],[-67.829,31.469],[-67.771,31.557],[-67.717,31.644],[-67.663,31.731],[-67.5,31.771],[-67.446,31.859],[-67.392,31.946],[-67.333,32.033],[-67.279,32.121],[-67.221,32.208],[-67.062,32.247],[-67.004,32.334],[-66.95,32.422],[-66.892,32.509],[-66.837,32.596],[-66.675,32.635],[-66.617,32.722],[-66.562,32.809]],[[-61.867,33.415],[-61.804,33.5],[-61.742,33.586],[-61.679,33.671],[-61.517,33.704],[-61.454,33.789],[-61.388,33.874],[-61.225,33.908],[-61.163,33.993],[-60.996,34.025],[-60.829,34.058],[-60.663,34.09],[-60.496,34.122],[-60.329,34.153],[-60.163,34.185],[-59.996,34.216],[-59.829,34.248],[-59.663,34.278],[-59.562,34.225],[-59.396,34.255],[-59.292,34.201],[-59.254,34.063],[-59.154,34.009],[-59.117,33.871],[-59.017,33.817],[-58.979,33.679],[-58.946,33.541],[-58.908,33.402],[-58.975,33.319],[-59.037,33.234],[-59.104,33.15],[-59.167,33.066],[-59.333,33.036],[-59.496,33.006],[-59.596,33.059],[-59.762,33.028],[-59.925,32.998],[-60.029,33.051],[-60.192,33.019],[-60.254,32.935],[-60.421,32.903],[-60.483,32.818],[-60.546,32.734],[-60.708,32.702],[-60.871,32.669],[-61.037,32.637],[-61.2,32.604],[-61.363,32.572],[-61.462,32.624],[-61.625,32.591],[-61.792,32.558],[-61.892,32.61],[-61.933,32.747],[-61.971,32.884],[-61.908,32.969],[-61.95,33.107],[-61.992,33.244],[-61.929,33.329],[-61.867,33.415]],[[-61.687,30.397],[-61.625,30.482],[-61.567,30.568],[-61.404,30.6],[-61.346,30.686],[-61.183,30.718],[-61.125,30.803],[-60.962,30.836],[-60.904,30.921],[-60.742,30.953],[-60.583,30.985],[-60.483,30.932],[-60.383,30.879],[-60.283,30.826],[-60.25,30.688],[-60.212,30.55],[-60.175,30.412],[-60.137,30.274],[-60.104,30.136],[-60.163,30.052],[-60.129,29.914],[-60.192,29.829],[-60.25,29.744],[-60.408,29.713],[-60.471,29.628],[-60.629,29.596],[-60.787,29.564],[-60.946,29.532],[-61.104,29.5],[-61.2,29.552],[-61.3,29.605],[-61.396,29.657],[-61.554,29.624],[-61.654,29.676],[-61.754,29.729],[-61.792,29.866],[-61.887,29.918],[-61.929,30.055],[-61.867,30.141],[-61.908,30.278],[-61.846,30.364],[-61.687,30.397]],[[-68.275,12.443],[-68.225,12.53],[-68.175,12.618],[-68.125,12.706],[-68.075,12.793],[-68.025,12.881],[-67.975,12.968],[-67.838,13.007],[-67.788,13.094],[-67.65,13.134],[-67.6,13.221],[-67.458,13.26],[-67.408,13.347],[-67.271,13.386],[-67.129,13.425],[-67.079,13.512],[-67.029,13.599],[-66.892,13.638],[-66.842,13.725],[-66.792,13.812],[-66.65,13.85],[-66.6,13.938],[-66.55,14.025],[-66.408,14.063],[-66.358,14.15],[-66.217,14.188],[-66.079,14.226],[-65.937,14.263],[-65.796,14.301],[-65.746,14.388],[-65.696,14.475],[-65.646,14.562],[-65.592,14.648],[-65.633,14.784],[-65.583,14.871],[-65.621,15.008],[-65.658,15.144],[-65.7,15.28],[-65.787,15.329],[-65.829,15.465],[-65.917,15.515],[-65.958,15.651],[-66.046,15.7],[-66.087,15.836],[-66.125,15.973],[-66.167,16.109],[-66.117,16.196],[-66.062,16.282],[-66.013,16.369],[-65.962,16.456],[-65.908,16.543],[-65.858,16.63],[-65.808,16.717],[-65.754,16.804],[-65.704,16.891],[-65.65,16.978],[-65.6,17.064],[-65.55,17.151],[-65.496,17.238],[-65.446,17.325],[-65.392,17.411],[-65.342,17.498],[-65.379,17.634],[-65.329,17.721],[-65.367,17.858],[-65.404,17.994],[-65.446,18.13],[-65.392,18.217],[-65.342,18.304],[-65.196,18.341],[-65.054,18.378],[-64.908,18.414],[-64.817,18.364],[-64.675,18.401],[-64.529,18.437],[-64.475,18.524],[-64.425,18.61],[-64.371,18.696],[-64.317,18.783],[-64.175,18.819],[-64.121,18.905],[-64.067,18.991],[-64.104,19.128],[-64.05,19.214],[-64,19.301],[-63.946,19.387],[-63.892,19.473],[-63.837,19.559],[-63.783,19.645],[-63.729,19.731],[-63.675,19.818],[-63.625,19.904],[-63.479,19.939],[-63.333,19.974],[-63.187,20.009],[-63.096,19.958],[-63.004,19.907],[-62.913,19.856],[-62.821,19.805],[-62.675,19.839],[-62.529,19.874],[-62.383,19.908],[-62.329,19.994],[-62.275,20.079],[-62.312,20.216],[-62.254,20.302],[-62.292,20.439],[-62.329,20.576],[-62.275,20.662],[-62.221,20.747],[-62.163,20.833],[-62.017,20.867],[-61.871,20.9],[-61.725,20.934],[-61.633,20.882],[-61.542,20.83],[-61.504,20.693],[-61.467,20.556],[-61.379,20.504],[-61.342,20.367],[-61.396,20.281],[-61.363,20.144],[-61.417,20.059],[-61.471,19.974],[-61.437,19.837],[-61.4,19.7],[-61.454,19.614],[-61.421,19.477],[-61.383,19.34],[-61.346,19.203],[-61.4,19.118],[-61.367,18.981],[-61.421,18.896],[-61.383,18.759],[-61.35,18.622],[-61.404,18.537],[-61.367,18.399],[-61.421,18.314],[-61.475,18.229],[-61.442,18.092],[-61.404,17.955],[-61.458,17.87],[-61.421,17.733],[-61.475,17.648],[-61.529,17.563],[-61.583,17.478],[-61.637,17.392],[-61.692,17.307],[-61.837,17.273],[-61.887,17.188],[-62.033,17.154],[-62.087,17.068],[-62.137,16.982],[-62.283,16.948],[-62.246,16.811],[-62.3,16.726],[-62.263,16.589],[-62.225,16.453],[-62.187,16.316],[-62.242,16.231],[-62.204,16.094],[-62.258,16.008],[-62.312,15.923],[-62.363,15.837],[-62.417,15.751],[-62.471,15.666],[-62.613,15.631],[-62.663,15.545],[-62.717,15.46],[-62.858,15.424],[-62.908,15.339],[-62.962,15.253],[-63.012,15.167],[-62.979,15.031],[-63.029,14.945],[-62.942,14.894],[-62.85,14.844],[-62.762,14.793],[-62.725,14.657],[-62.687,14.52],[-62.738,14.434],[-62.704,14.298],[-62.754,14.212],[-62.804,14.127],[-62.946,14.091],[-63,14.006],[-63.05,13.92],[-63.1,13.834],[-63.154,13.748],[-63.204,13.662],[-63.254,13.576],[-63.217,13.44],[-63.271,13.354],[-63.321,13.268],[-63.283,13.132],[-63.333,13.046],[-63.387,12.96],[-63.437,12.874],[-63.575,12.838],[-63.629,12.752],[-63.679,12.666],[-63.729,12.579],[-63.779,12.493],[-63.829,12.407],[-63.883,12.321],[-63.933,12.235],[-63.983,12.149],[-64.121,12.112],[-64.262,12.075],[-64.312,11.989],[-64.45,11.952],[-64.5,11.866],[-64.642,11.829],[-64.692,11.742],[-64.829,11.705],[-64.879,11.619],[-65.017,11.581],[-65.158,11.544],[-65.208,11.457],[-65.346,11.42],[-65.396,11.333],[-65.446,11.246],[-65.496,11.159],[-65.633,11.122],[-65.683,11.035],[-65.733,10.948],[-65.871,10.91],[-65.921,10.823],[-66.058,10.785],[-66.108,10.698],[-66.246,10.66],[-66.296,10.573],[-66.433,10.534],[-66.483,10.448],[-66.621,10.409],[-66.671,10.322],[-66.808,10.283],[-66.858,10.196],[-66.908,10.109],[-67.046,10.07],[-67.096,9.983],[-67.233,9.944],[-67.371,9.905],[-67.508,9.866],[-67.596,9.914],[-67.683,9.962],[-67.775,10.01],[-67.863,10.058],[-67.954,10.106],[-67.992,10.242],[-68.083,10.29],[-68.121,10.425],[-68.212,10.473],[-68.25,10.609],[-68.292,10.745],[-68.242,10.832],[-68.283,10.968],[-68.325,11.103],[-68.275,11.191],[-68.317,11.327],[-68.358,11.462],[-68.396,11.598],[-68.35,11.686],[-68.387,11.821],[-68.337,11.909],[-68.379,12.044],[-68.329,12.132],[-68.371,12.268],[-68.321,12.355],[-68.275,12.443]],[[-78.442,10.907],[-78.396,10.996],[-78.35,11.085],[-78.304,11.173],[-78.258,11.262],[-78.121,11.306],[-78.075,11.394],[-77.937,11.438],[-77.804,11.482],[-77.758,11.57],[-77.712,11.659],[-77.575,11.702],[-77.529,11.791],[-77.479,11.88],[-77.433,11.969],[-77.387,12.058],[-77.342,12.147],[-77.204,12.19],[-77.067,12.233],[-76.929,12.277],[-76.837,12.231],[-76.75,12.186],[-76.658,12.141],[-76.613,12.006],[-76.521,11.961],[-76.475,11.826],[-76.525,11.737],[-76.479,11.603],[-76.433,11.469],[-76.479,11.38],[-76.529,11.291],[-76.663,11.248],[-76.712,11.159],[-76.846,11.116],[-76.983,11.073],[-77.121,11.03],[-77.258,10.986],[-77.396,10.943],[-77.533,10.9],[-77.671,10.856],[-77.717,10.768],[-77.762,10.679],[-77.808,10.59],[-77.946,10.547],[-77.992,10.458],[-78.037,10.369],[-78.171,10.326],[-78.308,10.282],[-78.4,10.328],[-78.492,10.373],[-78.533,10.507],[-78.579,10.641],[-78.533,10.729],[-78.488,10.818],[-78.442,10.907]],[[-80.758,9.497],[-80.712,9.586],[-80.667,9.674],[-80.625,9.763],[-80.579,9.852],[-80.533,9.941],[-80.396,9.984],[-80.262,10.028],[-80.217,9.894],[-80.171,9.761],[-80.125,9.627],[-80.171,9.538],[-80.125,9.404],[-80.171,9.316],[-80.217,9.227],[-80.262,9.138],[-80.396,9.095],[-80.488,9.14],[-80.625,9.096],[-80.667,9.23],[-80.712,9.364],[-80.758,9.497]],[[-81.3,8.211],[-81.346,8.345],[-81.3,8.434],[-81.167,8.477],[-81.075,8.432],[-81.029,8.298],[-81.075,8.21],[-81.212,8.166],[-81.3,8.211]],[[-70.096,8.301],[-70.05,8.389],[-70,8.478],[-69.954,8.565],[-69.904,8.653],[-69.767,8.694],[-69.721,8.782],[-69.583,8.822],[-69.446,8.862],[-69.358,8.815],[-69.267,8.768],[-69.129,8.808],[-69.042,8.76],[-68.954,8.712],[-68.863,8.665],[-68.775,8.617],[-68.687,8.569],[-68.596,8.522],[-68.458,8.562],[-68.371,8.514],[-68.233,8.554],[-68.096,8.593],[-67.958,8.633],[-67.913,8.72],[-67.775,8.76],[-67.725,8.847],[-67.587,8.887],[-67.542,8.974],[-67.492,9.061],[-67.442,9.149],[-67.396,9.236],[-67.258,9.275],[-67.121,9.314],[-66.983,9.353],[-66.896,9.305],[-66.804,9.257],[-66.667,9.296],[-66.579,9.247],[-66.492,9.199],[-66.4,9.15],[-66.262,9.189],[-66.175,9.14],[-66.087,9.092],[-66,9.043],[-65.908,8.994],[-65.871,8.859],[-65.829,8.724],[-65.879,8.637],[-66.017,8.598],[-66.067,8.511],[-66.204,8.473],[-66.25,8.386],[-66.3,8.299],[-66.35,8.212],[-66.396,8.125],[-66.446,8.038],[-66.404,7.903],[-66.454,7.816],[-66.413,7.68],[-66.462,7.593],[-66.512,7.506],[-66.471,7.371],[-66.521,7.284],[-66.567,7.197],[-66.617,7.109],[-66.663,7.022],[-66.625,6.887],[-66.671,6.8],[-66.721,6.713],[-66.767,6.626],[-66.904,6.587],[-66.95,6.499],[-67.087,6.46],[-67.175,6.508],[-67.267,6.556],[-67.4,6.516],[-67.537,6.477],[-67.625,6.524],[-67.763,6.485],[-67.9,6.445],[-67.988,6.493],[-68.121,6.453],[-68.212,6.5],[-68.346,6.46],[-68.437,6.508],[-68.525,6.556],[-68.613,6.603],[-68.7,6.651],[-68.742,6.786],[-68.833,6.833],[-68.921,6.881],[-69.008,6.928],[-69.096,6.976],[-69.187,7.023],[-69.275,7.071],[-69.363,7.118],[-69.454,7.165],[-69.542,7.213],[-69.629,7.26],[-69.717,7.307],[-69.808,7.355],[-69.896,7.402],[-69.983,7.449],[-70.025,7.584],[-70.117,7.632],[-70.158,7.767],[-70.2,7.902],[-70.15,7.99],[-70.192,8.126],[-70.146,8.214],[-70.096,8.301]],[[-69.446,3.997],[-69.4,4.085],[-69.354,4.173],[-69.304,4.261],[-69.258,4.349],[-69.212,4.436],[-69.167,4.524],[-69.117,4.612],[-69.158,4.747],[-69.025,4.788],[-68.888,4.828],[-68.8,4.781],[-68.663,4.821],[-68.529,4.862],[-68.392,4.902],[-68.258,4.942],[-68.121,4.982],[-68.033,4.935],[-67.946,4.887],[-67.858,4.84],[-67.817,4.705],[-67.863,4.618],[-67.821,4.483],[-67.779,4.348],[-67.829,4.261],[-67.875,4.173],[-67.833,4.038],[-67.879,3.951],[-67.929,3.863],[-67.975,3.776],[-68.021,3.688],[-68.067,3.601],[-68.204,3.561],[-68.25,3.473],[-68.296,3.385],[-68.346,3.298],[-68.479,3.257],[-68.525,3.17],[-68.575,3.082],[-68.708,3.041],[-68.754,2.954],[-68.8,2.866],[-68.937,2.825],[-68.983,2.738],[-69.029,2.65],[-69.079,2.562],[-69.125,2.474],[-69.258,2.433],[-69.304,2.345],[-69.442,2.304],[-69.575,2.263],[-69.663,2.31],[-69.704,2.445],[-69.796,2.491],[-69.837,2.626],[-69.879,2.761],[-69.921,2.896],[-69.875,2.984],[-69.825,3.071],[-69.779,3.159],[-69.733,3.247],[-69.687,3.335],[-69.642,3.423],[-69.592,3.511],[-69.633,3.646],[-69.587,3.734],[-69.542,3.822],[-69.496,3.909],[-69.446,3.997]],[[-77.492,-0.585],[-77.446,-0.496],[-77.4,-0.408],[-77.267,-0.365],[-77.221,-0.276],[-77.083,-0.233],[-76.95,-0.191],[-76.817,-0.148],[-76.679,-0.105],[-76.592,-0.151],[-76.458,-0.108],[-76.367,-0.154],[-76.233,-0.112],[-76.146,-0.157],[-76.054,-0.204],[-75.921,-0.161],[-75.833,-0.207],[-75.696,-0.164],[-75.608,-0.21],[-75.475,-0.167],[-75.429,-0.079],[-75.292,-0.036],[-75.246,0.052],[-75.113,0.095],[-75.067,0.184],[-74.929,0.226],[-74.796,0.269],[-74.663,0.311],[-74.571,0.265],[-74.437,0.308],[-74.35,0.262],[-74.212,0.304],[-74.125,0.258],[-73.992,0.301],[-73.854,0.343],[-73.721,0.385],[-73.675,0.474],[-73.542,0.516],[-73.496,0.605],[-73.45,0.693],[-73.404,0.782],[-73.354,0.871],[-73.4,1.005],[-73.354,1.094],[-73.308,1.182],[-73.35,1.317],[-73.392,1.452],[-73.433,1.586],[-73.387,1.675],[-73.429,1.81],[-73.471,1.945],[-73.517,2.079],[-73.471,2.168],[-73.513,2.303],[-73.554,2.438],[-73.642,2.484],[-73.729,2.53],[-73.821,2.577],[-73.908,2.623],[-73.996,2.669],[-74.087,2.715],[-74.175,2.762],[-74.262,2.808],[-74.354,2.854],[-74.442,2.9],[-74.483,3.035],[-74.525,3.17],[-74.479,3.259],[-74.521,3.394],[-74.475,3.482],[-74.429,3.571],[-74.383,3.659],[-74.337,3.748],[-74.2,3.791],[-74.154,3.879],[-74.021,3.921],[-73.883,3.964],[-73.796,3.917],[-73.663,3.959],[-73.571,3.913],[-73.483,3.867],[-73.396,3.82],[-73.304,3.774],[-73.217,3.728],[-73.083,3.77],[-72.992,3.723],[-72.904,3.677],[-72.771,3.719],[-72.679,3.672],[-72.592,3.626],[-72.504,3.579],[-72.413,3.533],[-72.325,3.486],[-72.238,3.44],[-72.15,3.393],[-72.104,3.258],[-72.017,3.212],[-71.929,3.165],[-71.887,3.03],[-71.846,2.896],[-71.892,2.807],[-71.85,2.673],[-71.896,2.584],[-71.942,2.496],[-71.9,2.361],[-71.946,2.273],[-71.904,2.138],[-71.863,2.003],[-71.821,1.868],[-71.775,1.734],[-71.733,1.599],[-71.692,1.464],[-71.738,1.376],[-71.696,1.241],[-71.742,1.153],[-71.787,1.065],[-71.925,1.023],[-71.971,0.934],[-72.104,0.892],[-72.15,0.804],[-72.283,0.762],[-72.329,0.674],[-72.467,0.631],[-72.513,0.543],[-72.558,0.454],[-72.604,0.366],[-72.65,0.278],[-72.696,0.189],[-72.742,0.101],[-72.787,0.013],[-72.833,-0.076],[-72.879,-0.164],[-73.017,-0.207],[-73.062,-0.295],[-73.108,-0.384],[-73.242,-0.426],[-73.375,-0.468],[-73.421,-0.557],[-73.558,-0.599],[-73.604,-0.688],[-73.65,-0.776],[-73.696,-0.865],[-73.742,-0.954],[-73.787,-1.042],[-73.833,-1.131],[-73.879,-1.219],[-73.925,-1.308],[-73.971,-1.396],[-74.017,-1.485],[-74.062,-1.574],[-74.108,-1.662],[-74.154,-1.751],[-74.2,-1.839],[-74.333,-1.882],[-74.425,-1.836],[-74.558,-1.879],[-74.692,-1.922],[-74.829,-1.964],[-74.917,-1.919],[-75.004,-1.872],[-75.096,-1.827],[-75.183,-1.781],[-75.317,-1.823],[-75.408,-1.777],[-75.496,-1.732],[-75.583,-1.686],[-75.721,-1.728],[-75.808,-1.682],[-75.896,-1.636],[-75.988,-1.591],[-76.075,-1.544],[-76.163,-1.499],[-76.254,-1.452],[-76.342,-1.407],[-76.429,-1.361],[-76.517,-1.315],[-76.608,-1.269],[-76.696,-1.223],[-76.783,-1.177],[-76.921,-1.219],[-77.008,-1.173],[-77.096,-1.127],[-77.233,-1.17],[-77.321,-1.124],[-77.408,-1.078],[-77.5,-1.032],[-77.542,-0.897],[-77.583,-0.763],[-77.537,-0.674],[-77.492,-0.585]],[[-71.317,-0.192],[-71.271,-0.104],[-71.225,-0.016],[-71.092,0.026],[-71.046,0.114],[-70.908,0.156],[-70.821,0.109],[-70.779,-0.025],[-70.825,-0.113],[-70.779,-0.247],[-70.738,-0.381],[-70.696,-0.516],[-70.742,-0.604],[-70.7,-0.738],[-70.746,-0.826],[-70.792,-0.914],[-70.837,-1.002],[-70.971,-1.045],[-71.058,-0.999],[-71.15,-0.952],[-71.238,-0.906],[-71.325,-0.86],[-71.371,-0.726],[-71.413,-0.591],[-71.367,-0.503],[-71.408,-0.369],[-71.363,-0.281],[-71.317,-0.192]],[[-80.525,-5.548],[-80.567,-5.413],[-80.433,-5.371],[-80.387,-5.282],[-80.337,-5.194],[-80.204,-5.151],[-80.158,-5.062],[-80.021,-5.02],[-79.975,-4.931],[-79.842,-4.888],[-79.796,-4.8],[-79.658,-4.757],[-79.525,-4.714],[-79.387,-4.672],[-79.254,-4.629],[-79.163,-4.675],[-79.075,-4.721],[-78.988,-4.767],[-78.896,-4.813],[-78.854,-4.948],[-78.767,-4.994],[-78.721,-5.129],[-78.633,-5.175],[-78.587,-5.309],[-78.5,-5.356],[-78.413,-5.401],[-78.275,-5.359],[-78.142,-5.316],[-78.096,-5.227],[-77.958,-5.184],[-77.913,-5.095],[-77.779,-5.052],[-77.733,-4.964],[-77.596,-4.921],[-77.462,-4.878],[-77.325,-4.835],[-77.192,-4.792],[-77.146,-4.703],[-77.1,-4.614],[-77.054,-4.526],[-77.008,-4.437],[-76.962,-4.348],[-76.917,-4.259],[-76.779,-4.216],[-76.646,-4.173],[-76.512,-4.131],[-76.421,-4.176],[-76.379,-4.311],[-76.288,-4.357],[-76.246,-4.491],[-76.204,-4.626],[-76.158,-4.76],[-76.117,-4.895],[-76.071,-5.029],[-75.983,-5.075],[-75.892,-5.121],[-75.804,-5.166],[-75.717,-5.212],[-75.625,-5.257],[-75.492,-5.214],[-75.4,-5.26],[-75.313,-5.306],[-75.175,-5.263],[-75.087,-5.308],[-74.996,-5.354],[-74.863,-5.311],[-74.775,-5.356],[-74.683,-5.402],[-74.596,-5.448],[-74.504,-5.493],[-74.462,-5.627],[-74.417,-5.761],[-74.375,-5.896],[-74.417,-5.984],[-74.375,-6.118],[-74.329,-6.252],[-74.375,-6.341],[-74.421,-6.429],[-74.375,-6.564],[-74.421,-6.652],[-74.467,-6.741],[-74.513,-6.829],[-74.471,-6.963],[-74.513,-7.052],[-74.471,-7.186],[-74.517,-7.274],[-74.425,-7.32],[-74.379,-7.454],[-74.337,-7.587],[-74.246,-7.633],[-74.2,-7.767],[-74.113,-7.812],[-74.067,-7.946],[-74.021,-8.079],[-74.067,-8.168],[-74.021,-8.301],[-74.067,-8.39],[-74.204,-8.434],[-74.246,-8.522],[-74.383,-8.566],[-74.517,-8.609],[-74.654,-8.653],[-74.7,-8.742],[-74.833,-8.785],[-74.879,-8.874],[-74.925,-8.962],[-74.971,-9.051],[-75.017,-9.14],[-75.154,-9.183],[-75.196,-9.272],[-75.333,-9.316],[-75.379,-9.404],[-75.517,-9.448],[-75.65,-9.492],[-75.696,-9.58],[-75.742,-9.669],[-75.787,-9.758],[-75.833,-9.847],[-75.879,-9.935],[-75.925,-10.024],[-75.971,-10.113],[-76.017,-10.201],[-76.058,-10.29],[-76.104,-10.379],[-76.242,-10.423],[-76.379,-10.466],[-76.517,-10.51],[-76.65,-10.554],[-76.696,-10.642],[-76.833,-10.686],[-76.925,-10.641],[-77.062,-10.684],[-77.108,-10.773],[-77.242,-10.817],[-77.379,-10.86],[-77.425,-10.949],[-77.471,-11.038],[-77.517,-11.126],[-77.654,-11.17],[-77.7,-11.259],[-77.837,-11.302],[-77.883,-11.391],[-78.021,-11.434],[-78.113,-11.389],[-78.25,-11.432],[-78.337,-11.387],[-78.475,-11.43],[-78.567,-11.385],[-78.658,-11.339],[-78.75,-11.294],[-78.842,-11.248],[-78.929,-11.202],[-79.067,-11.246],[-79.158,-11.2],[-79.25,-11.154],[-79.387,-11.197],[-79.475,-11.152],[-79.567,-11.106],[-79.704,-11.149],[-79.796,-11.103],[-79.887,-11.057],[-79.929,-10.922],[-79.975,-10.788],[-80.017,-10.653],[-79.971,-10.564],[-80.013,-10.43],[-80.058,-10.295],[-80.013,-10.206],[-79.962,-10.118],[-80.008,-9.983],[-79.962,-9.894],[-80.004,-9.76],[-79.958,-9.671],[-80,-9.536],[-79.954,-9.447],[-80,-9.313],[-80.042,-9.178],[-80.083,-9.043],[-80.129,-8.909],[-80.217,-8.862],[-80.262,-8.728],[-80.35,-8.682],[-80.396,-8.547],[-80.437,-8.412],[-80.479,-8.277],[-80.525,-8.142],[-80.567,-8.007],[-80.608,-7.873],[-80.654,-7.738],[-80.604,-7.649],[-80.65,-7.514],[-80.692,-7.379],[-80.733,-7.244],[-80.687,-7.156],[-80.729,-7.021],[-80.683,-6.932],[-80.637,-6.843],[-80.679,-6.709],[-80.633,-6.62],[-80.587,-6.531],[-80.629,-6.396],[-80.583,-6.308],[-80.537,-6.219],[-80.579,-6.084],[-80.533,-5.995],[-80.575,-5.861],[-80.617,-5.726],[-80.571,-5.637],[-80.525,-5.548]],[[-87.913,-15.502],[-87.954,-15.366],[-87.904,-15.279],[-87.854,-15.192],[-87.712,-15.152],[-87.663,-15.065],[-87.613,-14.978],[-87.471,-14.939],[-87.329,-14.899],[-87.192,-14.86],[-87.05,-14.821],[-86.958,-14.869],[-86.867,-14.917],[-86.729,-14.877],[-86.638,-14.925],[-86.546,-14.973],[-86.454,-15.021],[-86.363,-15.069],[-86.275,-15.117],[-86.233,-15.253],[-86.142,-15.301],[-86.05,-15.348],[-85.958,-15.396],[-85.917,-15.532],[-85.875,-15.667],[-85.925,-15.755],[-85.975,-15.843],[-86.025,-15.931],[-86.075,-16.019],[-86.125,-16.107],[-86.175,-16.194],[-86.225,-16.282],[-86.271,-16.37],[-86.321,-16.458],[-86.371,-16.546],[-86.421,-16.633],[-86.563,-16.673],[-86.613,-16.761],[-86.758,-16.801],[-86.9,-16.84],[-86.992,-16.792],[-87.079,-16.744],[-87.171,-16.696],[-87.262,-16.647],[-87.304,-16.511],[-87.396,-16.463],[-87.437,-16.327],[-87.529,-16.279],[-87.571,-16.143],[-87.608,-16.007],[-87.7,-15.959],[-87.742,-15.823],[-87.783,-15.687],[-87.871,-15.638],[-87.913,-15.502]],[[-93.371,-28.41],[-93.312,-28.325],[-93.25,-28.239],[-93.192,-28.154],[-93.133,-28.068],[-93.075,-27.982],[-92.921,-27.948],[-92.863,-27.862],[-92.708,-27.828],[-92.554,-27.794],[-92.396,-27.759],[-92.242,-27.724],[-92.087,-27.689],[-91.933,-27.654],[-91.779,-27.619],[-91.721,-27.533],[-91.663,-27.447],[-91.608,-27.361],[-91.55,-27.274],[-91.492,-27.188],[-91.437,-27.102],[-91.379,-27.016],[-91.321,-26.929],[-91.267,-26.843],[-91.208,-26.757],[-91.058,-26.721],[-91,-26.634],[-90.846,-26.598],[-90.696,-26.562],[-90.542,-26.525],[-90.388,-26.488],[-90.333,-26.402],[-90.183,-26.365],[-90.125,-26.278],[-90.071,-26.191],[-90.017,-26.105],[-89.958,-26.018],[-89.904,-25.931],[-89.85,-25.844],[-89.796,-25.757],[-89.742,-25.671],[-89.683,-25.584],[-89.725,-25.447],[-89.671,-25.361],[-89.617,-25.274],[-89.562,-25.187],[-89.413,-25.149],[-89.358,-25.062],[-89.208,-25.024],[-89.058,-24.987],[-89.004,-24.9],[-88.854,-24.861],[-88.704,-24.823],[-88.554,-24.785],[-88.404,-24.746],[-88.308,-24.795],[-88.158,-24.756],[-88.008,-24.718],[-87.858,-24.679],[-87.708,-24.64],[-87.654,-24.552],[-87.604,-24.465],[-87.55,-24.377],[-87.592,-24.241],[-87.542,-24.154],[-87.488,-24.066],[-87.529,-23.931],[-87.575,-23.795],[-87.617,-23.659],[-87.658,-23.524],[-87.608,-23.436],[-87.65,-23.3],[-87.692,-23.164],[-87.733,-23.029],[-87.779,-22.893],[-87.821,-22.757],[-87.913,-22.708],[-87.958,-22.572],[-88.05,-22.524],[-88.092,-22.388],[-88.042,-22.301],[-88.083,-22.164],[-88.029,-22.077],[-88.071,-21.941],[-88.021,-21.854],[-87.967,-21.766],[-87.917,-21.679],[-87.863,-21.592],[-87.812,-21.504],[-87.758,-21.417],[-87.708,-21.329],[-87.75,-21.194],[-87.696,-21.106],[-87.55,-21.067],[-87.5,-20.979],[-87.354,-20.94],[-87.3,-20.853],[-87.158,-20.814],[-87.012,-20.774],[-86.867,-20.734],[-86.771,-20.782],[-86.679,-20.831],[-86.638,-20.966],[-86.542,-21.014],[-86.446,-21.062],[-86.354,-21.11],[-86.258,-21.157],[-86.167,-21.205],[-86.071,-21.252],[-85.975,-21.3],[-85.883,-21.348],[-85.788,-21.395],[-85.642,-21.355],[-85.496,-21.314],[-85.35,-21.273],[-85.3,-21.185],[-85.25,-21.097],[-85.2,-21.009],[-85.15,-20.921],[-85.1,-20.833],[-85.05,-20.745],[-85,-20.657],[-84.95,-20.569],[-84.896,-20.481],[-84.942,-20.346],[-84.892,-20.257],[-84.937,-20.122],[-84.979,-19.987],[-84.929,-19.899],[-84.879,-19.811],[-84.829,-19.723],[-84.875,-19.588],[-84.825,-19.5],[-84.775,-19.412],[-84.817,-19.276],[-84.767,-19.188],[-84.812,-19.053],[-84.763,-18.965],[-84.804,-18.83],[-84.754,-18.742],[-84.8,-18.606],[-84.842,-18.471],[-84.933,-18.424],[-84.979,-18.289],[-85.121,-18.329],[-85.262,-18.37],[-85.404,-18.411],[-85.454,-18.499],[-85.6,-18.539],[-85.65,-18.627],[-85.792,-18.667],[-85.933,-18.708],[-85.983,-18.796],[-86.033,-18.884],[-86.179,-18.924],[-86.229,-19.011],[-86.371,-19.051],[-86.425,-19.139],[-86.475,-19.227],[-86.617,-19.267],[-86.667,-19.354],[-86.812,-19.394],[-86.958,-19.434],[-87.008,-19.521],[-87.15,-19.561],[-87.246,-19.512],[-87.387,-19.552],[-87.483,-19.503],[-87.575,-19.455],[-87.667,-19.406],[-87.812,-19.445],[-87.904,-19.397],[-87.946,-19.261],[-88.037,-19.212],[-88.129,-19.164],[-88.221,-19.115],[-88.262,-18.979],[-88.304,-18.842],[-88.254,-18.755],[-88.2,-18.668],[-88.15,-18.581],[-88.1,-18.493],[-88.046,-18.406],[-87.996,-18.319],[-87.946,-18.231],[-87.892,-18.144],[-87.842,-18.056],[-87.7,-18.017],[-87.65,-17.93],[-87.504,-17.891],[-87.454,-17.804],[-87.312,-17.764],[-87.171,-17.725],[-87.025,-17.686],[-86.933,-17.734],[-86.792,-17.694],[-86.65,-17.655],[-86.6,-17.567],[-86.458,-17.527],[-86.312,-17.487],[-86.171,-17.447],[-86.029,-17.407],[-85.937,-17.455],[-85.796,-17.415],[-85.654,-17.374],[-85.512,-17.334],[-85.371,-17.294],[-85.229,-17.253],[-85.087,-17.212],[-84.946,-17.172],[-84.854,-17.219],[-84.712,-17.178],[-84.617,-17.225],[-84.525,-17.272],[-84.383,-17.231],[-84.242,-17.19],[-84.1,-17.149],[-84.054,-17.06],[-84.004,-16.972],[-83.954,-16.884],[-83.904,-16.796],[-83.858,-16.707],[-83.9,-16.572],[-83.85,-16.484],[-83.896,-16.349],[-83.846,-16.261],[-83.888,-16.125],[-83.842,-16.037],[-83.883,-15.902],[-83.925,-15.767],[-83.971,-15.632],[-84.012,-15.496],[-84.054,-15.361],[-84.096,-15.226],[-84.142,-15.091],[-84.183,-14.955],[-84.133,-14.867],[-84.179,-14.732],[-84.129,-14.644],[-84.171,-14.508],[-84.121,-14.42],[-84.075,-14.332],[-84.117,-14.197],[-84.067,-14.108],[-84.021,-14.02],[-83.971,-13.932],[-83.833,-13.891],[-83.783,-13.802],[-83.733,-13.714],[-83.596,-13.673],[-83.55,-13.584],[-83.5,-13.496],[-83.45,-13.408],[-83.404,-13.319],[-83.354,-13.231],[-83.308,-13.142],[-83.35,-13.007],[-83.304,-12.919],[-83.254,-12.831],[-83.296,-12.696],[-83.25,-12.607],[-83.2,-12.519],[-83.154,-12.431],[-83.104,-12.342],[-82.967,-12.3],[-82.921,-12.212],[-82.779,-12.17],[-82.642,-12.128],[-82.504,-12.086],[-82.413,-12.133],[-82.325,-12.179],[-82.233,-12.226],[-82.142,-12.272],[-82.1,-12.407],[-82.008,-12.454],[-81.917,-12.5],[-81.875,-12.635],[-81.783,-12.681],[-81.742,-12.816],[-81.696,-12.951],[-81.654,-13.086],[-81.608,-13.221],[-81.567,-13.356],[-81.521,-13.49],[-81.479,-13.625],[-81.433,-13.76],[-81.392,-13.894],[-81.346,-14.029],[-81.254,-14.075],[-81.212,-14.21],[-81.121,-14.256],[-81.075,-14.39],[-81.029,-14.525],[-80.937,-14.571],[-80.846,-14.617],[-80.754,-14.662],[-80.663,-14.708],[-80.571,-14.754],[-80.479,-14.8],[-80.387,-14.846],[-80.296,-14.891],[-80.154,-14.848],[-80.063,-14.894],[-80.017,-15.028],[-79.925,-15.073],[-79.833,-15.119],[-79.787,-15.253],[-79.742,-15.387],[-79.696,-15.521],[-79.65,-15.655],[-79.604,-15.789],[-79.558,-15.923],[-79.512,-16.058],[-79.562,-16.146],[-79.517,-16.28],[-79.421,-16.325],[-79.375,-16.459],[-79.329,-16.593],[-79.238,-16.638],[-79.192,-16.772],[-79.142,-16.906],[-79.096,-17.039],[-79.05,-17.173],[-79.096,-17.261],[-79.142,-17.35],[-79.187,-17.439],[-79.142,-17.572],[-79.187,-17.661],[-79.142,-17.795],[-79.05,-17.84],[-78.954,-17.884],[-78.858,-17.929],[-78.767,-17.974],[-78.625,-17.93],[-78.483,-17.885],[-78.392,-17.93],[-78.296,-17.974],[-78.204,-18.019],[-78.062,-17.974],[-77.967,-18.019],[-77.829,-17.974],[-77.687,-17.93],[-77.546,-17.885],[-77.454,-17.929],[-77.358,-17.973],[-77.263,-18.017],[-77.171,-18.061],[-77.121,-18.194],[-77.167,-18.283],[-77.117,-18.416],[-77.163,-18.504],[-77.208,-18.593],[-77.254,-18.682],[-77.3,-18.771],[-77.346,-18.859],[-77.488,-18.904],[-77.533,-18.993],[-77.675,-19.038],[-77.817,-19.083],[-77.863,-19.171],[-78.004,-19.216],[-78.05,-19.305],[-78.192,-19.35],[-78.283,-19.306],[-78.379,-19.261],[-78.475,-19.217],[-78.571,-19.173],[-78.617,-19.04],[-78.712,-18.995],[-78.808,-18.951],[-78.904,-18.906],[-78.996,-18.862],[-79.138,-18.906],[-79.233,-18.861],[-79.375,-18.906],[-79.467,-18.861],[-79.562,-18.816],[-79.613,-18.682],[-79.562,-18.594],[-79.517,-18.505],[-79.562,-18.371],[-79.517,-18.282],[-79.562,-18.149],[-79.658,-18.104],[-79.704,-17.97],[-79.8,-17.925],[-79.942,-17.969],[-80.033,-17.924],[-80.175,-17.967],[-80.221,-18.056],[-80.271,-18.145],[-80.317,-18.234],[-80.363,-18.322],[-80.413,-18.411],[-80.458,-18.499],[-80.504,-18.588],[-80.554,-18.677],[-80.6,-18.766],[-80.65,-18.854],[-80.6,-18.988],[-80.508,-19.033],[-80.413,-19.079],[-80.367,-19.212],[-80.271,-19.257],[-80.225,-19.391],[-80.175,-19.525],[-80.129,-19.658],[-80.083,-19.792],[-80.129,-19.881],[-80.083,-20.014],[-80.033,-20.148],[-80.079,-20.236],[-80.129,-20.325],[-80.175,-20.414],[-80.225,-20.502],[-80.175,-20.636],[-80.221,-20.725],[-80.271,-20.813],[-80.317,-20.902],[-80.221,-20.947],[-80.175,-21.08],[-80.125,-21.214],[-80.171,-21.302],[-80.125,-21.436],[-80.171,-21.524],[-80.121,-21.657],[-80.075,-21.791],[-79.975,-21.835],[-79.879,-21.88],[-79.829,-22.013],[-79.879,-22.101],[-79.829,-22.234],[-79.779,-22.367],[-79.825,-22.456],[-79.875,-22.545],[-79.825,-22.678],[-79.775,-22.811],[-79.821,-22.899],[-79.871,-22.988],[-79.821,-23.121],[-79.867,-23.21],[-79.913,-23.298],[-79.962,-23.387],[-80.008,-23.476],[-80.058,-23.564],[-80.104,-23.653],[-80.15,-23.742],[-80.1,-23.875],[-80.15,-23.964],[-80.196,-24.052],[-80.146,-24.185],[-80.192,-24.274],[-80.242,-24.362],[-80.287,-24.451],[-80.437,-24.496],[-80.483,-24.584],[-80.629,-24.629],[-80.775,-24.673],[-80.925,-24.717],[-81.071,-24.762],[-81.217,-24.806],[-81.367,-24.85],[-81.512,-24.894],[-81.562,-24.983],[-81.708,-25.027],[-81.758,-25.115],[-81.808,-25.204],[-81.954,-25.248],[-82.004,-25.336],[-82.054,-25.425],[-82.1,-25.513],[-82.15,-25.602],[-82.3,-25.645],[-82.35,-25.734],[-82.3,-25.867],[-82.35,-25.956],[-82.3,-26.089],[-82.2,-26.134],[-82.15,-26.267],[-82.05,-26.312],[-81.95,-26.356],[-81.85,-26.401],[-81.75,-26.446],[-81.7,-26.579],[-81.6,-26.623],[-81.5,-26.667],[-81.396,-26.711],[-81.346,-26.844],[-81.296,-26.977],[-81.342,-27.066],[-81.292,-27.198],[-81.342,-27.287],[-81.387,-27.375],[-81.337,-27.508],[-81.283,-27.641],[-81.183,-27.684],[-81.033,-27.64],[-80.883,-27.595],[-80.833,-27.506],[-80.683,-27.461],[-80.533,-27.416],[-80.383,-27.371],[-80.283,-27.414],[-80.183,-27.457],[-80.079,-27.501],[-79.979,-27.544],[-79.925,-27.676],[-79.871,-27.807],[-79.817,-27.939],[-79.762,-28.071],[-79.808,-28.159],[-79.754,-28.291],[-79.8,-28.379],[-79.85,-28.468],[-79.896,-28.557],[-79.842,-28.688],[-79.887,-28.777],[-79.937,-28.866],[-80.088,-28.912],[-80.138,-29.001],[-80.183,-29.089],[-80.337,-29.135],[-80.488,-29.181],[-80.537,-29.269],[-80.687,-29.315],[-80.792,-29.272],[-80.896,-29.229],[-81,-29.185],[-81.1,-29.142],[-81.204,-29.099],[-81.413,-29.011],[-81.308,-29.055],[-81.458,-29.1],[-81.358,-29.144],[-81.254,-29.187],[-81.15,-29.231],[-81.096,-29.362],[-80.992,-29.406],[-80.937,-29.538],[-80.883,-29.67],[-80.829,-29.801],[-80.771,-29.933],[-80.667,-29.976],[-80.613,-30.107],[-80.558,-30.239],[-80.45,-30.282],[-80.396,-30.413],[-80.446,-30.502],[-80.492,-30.591],[-80.646,-30.636],[-80.8,-30.682],[-80.904,-30.639],[-81.058,-30.685],[-81.163,-30.642],[-81.317,-30.688],[-81.471,-30.733],[-81.521,-30.822],[-81.571,-30.91],[-81.621,-30.999],[-81.671,-31.087],[-81.721,-31.176],[-81.663,-31.308],[-81.712,-31.396],[-81.762,-31.485],[-81.812,-31.574],[-81.863,-31.662],[-81.913,-31.751],[-81.962,-31.839],[-82.121,-31.884],[-82.171,-31.973],[-82.325,-32.018],[-82.483,-32.063],[-82.642,-32.108],[-82.796,-32.152],[-82.904,-32.109],[-83.008,-32.064],[-83.167,-32.109],[-83.325,-32.153],[-83.375,-32.241],[-83.429,-32.33],[-83.479,-32.418],[-83.529,-32.506],[-83.475,-32.639],[-83.529,-32.727],[-83.471,-32.86],[-83.417,-32.992],[-83.471,-33.081],[-83.521,-33.169],[-83.571,-33.257],[-83.517,-33.39],[-83.571,-33.478],[-83.729,-33.522],[-83.779,-33.611],[-83.833,-33.699],[-83.888,-33.787],[-83.937,-33.876],[-83.992,-33.964],[-84.042,-34.052],[-84.096,-34.14],[-84.15,-34.228],[-84.2,-34.317],[-84.146,-34.449],[-84.2,-34.537],[-84.25,-34.626],[-84.304,-34.714],[-84.358,-34.802],[-84.408,-34.89],[-84.571,-34.934],[-84.625,-35.022],[-84.679,-35.11],[-84.842,-35.154],[-84.896,-35.242],[-84.95,-35.33],[-85.113,-35.373],[-85.167,-35.461],[-85.221,-35.549],[-85.387,-35.592],[-85.442,-35.681],[-85.496,-35.768],[-85.55,-35.856],[-85.604,-35.944],[-85.658,-36.032],[-85.825,-36.075],[-85.879,-36.163],[-85.937,-36.251],[-85.992,-36.339],[-86.158,-36.381],[-86.212,-36.469],[-86.271,-36.557],[-86.325,-36.645],[-86.492,-36.687],[-86.546,-36.775],[-86.604,-36.863],[-86.55,-36.996],[-86.604,-37.084],[-86.663,-37.171],[-86.717,-37.259],[-86.663,-37.392],[-86.721,-37.48],[-86.887,-37.522],[-86.946,-37.61],[-87,-37.697],[-87.058,-37.785],[-87.117,-37.872],[-87.175,-37.96],[-87.229,-38.047],[-87.287,-38.135],[-87.233,-38.269],[-87.292,-38.356],[-87.35,-38.444],[-87.404,-38.531],[-87.462,-38.619],[-87.638,-38.66],[-87.696,-38.748],[-87.979,-38.742],[-87.867,-38.789],[-88.037,-38.83],[-88.212,-38.871],[-88.383,-38.911],[-88.442,-38.999],[-88.617,-39.039],[-88.675,-39.126],[-88.85,-39.166],[-88.908,-39.254],[-88.971,-39.341],[-89.029,-39.428],[-89.092,-39.515],[-89.037,-39.649],[-89.096,-39.736],[-89.042,-39.87],[-89.104,-39.957],[-89.163,-40.044],[-89.225,-40.131],[-89.287,-40.218],[-89.462,-40.258],[-89.525,-40.345],[-89.7,-40.384],[-89.762,-40.471],[-89.942,-40.51],[-90.117,-40.549],[-90.296,-40.588],[-90.358,-40.674],[-90.537,-40.713],[-90.717,-40.751],[-90.779,-40.838],[-90.958,-40.876],[-91.021,-40.962],[-91.083,-41.048],[-91.267,-41.086],[-91.446,-41.123],[-91.625,-41.161],[-91.742,-41.111],[-91.921,-41.148],[-92.037,-41.099],[-92.217,-41.135],[-92.333,-41.085],[-92.512,-41.121],[-92.629,-41.071],[-92.921,-41.056],[-92.808,-41.107],[-92.988,-41.142],[-93.171,-41.177],[-93.238,-41.263],[-93.304,-41.348],[-93.488,-41.383],[-93.667,-41.417],[-93.738,-41.503],[-93.917,-41.537],[-94.1,-41.571],[-94.283,-41.605],[-94.467,-41.638],[-94.583,-41.586],[-94.767,-41.619],[-94.95,-41.652],[-95.063,-41.6],[-95.246,-41.632],[-95.358,-41.58],[-95.542,-41.612],[-95.658,-41.559],[-95.842,-41.591],[-95.954,-41.538],[-96.137,-41.569],[-96.321,-41.6],[-96.508,-41.63],[-96.579,-41.714],[-96.762,-41.745],[-96.875,-41.691],[-96.988,-41.637],[-97.1,-41.583],[-97.142,-41.445],[-97.067,-41.361],[-97.108,-41.223],[-97.038,-41.139],[-96.967,-41.056],[-96.783,-41.026],[-96.712,-40.942],[-96.642,-40.858],[-96.571,-40.774],[-96.5,-40.689],[-96.429,-40.606],[-96.358,-40.521],[-96.287,-40.437],[-96.217,-40.353],[-96.15,-40.269],[-96.187,-40.131],[-96.121,-40.047],[-96.05,-39.963],[-95.979,-39.878],[-95.913,-39.794],[-95.842,-39.709],[-95.775,-39.625],[-95.704,-39.541],[-95.746,-39.403],[-95.679,-39.319],[-95.5,-39.287],[-95.433,-39.202],[-95.363,-39.118],[-95.187,-39.086],[-95.121,-39.001],[-94.942,-38.969],[-94.875,-38.884],[-94.808,-38.799],[-94.742,-38.714],[-94.567,-38.682],[-94.5,-38.597],[-94.433,-38.512],[-94.475,-38.375],[-94.408,-38.29],[-94.342,-38.205],[-94.387,-38.067],[-94.321,-37.982],[-94.363,-37.845],[-94.404,-37.708],[-94.446,-37.571],[-94.488,-37.434],[-94.529,-37.296],[-94.571,-37.159],[-94.504,-37.074],[-94.546,-36.937],[-94.587,-36.799],[-94.525,-36.714],[-94.567,-36.577],[-94.5,-36.492],[-94.542,-36.355],[-94.583,-36.217],[-94.687,-36.165],[-94.729,-36.027],[-94.833,-35.975],[-94.871,-35.837],[-94.979,-35.784],[-95.083,-35.732],[-95.187,-35.679],[-95.292,-35.626],[-95.396,-35.573],[-95.5,-35.519],[-95.604,-35.466],[-95.642,-35.328],[-95.679,-35.19],[-95.717,-35.052],[-95.654,-34.968],[-95.587,-34.884],[-95.625,-34.746],[-95.562,-34.661],[-95.496,-34.577],[-95.433,-34.492],[-95.471,-34.354],[-95.404,-34.27],[-95.342,-34.185],[-95.275,-34.1],[-95.212,-34.016],[-95.15,-33.931],[-95.083,-33.846],[-95.021,-33.761],[-94.854,-33.729],[-94.792,-33.645],[-94.625,-33.613],[-94.562,-33.527],[-94.4,-33.495],[-94.337,-33.41],[-94.171,-33.377],[-94.108,-33.292],[-93.946,-33.259],[-93.883,-33.174],[-93.717,-33.14],[-93.654,-33.055],[-93.596,-32.969],[-93.533,-32.884],[-93.471,-32.799],[-93.408,-32.713],[-93.35,-32.628],[-93.288,-32.542],[-93.225,-32.457],[-93.167,-32.371],[-93.104,-32.286],[-93.042,-32.2],[-92.983,-32.114],[-92.921,-32.029],[-92.962,-31.891],[-92.9,-31.806],[-92.942,-31.669],[-92.883,-31.583],[-92.921,-31.446],[-92.962,-31.309],[-93.062,-31.257],[-93.104,-31.12],[-93.204,-31.068],[-93.242,-30.931],[-93.342,-30.879],[-93.383,-30.742],[-93.479,-30.69],[-93.521,-30.553],[-93.621,-30.501],[-93.658,-30.364],[-93.596,-30.278],[-93.637,-30.141],[-93.675,-30.003],[-93.617,-29.918],[-93.654,-29.781],[-93.592,-29.695],[-93.633,-29.558],[-93.671,-29.42],[-93.708,-29.283],[-93.65,-29.197],[-93.687,-29.06],[-93.725,-28.923],[-93.667,-28.837],[-93.608,-28.752],[-93.546,-28.666],[-93.488,-28.581],[-93.429,-28.496],[-93.371,-28.41]],[[-82.529,-15.573],[-82.479,-15.484],[-82.342,-15.442],[-82.2,-15.4],[-82.108,-15.446],[-81.967,-15.404],[-81.829,-15.361],[-81.738,-15.407],[-81.596,-15.365],[-81.458,-15.322],[-81.367,-15.369],[-81.225,-15.326],[-81.133,-15.372],[-81.042,-15.417],[-80.95,-15.463],[-80.904,-15.598],[-80.858,-15.732],[-80.812,-15.867],[-80.863,-15.955],[-80.817,-16.09],[-80.863,-16.178],[-80.913,-16.267],[-80.958,-16.356],[-81.008,-16.444],[-81.054,-16.533],[-81.1,-16.621],[-81.196,-16.576],[-81.333,-16.619],[-81.429,-16.573],[-81.521,-16.527],[-81.567,-16.392],[-81.658,-16.346],[-81.75,-16.3],[-81.842,-16.254],[-81.933,-16.208],[-82.029,-16.162],[-82.121,-16.116],[-82.163,-15.981],[-82.254,-15.935],[-82.35,-15.889],[-82.442,-15.843],[-82.483,-15.707],[-82.529,-15.573]],[[-80.687,-17.384],[-80.642,-17.295],[-80.5,-17.252],[-80.404,-17.298],[-80.267,-17.254],[-80.171,-17.299],[-80.079,-17.345],[-80.125,-17.433],[-80.175,-17.522],[-80.221,-17.611],[-80.267,-17.699],[-80.363,-17.654],[-80.454,-17.609],[-80.55,-17.564],[-80.642,-17.518],[-80.687,-17.384]],[[-83.888,-20.191],[-83.842,-20.103],[-83.792,-20.015],[-83.646,-19.973],[-83.554,-20.019],[-83.458,-20.066],[-83.363,-20.112],[-83.271,-20.159],[-83.225,-20.293],[-83.275,-20.381],[-83.321,-20.47],[-83.467,-20.512],[-83.562,-20.466],[-83.654,-20.419],[-83.75,-20.373],[-83.846,-20.326],[-83.888,-20.191]],[[-94.575,-39.844],[-94.508,-39.759],[-94.437,-39.674],[-94.329,-39.726],[-94.283,-39.863],[-94.242,-40],[-94.308,-40.085],[-94.417,-40.033],[-94.529,-39.981],[-94.575,-39.844]],[[-102.379,-18.181],[-102.321,-18.1],[-102.262,-18.019],[-102.204,-17.938],[-102.062,-17.914],[-102.004,-17.833],[-101.946,-17.752],[-101.887,-17.671],[-101.829,-17.59],[-101.771,-17.509],[-101.717,-17.428],[-101.571,-17.402],[-101.513,-17.321],[-101.458,-17.24],[-101.4,-17.158],[-101.254,-17.133],[-101.113,-17.107],[-101.054,-17.025],[-100.913,-16.999],[-100.854,-16.917],[-100.8,-16.836],[-100.742,-16.754],[-100.683,-16.672],[-100.717,-16.535],[-100.658,-16.454],[-100.604,-16.372],[-100.546,-16.29],[-100.492,-16.208],[-100.433,-16.126],[-100.292,-16.099],[-100.15,-16.072],[-100.008,-16.044],[-99.863,-16.017],[-99.721,-15.989],[-99.579,-15.961],[-99.433,-15.932],[-99.379,-15.85],[-99.325,-15.767],[-99.183,-15.739],[-99.125,-15.656],[-99.071,-15.574],[-99.017,-15.491],[-98.962,-15.408],[-98.996,-15.271],[-98.854,-15.242],[-98.708,-15.213],[-98.567,-15.184],[-98.425,-15.154],[-98.283,-15.125],[-98.142,-15.095],[-98,-15.065],[-97.858,-15.035],[-97.804,-14.952],[-97.663,-14.921],[-97.608,-14.838],[-97.467,-14.807],[-97.413,-14.724],[-97.271,-14.693],[-97.217,-14.609],[-97.163,-14.526],[-97.108,-14.442],[-97.058,-14.358],[-97.004,-14.274],[-96.95,-14.19],[-96.896,-14.106],[-96.842,-14.022],[-96.787,-13.939],[-96.738,-13.855],[-96.771,-13.718],[-96.717,-13.634],[-96.667,-13.551],[-96.525,-13.519],[-96.471,-13.435],[-96.417,-13.351],[-96.367,-13.266],[-96.225,-13.234],[-96.171,-13.15],[-96.033,-13.118],[-95.892,-13.085],[-95.75,-13.052],[-95.663,-13.104],[-95.525,-13.071],[-95.383,-13.038],[-95.242,-13.005],[-95.192,-12.921],[-95.05,-12.887],[-95,-12.802],[-94.858,-12.769],[-94.808,-12.684],[-94.667,-12.65],[-94.529,-12.616],[-94.387,-12.582],[-94.246,-12.548],[-94.158,-12.599],[-94.021,-12.565],[-93.933,-12.616],[-93.792,-12.581],[-93.704,-12.632],[-93.617,-12.683],[-93.525,-12.733],[-93.492,-12.869],[-93.4,-12.92],[-93.363,-13.056],[-93.275,-13.107],[-93.238,-13.243],[-93.292,-13.329],[-93.342,-13.414],[-93.396,-13.5],[-93.533,-13.534],[-93.587,-13.62],[-93.725,-13.654],[-93.867,-13.689],[-93.921,-13.774],[-93.971,-13.859],[-94.025,-13.944],[-94.075,-14.03],[-94.042,-14.166],[-94.004,-14.302],[-93.917,-14.354],[-93.825,-14.405],[-93.738,-14.456],[-93.596,-14.421],[-93.454,-14.387],[-93.404,-14.301],[-93.263,-14.267],[-93.208,-14.181],[-93.071,-14.146],[-93.017,-14.061],[-92.967,-13.975],[-92.825,-13.94],[-92.683,-13.905],[-92.596,-13.955],[-92.454,-13.92],[-92.367,-13.97],[-92.275,-14.02],[-92.187,-14.071],[-92.1,-14.121],[-91.958,-14.085],[-91.817,-14.049],[-91.729,-14.099],[-91.637,-14.149],[-91.55,-14.199],[-91.512,-14.336],[-91.421,-14.386],[-91.333,-14.436],[-91.242,-14.486],[-91.154,-14.536],[-91.062,-14.585],[-91.025,-14.722],[-90.937,-14.771],[-90.846,-14.821],[-90.758,-14.871],[-90.717,-15.007],[-90.629,-15.057],[-90.537,-15.107],[-90.45,-15.156],[-90.358,-15.206],[-90.267,-15.256],[-90.179,-15.305],[-90.137,-15.441],[-90.05,-15.491],[-90.008,-15.627],[-89.971,-15.763],[-90.021,-15.85],[-89.983,-15.986],[-90.033,-16.073],[-90.087,-16.16],[-90.137,-16.246],[-90.192,-16.333],[-90.333,-16.37],[-90.383,-16.457],[-90.346,-16.593],[-90.396,-16.68],[-90.45,-16.766],[-90.358,-16.816],[-90.321,-16.952],[-90.279,-17.089],[-90.242,-17.225],[-90.204,-17.362],[-90.254,-17.448],[-90.308,-17.535],[-90.358,-17.622],[-90.504,-17.659],[-90.646,-17.695],[-90.738,-17.645],[-90.829,-17.595],[-90.917,-17.545],[-90.958,-17.409],[-90.996,-17.272],[-91.033,-17.136],[-91.071,-16.999],[-91.108,-16.863],[-91.2,-16.813],[-91.292,-16.762],[-91.433,-16.799],[-91.525,-16.748],[-91.667,-16.784],[-91.808,-16.82],[-91.863,-16.906],[-91.913,-16.992],[-91.875,-17.129],[-91.837,-17.266],[-91.75,-17.316],[-91.708,-17.452],[-91.671,-17.589],[-91.725,-17.675],[-91.687,-17.812],[-91.742,-17.898],[-91.792,-17.984],[-91.846,-18.07],[-91.9,-18.156],[-91.954,-18.242],[-92.004,-18.329],[-92.058,-18.414],[-92.113,-18.501],[-92.075,-18.637],[-92.037,-18.774],[-92,-18.911],[-91.962,-19.048],[-91.871,-19.098],[-91.833,-19.235],[-91.796,-19.372],[-91.85,-19.458],[-91.812,-19.595],[-91.775,-19.731],[-91.683,-19.782],[-91.646,-19.919],[-91.554,-19.969],[-91.512,-20.106],[-91.421,-20.157],[-91.383,-20.293],[-91.437,-20.379],[-91.4,-20.516],[-91.454,-20.603],[-91.508,-20.689],[-91.562,-20.775],[-91.617,-20.861],[-91.762,-20.897],[-91.908,-20.932],[-92.054,-20.967],[-92.108,-21.053],[-92.163,-21.139],[-92.217,-21.225],[-92.179,-21.362],[-92.142,-21.499],[-92.104,-21.636],[-92.158,-21.722],[-92.217,-21.808],[-92.179,-21.945],[-92.233,-22.031],[-92.288,-22.117],[-92.342,-22.203],[-92.304,-22.34],[-92.358,-22.426],[-92.417,-22.512],[-92.379,-22.649],[-92.433,-22.735],[-92.488,-22.821],[-92.546,-22.906],[-92.6,-22.992],[-92.654,-23.078],[-92.804,-23.112],[-92.858,-23.198],[-92.917,-23.284],[-92.971,-23.37],[-93.029,-23.455],[-93.083,-23.541],[-93.142,-23.626],[-93.196,-23.712],[-93.254,-23.798],[-93.308,-23.883],[-93.367,-23.969],[-93.425,-24.054],[-93.575,-24.088],[-93.629,-24.173],[-93.783,-24.207],[-93.933,-24.24],[-94.083,-24.273],[-94.233,-24.306],[-94.383,-24.338],[-94.537,-24.371],[-94.687,-24.403],[-94.746,-24.488],[-94.896,-24.52],[-95.046,-24.552],[-95.142,-24.499],[-95.292,-24.531],[-95.442,-24.562],[-95.537,-24.509],[-95.629,-24.456],[-95.779,-24.487],[-95.875,-24.434],[-95.967,-24.381],[-96.058,-24.327],[-96.15,-24.273],[-96.187,-24.136],[-96.221,-23.998],[-96.254,-23.86],[-96.287,-23.722],[-96.229,-23.638],[-96.262,-23.5],[-96.204,-23.416],[-96.146,-23.332],[-96.179,-23.194],[-96.121,-23.11],[-96.154,-22.972],[-96.246,-22.918],[-96.337,-22.865],[-96.488,-22.895],[-96.579,-22.842],[-96.671,-22.788],[-96.821,-22.818],[-96.913,-22.764],[-97.062,-22.794],[-97.154,-22.74],[-97.246,-22.686],[-97.279,-22.548],[-97.371,-22.494],[-97.458,-22.44],[-97.492,-22.302],[-97.583,-22.248],[-97.617,-22.11],[-97.646,-21.972],[-97.679,-21.834],[-97.621,-21.751],[-97.562,-21.667],[-97.504,-21.584],[-97.45,-21.5],[-97.479,-21.362],[-97.425,-21.279],[-97.367,-21.195],[-97.308,-21.111],[-97.342,-20.974],[-97.375,-20.836],[-97.317,-20.753],[-97.35,-20.615],[-97.383,-20.477],[-97.325,-20.394],[-97.358,-20.256],[-97.3,-20.173],[-97.242,-20.089],[-97.187,-20.005],[-97.129,-19.922],[-97.163,-19.784],[-97.104,-19.7],[-97.137,-19.563],[-97.229,-19.509],[-97.317,-19.456],[-97.35,-19.318],[-97.442,-19.264],[-97.529,-19.211],[-97.621,-19.157],[-97.708,-19.103],[-97.796,-19.049],[-97.888,-18.995],[-97.975,-18.941],[-98.008,-18.804],[-98.096,-18.75],[-98.187,-18.696],[-98.275,-18.641],[-98.363,-18.587],[-98.45,-18.533],[-98.542,-18.479],[-98.683,-18.507],[-98.775,-18.453],[-98.863,-18.399],[-98.95,-18.344],[-99.096,-18.372],[-99.183,-18.318],[-99.271,-18.263],[-99.417,-18.291],[-99.504,-18.236],[-99.592,-18.181],[-99.825,-18.154],[-99.738,-18.209],[-99.883,-18.236],[-100.029,-18.263],[-100.175,-18.29],[-100.317,-18.317],[-100.462,-18.344],[-100.608,-18.37],[-100.696,-18.315],[-100.842,-18.341],[-100.929,-18.285],[-101.017,-18.23],[-101.104,-18.174],[-101.192,-18.118],[-101.337,-18.144],[-101.425,-18.088],[-101.567,-18.113],[-101.625,-18.194],[-101.683,-18.276],[-101.742,-18.357],[-101.712,-18.494],[-101.683,-18.631],[-101.654,-18.769],[-101.625,-18.906],[-101.596,-19.043],[-101.567,-19.181],[-101.538,-19.318],[-101.567,-19.537],[-101.654,-19.481],[-101.596,-19.4],[-101.508,-19.456],[-101.363,-19.431],[-101.275,-19.487],[-101.187,-19.543],[-101.042,-19.517],[-100.954,-19.574],[-100.863,-19.629],[-100.775,-19.685],[-100.629,-19.659],[-100.542,-19.715],[-100.454,-19.771],[-100.367,-19.826],[-100.275,-19.882],[-100.187,-19.938],[-100.1,-19.993],[-100.071,-20.131],[-100.129,-20.213],[-100.187,-20.295],[-100.333,-20.321],[-100.392,-20.403],[-100.45,-20.485],[-100.6,-20.511],[-100.746,-20.537],[-100.892,-20.563],[-101.042,-20.588],[-101.129,-20.532],[-101.217,-20.476],[-101.367,-20.501],[-101.454,-20.444],[-101.483,-20.306],[-101.571,-20.25],[-101.658,-20.194],[-101.687,-20.056],[-101.717,-19.918],[-101.746,-19.781],[-101.683,-19.699],[-101.712,-19.562],[-101.8,-19.506],[-101.946,-19.53],[-102.096,-19.554],[-102.183,-19.498],[-102.329,-19.522],[-102.417,-19.465],[-102.504,-19.408],[-102.529,-19.271],[-102.558,-19.133],[-102.588,-18.996],[-102.617,-18.858],[-102.642,-18.721],[-102.583,-18.64],[-102.613,-18.503],[-102.554,-18.422],[-102.496,-18.342],[-102.437,-18.261],[-102.379,-18.181]],[[-99.333,-20.353],[-99.183,-20.326],[-99.125,-20.243],[-99.158,-20.106],[-99.246,-20.051],[-99.337,-19.996],[-99.425,-19.941],[-99.571,-19.968],[-99.717,-19.995],[-99.863,-20.022],[-99.833,-20.159],[-99.746,-20.215],[-99.658,-20.27],[-99.567,-20.326],[-99.479,-20.381],[-99.333,-20.353]],[[-95.654,-19.972],[-95.6,-19.887],[-95.542,-19.803],[-95.488,-19.718],[-95.521,-19.581],[-95.558,-19.444],[-95.646,-19.391],[-95.738,-19.338],[-95.883,-19.37],[-96.029,-19.401],[-96.175,-19.432],[-96.229,-19.517],[-96.375,-19.548],[-96.433,-19.632],[-96.488,-19.716],[-96.546,-19.8],[-96.512,-19.937],[-96.479,-20.075],[-96.387,-20.128],[-96.354,-20.266],[-96.208,-20.235],[-96.117,-20.288],[-95.971,-20.257],[-95.913,-20.172],[-95.858,-20.088],[-95.712,-20.056],[-95.654,-19.972]],[[-93.667,-20.181],[-93.613,-20.096],[-93.558,-20.01],[-93.504,-19.925],[-93.45,-19.839],[-93.396,-19.754],[-93.304,-19.805],[-93.158,-19.771],[-93.067,-19.823],[-92.975,-19.874],[-92.883,-19.925],[-92.846,-20.062],[-92.754,-20.113],[-92.717,-20.251],[-92.683,-20.387],[-92.646,-20.524],[-92.554,-20.576],[-92.517,-20.712],[-92.479,-20.849],[-92.442,-20.986],[-92.496,-21.072],[-92.55,-21.158],[-92.696,-21.193],[-92.75,-21.279],[-92.808,-21.364],[-92.863,-21.45],[-92.917,-21.536],[-92.971,-21.621],[-93.029,-21.707],[-93.083,-21.792],[-93.229,-21.827],[-93.325,-21.775],[-93.417,-21.723],[-93.45,-21.586],[-93.396,-21.501],[-93.342,-21.415],[-93.379,-21.278],[-93.321,-21.192],[-93.267,-21.107],[-93.304,-20.97],[-93.342,-20.833],[-93.375,-20.696],[-93.467,-20.644],[-93.504,-20.507],[-93.596,-20.455],[-93.687,-20.404],[-93.725,-20.266],[-93.667,-20.181]],[[-100.725,-25.469],[-100.663,-25.387],[-100.6,-25.305],[-100.537,-25.223],[-100.383,-25.198],[-100.321,-25.116],[-100.258,-25.034],[-100.2,-24.952],[-100.137,-24.87],[-100.075,-24.788],[-99.921,-24.762],[-99.863,-24.68],[-99.708,-24.653],[-99.554,-24.627],[-99.404,-24.6],[-99.312,-24.656],[-99.221,-24.712],[-99.129,-24.767],[-99.1,-24.906],[-99.067,-25.044],[-99.037,-25.182],[-99.1,-25.265],[-99.158,-25.348],[-99.221,-25.431],[-99.192,-25.569],[-99.254,-25.651],[-99.408,-25.678],[-99.467,-25.761],[-99.529,-25.843],[-99.592,-25.926],[-99.654,-26.008],[-99.717,-26.09],[-99.871,-26.116],[-100.025,-26.142],[-100.179,-26.168],[-100.271,-26.111],[-100.425,-26.137],[-100.517,-26.08],[-100.671,-26.105],[-100.763,-26.048],[-100.854,-25.991],[-100.883,-25.852],[-100.913,-25.714],[-100.85,-25.632],[-100.788,-25.55],[-100.725,-25.469]],[[-102.779,-23.432],[-102.717,-23.352],[-102.654,-23.272],[-102.504,-23.249],[-102.417,-23.306],[-102.325,-23.364],[-102.238,-23.422],[-102.208,-23.56],[-102.271,-23.641],[-102.333,-23.722],[-102.488,-23.744],[-102.55,-23.825],[-102.7,-23.848],[-102.787,-23.79],[-102.879,-23.732],[-102.904,-23.593],[-102.842,-23.513],[-102.779,-23.432]],[[-106.929,-26.154],[-106.863,-26.076],[-106.796,-25.999],[-106.729,-25.921],[-106.575,-25.904],[-106.508,-25.827],[-106.354,-25.81],[-106.287,-25.732],[-106.133,-25.714],[-105.975,-25.697],[-105.913,-25.619],[-105.758,-25.601],[-105.692,-25.522],[-105.537,-25.504],[-105.471,-25.426],[-105.317,-25.407],[-105.25,-25.329],[-105.275,-25.19],[-105.208,-25.111],[-105.233,-24.972],[-105.167,-24.894],[-105.192,-24.755],[-105.212,-24.616],[-105.238,-24.477],[-105.171,-24.399],[-105.196,-24.26],[-105.133,-24.181],[-105.067,-24.103],[-105.004,-24.024],[-104.85,-24.004],[-104.787,-23.925],[-104.725,-23.846],[-104.658,-23.767],[-104.596,-23.688],[-104.533,-23.608],[-104.467,-23.529],[-104.317,-23.509],[-104.167,-23.488],[-104.079,-23.547],[-103.925,-23.526],[-103.837,-23.585],[-103.687,-23.564],[-103.6,-23.622],[-103.508,-23.681],[-103.421,-23.739],[-103.396,-23.878],[-103.458,-23.958],[-103.521,-24.038],[-103.583,-24.118],[-103.65,-24.198],[-103.8,-24.219],[-103.863,-24.299],[-103.929,-24.378],[-103.992,-24.458],[-103.967,-24.596],[-104.029,-24.676],[-104.096,-24.756],[-104.158,-24.835],[-104.225,-24.915],[-104.2,-25.053],[-104.262,-25.133],[-104.329,-25.212],[-104.304,-25.351],[-104.217,-25.411],[-104.125,-25.47],[-103.971,-25.449],[-103.817,-25.429],[-103.729,-25.488],[-103.575,-25.467],[-103.483,-25.526],[-103.329,-25.504],[-103.242,-25.563],[-103.15,-25.622],[-103.062,-25.68],[-102.971,-25.739],[-102.946,-25.877],[-102.921,-26.016],[-102.896,-26.155],[-102.867,-26.294],[-102.933,-26.374],[-102.996,-26.455],[-103.062,-26.535],[-103.129,-26.615],[-103.192,-26.695],[-103.258,-26.776],[-103.325,-26.856],[-103.387,-26.936],[-103.454,-27.016],[-103.429,-27.155],[-103.496,-27.235],[-103.562,-27.315],[-103.471,-27.374],[-103.446,-27.513],[-103.354,-27.572],[-103.262,-27.631],[-103.171,-27.69],[-103.079,-27.749],[-102.988,-27.807],[-102.896,-27.866],[-102.742,-27.844],[-102.583,-27.822],[-102.517,-27.742],[-102.358,-27.72],[-102.204,-27.697],[-102.113,-27.755],[-101.954,-27.732],[-101.796,-27.709],[-101.704,-27.767],[-101.546,-27.744],[-101.454,-27.801],[-101.296,-27.778],[-101.204,-27.835],[-101.113,-27.893],[-101.021,-27.95],[-100.929,-28.007],[-100.833,-28.065],[-100.742,-28.122],[-100.712,-28.261],[-100.683,-28.4],[-100.654,-28.539],[-100.625,-28.678],[-100.6,-28.816],[-100.571,-28.955],[-100.475,-29.012],[-100.383,-29.069],[-100.287,-29.126],[-100.129,-29.101],[-100.062,-29.019],[-100,-28.937],[-99.842,-28.911],[-99.775,-28.829],[-99.712,-28.747],[-99.646,-28.664],[-99.488,-28.638],[-99.425,-28.556],[-99.454,-28.417],[-99.392,-28.334],[-99.329,-28.252],[-99.296,-28.031],[-99.325,-27.892],[-99.354,-27.753],[-99.512,-27.78],[-99.671,-27.806],[-99.733,-27.888],[-99.704,-28.027],[-99.608,-28.083],[-99.517,-28.14],[-99.358,-28.113],[-99.267,-28.169],[-99.108,-28.143],[-99.012,-28.199],[-98.854,-28.172],[-98.763,-28.227],[-98.667,-28.283],[-98.508,-28.256],[-98.417,-28.311],[-98.383,-28.45],[-98.354,-28.588],[-98.321,-28.727],[-98.287,-28.866],[-98.258,-29.004],[-98.321,-29.087],[-98.225,-29.142],[-98.192,-29.281],[-98.163,-29.42],[-98.067,-29.475],[-97.971,-29.53],[-97.875,-29.585],[-97.779,-29.641],[-97.746,-29.779],[-97.712,-29.917],[-97.679,-30.056],[-97.838,-30.084],[-97.904,-30.168],[-98.062,-30.196],[-98.225,-30.224],[-98.321,-30.168],[-98.479,-30.196],[-98.575,-30.14],[-98.738,-30.167],[-98.833,-30.111],[-98.992,-30.138],[-99.087,-30.082],[-99.25,-30.109],[-99.346,-30.052],[-99.504,-30.079],[-99.6,-30.022],[-99.696,-29.966],[-99.792,-29.909],[-99.887,-29.853],[-99.979,-29.796],[-100.075,-29.739],[-100.171,-29.682],[-100.267,-29.625],[-100.358,-29.568],[-100.521,-29.593],[-100.583,-29.675],[-100.65,-29.757],[-100.717,-29.838],[-100.879,-29.863],[-100.942,-29.944],[-101.008,-30.026],[-101.075,-30.107],[-101.142,-30.189],[-101.208,-30.271],[-101.275,-30.352],[-101.342,-30.433],[-101.504,-30.457],[-101.571,-30.538],[-101.733,-30.561],[-101.896,-30.584],[-102.058,-30.607],[-102.125,-30.687],[-102.192,-30.768],[-102.096,-30.827],[-102.004,-30.885],[-101.975,-31.024],[-101.883,-31.083],[-101.854,-31.222],[-101.758,-31.281],[-101.733,-31.42],[-101.704,-31.559],[-101.608,-31.617],[-101.583,-31.757],[-101.554,-31.896],[-101.529,-32.035],[-101.596,-32.117],[-101.567,-32.256],[-101.638,-32.337],[-101.704,-32.418],[-101.775,-32.499],[-101.846,-32.581],[-101.913,-32.661],[-101.983,-32.742],[-102.05,-32.823],[-102.025,-32.963],[-102.096,-33.044],[-102.167,-33.125],[-102.137,-33.264],[-102.208,-33.345],[-102.279,-33.426],[-102.25,-33.565],[-102.321,-33.646],[-102.392,-33.727],[-102.462,-33.807],[-102.533,-33.888],[-102.704,-33.91],[-102.775,-33.99],[-102.846,-34.071],[-103.012,-34.091],[-103.087,-34.172],[-103.254,-34.192],[-103.425,-34.213],[-103.592,-34.233],[-103.762,-34.253],[-103.833,-34.332],[-104.004,-34.352],[-104.079,-34.432],[-104.246,-34.451],[-104.321,-34.53],[-104.492,-34.549],[-104.513,-34.409],[-104.442,-34.329],[-104.462,-34.189],[-104.392,-34.11],[-104.317,-34.031],[-104.342,-33.891],[-104.437,-33.83],[-104.604,-33.849],[-104.679,-33.928],[-104.846,-33.946],[-104.921,-34.025],[-105.087,-34.043],[-105.163,-34.122],[-105.333,-34.139],[-105.5,-34.157],[-105.575,-34.235],[-105.746,-34.252],[-105.913,-34.269],[-106.083,-34.285],[-106.179,-34.223],[-106.275,-34.161],[-106.367,-34.099],[-106.462,-34.036],[-106.558,-33.974],[-106.575,-33.834],[-106.671,-33.771],[-106.762,-33.709],[-106.783,-33.569],[-106.879,-33.506],[-106.896,-33.366],[-106.988,-33.304],[-107.083,-33.241],[-107.175,-33.178],[-107.196,-33.038],[-107.287,-32.975],[-107.304,-32.835],[-107.229,-32.758],[-107.25,-32.618],[-107.175,-32.54],[-107.196,-32.4],[-107.121,-32.323],[-107.137,-32.183],[-107.067,-32.106],[-107.083,-31.966],[-107.104,-31.826],[-107.121,-31.686],[-107.212,-31.623],[-107.233,-31.483],[-107.25,-31.343],[-107.271,-31.204],[-107.287,-31.064],[-107.308,-30.924],[-107.233,-30.847],[-107.254,-30.707],[-107.346,-30.644],[-107.363,-30.504],[-107.454,-30.442],[-107.471,-30.302],[-107.562,-30.239],[-107.579,-30.1],[-107.671,-30.037],[-107.687,-29.897],[-107.779,-29.835],[-107.796,-29.695],[-107.887,-29.632],[-107.904,-29.492],[-107.996,-29.43],[-108.012,-29.29],[-108.029,-29.151],[-108.05,-29.011],[-108.067,-28.871],[-108.083,-28.732],[-108.104,-28.592],[-108.121,-28.453],[-108.05,-28.376],[-108.067,-28.237],[-108,-28.16],[-107.929,-28.084],[-107.858,-28.007],[-107.787,-27.93],[-107.629,-27.916],[-107.562,-27.839],[-107.492,-27.761],[-107.425,-27.684],[-107.442,-27.545],[-107.375,-27.468],[-107.304,-27.391],[-107.237,-27.314],[-107.167,-27.236],[-107.187,-27.097],[-107.208,-26.958],[-107.142,-26.881],[-107.071,-26.803],[-107.092,-26.664],[-107.025,-26.587],[-107.046,-26.447],[-107.067,-26.309],[-106.996,-26.231],[-106.929,-26.154]],[[-108.913,-40.18],[-108.829,-40.104],[-108.746,-40.028],[-108.658,-39.951],[-108.475,-39.94],[-108.375,-40.004],[-108.275,-40.069],[-108.263,-40.209],[-108.246,-40.35],[-108.146,-40.414],[-108.042,-40.479],[-107.942,-40.543],[-107.758,-40.53],[-107.654,-40.594],[-107.471,-40.581],[-107.367,-40.644],[-107.267,-40.707],[-107.162,-40.771],[-107.146,-40.912],[-107.229,-40.989],[-107.212,-41.13],[-107.296,-41.207],[-107.379,-41.284],[-107.467,-41.361],[-107.654,-41.374],[-107.842,-41.387],[-108.029,-41.4],[-108.129,-41.336],[-108.317,-41.348],[-108.421,-41.284],[-108.521,-41.219],[-108.621,-41.154],[-108.725,-41.09],[-108.825,-41.025],[-108.925,-40.96],[-108.942,-40.819],[-108.954,-40.678],[-108.971,-40.537],[-108.983,-40.397],[-109,-40.256],[-108.913,-40.18]],[[-99.375,-43.22],[-99.3,-43.137],[-99.225,-43.055],[-99.033,-43.028],[-98.846,-43.001],[-98.654,-42.974],[-98.542,-43.029],[-98.35,-43.001],[-98.238,-43.056],[-98.05,-43.028],[-97.933,-43.083],[-97.821,-43.137],[-97.704,-43.192],[-97.663,-43.33],[-97.625,-43.468],[-97.696,-43.552],[-97.658,-43.689],[-97.617,-43.827],[-97.692,-43.911],[-97.575,-43.965],[-97.533,-44.103],[-97.417,-44.157],[-97.375,-44.295],[-97.329,-44.432],[-97.287,-44.57],[-97.246,-44.708],[-97.321,-44.791],[-97.275,-44.929],[-97.233,-45.067],[-97.187,-45.204],[-97.146,-45.342],[-97.1,-45.479],[-97.179,-45.563],[-97.254,-45.646],[-97.329,-45.73],[-97.529,-45.76],[-97.725,-45.789],[-97.921,-45.818],[-98.042,-45.764],[-98.242,-45.792],[-98.363,-45.738],[-98.479,-45.683],[-98.679,-45.711],[-98.796,-45.656],[-98.917,-45.6],[-99.037,-45.545],[-99.233,-45.572],[-99.35,-45.516],[-99.471,-45.46],[-99.587,-45.404],[-99.704,-45.348],[-99.746,-45.209],[-99.783,-45.071],[-99.821,-44.932],[-99.858,-44.793],[-99.892,-44.655],[-99.812,-44.573],[-99.85,-44.434],[-99.771,-44.352],[-99.696,-44.269],[-99.617,-44.187],[-99.654,-44.048],[-99.575,-43.966],[-99.496,-43.883],[-99.533,-43.745],[-99.458,-43.662],[-99.496,-43.524],[-99.417,-43.441],[-99.454,-43.302],[-99.375,-43.22]],[[-111.183,-46.448],[-111.087,-46.374],[-110.992,-46.3],[-110.787,-46.292],[-110.687,-46.218],[-110.483,-46.21],[-110.387,-46.135],[-110.183,-46.127],[-110.092,-46.052],[-109.887,-46.043],[-109.683,-46.033],[-109.575,-46.099],[-109.371,-46.089],[-109.263,-46.154],[-109.246,-46.296],[-109.138,-46.361],[-109.029,-46.426],[-109.013,-46.567],[-108.996,-46.708],[-108.979,-46.849],[-108.962,-46.99],[-109.058,-47.066],[-109.046,-47.207],[-109.142,-47.282],[-109.238,-47.358],[-109.333,-47.434],[-109.429,-47.51],[-109.525,-47.585],[-109.625,-47.661],[-109.721,-47.736],[-109.929,-47.745],[-110.142,-47.754],[-110.254,-47.688],[-110.363,-47.622],[-110.475,-47.555],[-110.583,-47.489],[-110.596,-47.348],[-110.708,-47.281],[-110.817,-47.214],[-110.829,-47.073],[-110.937,-47.006],[-110.946,-46.865],[-111.054,-46.798],[-111.067,-46.657],[-111.175,-46.59],[-111.183,-46.448]],[[-127.212,-50.313],[-127.179,-50.174],[-127.05,-50.116],[-126.925,-50.058],[-126.8,-50],[-126.671,-49.942],[-126.454,-49.964],[-126.362,-50.045],[-126.271,-50.126],[-126.179,-50.207],[-126.212,-50.346],[-126.121,-50.427],[-126.154,-50.567],[-126.062,-50.647],[-126.096,-50.787],[-126.129,-50.927],[-126.258,-50.986],[-126.292,-51.125],[-126.421,-51.184],[-126.642,-51.161],[-126.867,-51.138],[-127.087,-51.115],[-127.179,-51.033],[-127.271,-50.952],[-127.362,-50.87],[-127.454,-50.788],[-127.417,-50.649],[-127.379,-50.51],[-127.342,-50.371],[-127.212,-50.313]],[[-117.437,-50.659],[-117.321,-50.59],[-117.1,-50.594],[-116.983,-50.526],[-116.763,-50.529],[-116.654,-50.602],[-116.433,-50.605],[-116.321,-50.677],[-116.1,-50.679],[-115.988,-50.751],[-115.879,-50.822],[-115.767,-50.894],[-115.542,-50.895],[-115.433,-50.966],[-115.321,-51.037],[-115.096,-51.038],[-114.983,-51.109],[-114.758,-51.109],[-114.533,-51.108],[-114.308,-51.107],[-114.083,-51.105],[-113.858,-51.104],[-113.633,-51.101],[-113.517,-51.171],[-113.292,-51.168],[-113.067,-51.164],[-112.842,-51.161],[-112.725,-51.229],[-112.608,-51.298],[-112.383,-51.293],[-112.158,-51.288],[-112.037,-51.356],[-111.812,-51.35],[-111.696,-51.418],[-111.467,-51.411],[-111.242,-51.405],[-111.125,-51.472],[-110.896,-51.464],[-110.779,-51.531],[-110.55,-51.523],[-110.429,-51.589],[-110.204,-51.581],[-110.083,-51.647],[-109.962,-51.713],[-109.837,-51.778],[-109.613,-51.769],[-109.629,-51.628],[-109.521,-51.552],[-109.417,-51.477],[-109.313,-51.401],[-109.208,-51.326],[-109.104,-51.25],[-109.004,-51.174],[-108.9,-51.098],[-108.675,-51.087],[-108.571,-51.01],[-108.35,-50.998],[-108.125,-50.986],[-107.904,-50.973],[-107.779,-51.037],[-107.658,-51.101],[-107.533,-51.164],[-107.413,-51.227],[-107.287,-51.291],[-107.263,-51.431],[-107.137,-51.494],[-107.117,-51.634],[-107.092,-51.775],[-107.192,-51.852],[-107.167,-51.992],[-107.142,-52.133],[-107.246,-52.21],[-107.346,-52.287],[-107.45,-52.364],[-107.679,-52.378],[-107.808,-52.315],[-108.037,-52.328],[-108.142,-52.404],[-108.496,-52.352],[-108.371,-52.417],[-108.604,-52.429],[-108.708,-52.505],[-108.812,-52.581],[-108.921,-52.657],[-109.025,-52.733],[-109.133,-52.809],[-109.367,-52.819],[-109.346,-52.96],[-109.454,-53.036],[-109.329,-53.101],[-109.204,-53.166],[-109.183,-53.307],[-109.054,-53.371],[-109.037,-53.512],[-109.146,-53.588],[-109.125,-53.729],[-109.233,-53.804],[-109.212,-53.945],[-109.325,-54.021],[-109.433,-54.096],[-109.417,-54.237],[-109.525,-54.312],[-109.637,-54.388],[-109.75,-54.463],[-109.992,-54.473],[-110.233,-54.482],[-110.346,-54.557],[-110.592,-54.566],[-110.717,-54.499],[-110.846,-54.433],[-111.087,-54.441],[-111.217,-54.374],[-111.346,-54.307],[-111.587,-54.314],[-111.829,-54.32],[-112.071,-54.326],[-112.312,-54.331],[-112.429,-54.404],[-112.546,-54.477],[-112.663,-54.55],[-112.904,-54.554],[-113.025,-54.627],[-113.142,-54.699],[-113.262,-54.771],[-113.379,-54.844],[-113.5,-54.916],[-113.621,-54.988],[-113.742,-55.06],[-113.863,-55.131],[-114.108,-55.133],[-114.229,-55.205],[-114.354,-55.276],[-114.475,-55.348],[-114.6,-55.419],[-114.721,-55.489],[-114.846,-55.56],[-114.971,-55.631],[-115.096,-55.702],[-115.221,-55.772],[-115.346,-55.843],[-115.346,-55.984],[-115.471,-56.054],[-115.471,-56.196],[-115.6,-56.266],[-115.6,-56.407],[-115.729,-56.477],[-115.729,-56.618],[-115.858,-56.688],[-115.988,-56.758],[-115.992,-56.899],[-116.121,-56.969],[-116.379,-56.966],[-116.642,-56.964],[-116.9,-56.961],[-117.025,-56.888],[-117.283,-56.884],[-117.408,-56.811],[-117.533,-56.739],[-117.658,-56.666],[-117.917,-56.66],[-118.037,-56.587],[-118.296,-56.581],[-118.55,-56.574],[-118.683,-56.642],[-118.942,-56.634],[-119.075,-56.701],[-119.333,-56.693],[-119.471,-56.759],[-119.608,-56.826],[-119.742,-56.892],[-119.879,-56.958],[-119.896,-57.099],[-119.775,-57.174],[-119.654,-57.249],[-119.529,-57.324],[-119.271,-57.332],[-119.146,-57.406],[-119.021,-57.481],[-118.758,-57.488],[-118.633,-57.562],[-118.371,-57.569],[-118.246,-57.642],[-117.979,-57.648],[-117.717,-57.653],[-117.454,-57.658],[-117.317,-57.59],[-117.054,-57.594],[-116.792,-57.597],[-116.529,-57.6],[-116.267,-57.602],[-116.133,-57.674],[-116.004,-57.746],[-115.871,-57.817],[-115.875,-57.958],[-115.875,-58.099],[-115.875,-58.24],[-116.012,-58.31],[-116.146,-58.379],[-116.417,-58.377],[-116.55,-58.447],[-116.821,-58.444],[-116.958,-58.512],[-117.229,-58.509],[-117.5,-58.505],[-117.638,-58.573],[-117.908,-58.568],[-118.179,-58.562],[-118.45,-58.556],[-118.587,-58.623],[-118.858,-58.616],[-119,-58.683],[-119.271,-58.676],[-119.417,-58.742],[-119.558,-58.808],[-119.833,-58.799],[-119.975,-58.865],[-120.121,-58.931],[-120.267,-58.996],[-120.412,-59.062],[-120.558,-59.127],[-120.708,-59.192],[-120.854,-59.257],[-121.004,-59.322],[-121.15,-59.386],[-121.429,-59.374],[-121.554,-59.297],[-121.829,-59.285],[-121.954,-59.208],[-122.229,-59.194],[-122.354,-59.117],[-122.475,-59.04],[-122.6,-58.962],[-122.721,-58.884],[-123.112,-58.791],[-122.992,-58.869],[-123.262,-58.854],[-123.533,-58.838],[-123.804,-58.821],[-123.958,-58.882],[-124.229,-58.864],[-124.5,-58.846],[-124.617,-58.767],[-124.583,-58.627],[-124.7,-58.547],[-124.662,-58.407],[-124.629,-58.267],[-124.742,-58.188],[-124.708,-58.048],[-124.671,-57.908],[-124.637,-57.767],[-124.604,-57.627],[-124.567,-57.487],[-124.421,-57.426],[-124.388,-57.286],[-124.242,-57.225],[-124.096,-57.164],[-124.062,-57.024],[-123.917,-56.962],[-123.775,-56.901],[-123.742,-56.76],[-123.6,-56.699],[-123.567,-56.558],[-123.425,-56.496],[-123.283,-56.434],[-123.142,-56.372],[-123.004,-56.309],[-122.862,-56.247],[-122.721,-56.184],[-122.583,-56.121],[-122.329,-56.136],[-122.192,-56.073],[-122.054,-56.009],[-121.917,-55.945],[-121.662,-55.958],[-121.529,-55.894],[-121.392,-55.83],[-121.254,-55.766],[-121.121,-55.701],[-120.983,-55.637],[-120.85,-55.572],[-120.717,-55.507],[-120.583,-55.442],[-120.45,-55.377],[-120.2,-55.387],[-120.067,-55.322],[-119.933,-55.256],[-119.804,-55.19],[-119.671,-55.124],[-119.542,-55.058],[-119.412,-54.992],[-119.396,-54.851],[-119.383,-54.709],[-119.367,-54.568],[-119.354,-54.427],[-119.467,-54.352],[-119.454,-54.211],[-119.437,-54.07],[-119.425,-53.929],[-119.408,-53.788],[-119.396,-53.647],[-119.267,-53.58],[-119.142,-53.514],[-119.129,-53.372],[-119.004,-53.306],[-118.879,-53.239],[-118.867,-53.098],[-118.746,-53.031],[-118.621,-52.964],[-118.5,-52.897],[-118.487,-52.755],[-118.367,-52.688],[-118.246,-52.621],[-118.121,-52.553],[-118,-52.485],[-117.879,-52.417],[-117.871,-52.276],[-117.863,-52.135],[-117.854,-51.993],[-117.846,-51.852],[-117.837,-51.711],[-117.829,-51.569],[-117.937,-51.496],[-117.929,-51.355],[-117.808,-51.287],[-117.8,-51.146],[-117.792,-51.004],[-117.675,-50.936],[-117.563,-50.868],[-117.554,-50.727],[-117.437,-50.659]],[[-129.654,-59.257],[-129.488,-59.202],[-129.325,-59.147],[-129.054,-59.175],[-128.896,-59.119],[-128.733,-59.064],[-128.571,-59.008],[-128.304,-59.034],[-128.033,-59.06],[-127.921,-59.142],[-127.808,-59.224],[-127.858,-59.364],[-127.908,-59.503],[-127.958,-59.642],[-128.121,-59.698],[-128.283,-59.755],[-128.337,-59.894],[-128.5,-59.95],[-128.779,-59.923],[-128.942,-59.979],[-129.221,-59.951],[-129.496,-59.923],[-129.604,-59.84],[-129.712,-59.756],[-129.825,-59.672],[-129.929,-59.589],[-129.875,-59.45],[-129.708,-59.396],[-129.654,-59.257]],[[-159.212,-62.742],[-158.996,-62.728],[-158.779,-62.714],[-158.563,-62.701],[-158.317,-62.785],[-158.1,-62.77],[-157.85,-62.854],[-157.633,-62.839],[-157.383,-62.922],[-157.129,-63.004],[-157.096,-63.103],[-156.837,-63.185],[-156.8,-63.283],[-156.763,-63.382],[-156.725,-63.481],[-156.687,-63.579],[-156.65,-63.677],[-156.612,-63.776],[-156.571,-63.875],[-156.533,-63.973],[-156.492,-64.072],[-156.679,-64.187],[-156.867,-64.303],[-157.058,-64.418],[-157.246,-64.533],[-157.437,-64.648],[-157.633,-64.762],[-157.867,-64.778],[-158.063,-64.892],[-158.025,-64.991],[-158.225,-65.104],[-158.458,-65.119],[-158.663,-65.232],[-158.9,-65.246],[-159.104,-65.358],[-159.342,-65.371],[-159.579,-65.384],[-159.787,-65.496],[-160.025,-65.508],[-160.262,-65.52],[-160.475,-65.631],[-160.717,-65.642],[-160.958,-65.652],[-161.2,-65.663],[-161.442,-65.672],[-161.679,-65.682],[-161.921,-65.691],[-162.183,-65.601],[-162.425,-65.609],[-162.667,-65.617],[-162.908,-65.625],[-163.15,-65.632],[-163.392,-65.639],[-163.633,-65.646],[-163.875,-65.652],[-164.117,-65.657],[-164.358,-65.663],[-164.6,-65.668],[-164.842,-65.673],[-165.083,-65.677],[-165.337,-65.581],[-165.579,-65.585],[-165.821,-65.588],[-166.058,-65.591],[-166.3,-65.593],[-166.538,-65.695],[-166.783,-65.697],[-167.021,-65.798],[-167.267,-65.799],[-167.508,-65.8],[-167.75,-65.7],[-167.75,-65.6],[-167.75,-65.5],[-167.75,-65.4],[-167.75,-65.3],[-167.75,-65.2],[-167.517,-65.1],[-167.279,-64.999],[-167.042,-64.998],[-166.808,-64.897],[-166.575,-64.895],[-166.337,-64.893],[-166.104,-64.891],[-165.867,-64.888],[-165.633,-64.885],[-165.396,-64.882],[-165.171,-64.778],[-164.946,-64.674],[-164.712,-64.669],[-164.492,-64.564],[-164.275,-64.459],[-164.054,-64.354],[-163.825,-64.348],[-163.608,-64.242],[-163.379,-64.236],[-163.167,-64.129],[-162.937,-64.121],[-162.729,-64.014],[-162.5,-64.006],[-162.271,-63.998],[-162.046,-63.989],[-161.817,-63.98],[-161.592,-63.971],[-161.342,-64.061],[-161.117,-64.051],[-160.887,-64.04],[-160.662,-64.029],[-160.458,-63.919],[-160.487,-63.819],[-160.513,-63.72],[-160.538,-63.621],[-160.783,-63.532],[-160.808,-63.433],[-160.833,-63.334],[-160.854,-63.234],[-160.879,-63.135],[-160.683,-63.024],[-160.487,-62.914],[-160.296,-62.803],[-160.079,-62.792],[-159.862,-62.78],[-159.671,-62.668],[-159.429,-62.754],[-159.212,-62.742]],[[-176.2,-63.957],[-175.975,-63.97],[-175.75,-63.983],[-175.525,-63.995],[-175.325,-64.106],[-175.096,-64.118],[-174.892,-64.228],[-174.667,-64.239],[-174.458,-64.349],[-174.254,-64.459],[-174.275,-64.558],[-174.067,-64.668],[-174.092,-64.767],[-174.112,-64.867],[-174.137,-64.966],[-174.162,-65.066],[-174.183,-65.165],[-174.208,-65.265],[-174.471,-65.354],[-174.733,-65.443],[-175,-65.531],[-175.267,-65.619],[-175.508,-65.607],[-175.75,-65.595],[-176.017,-65.682],[-176.258,-65.669],[-176.5,-65.656],[-176.737,-65.642],[-176.946,-65.529],[-177.183,-65.514],[-177.383,-65.401],[-177.35,-65.302],[-177.313,-65.203],[-177.279,-65.104],[-177.246,-65.005],[-176.975,-64.921],[-176.942,-64.822],[-176.908,-64.723],[-176.875,-64.624],[-176.846,-64.525],[-176.813,-64.426],[-176.779,-64.327],[-176.746,-64.228],[-176.717,-64.129],[-176.458,-64.043],[-176.2,-63.957]],[[-176.263,-62.642],[-176.046,-62.655],[-175.833,-62.668],[-175.642,-62.78],[-175.45,-62.891],[-175.479,-62.99],[-175.721,-63.077],[-175.75,-63.177],[-176,-63.263],[-176.217,-63.25],[-176.408,-63.138],[-176.596,-63.025],[-176.567,-62.926],[-176.537,-62.827],[-176.508,-62.728],[-176.263,-62.642]],[[170.346,-57.736],[170.525,-57.769],[170.7,-57.801],[170.879,-57.834],[170.996,-57.961],[171.113,-58.088],[171.233,-58.214],[171.171,-58.309],[171.292,-58.436],[171.229,-58.53],[171.35,-58.657],[171.475,-58.783],[171.658,-58.815],[171.779,-58.941],[171.962,-58.972],[172.15,-59.002],[172.333,-59.033],[172.521,-59.063],[172.704,-59.093],[172.892,-59.122],[173.133,-59.056],[173.321,-59.085],[173.504,-59.114],[173.746,-59.046],[173.933,-59.074],[174.121,-59.102],[174.363,-59.033],[174.55,-59.06],[174.737,-59.087],[174.925,-59.114],[175.112,-59.14],[175.3,-59.166],[175.488,-59.192],[175.625,-59.314],[175.817,-59.339],[176.004,-59.364],[176.146,-59.486],[176.338,-59.51],[176.483,-59.631],[176.675,-59.656],[176.867,-59.679],[177.058,-59.702],[177.25,-59.726],[177.446,-59.749],[177.683,-59.674],[177.875,-59.696],[178.113,-59.62],[178.304,-59.642],[178.5,-59.663],[178.733,-59.586],[178.888,-59.704],[179.079,-59.725],[179.233,-59.843],[179.196,-59.941],[179.35,-60.059],[179.308,-60.157],[179.467,-60.275],[179.429,-60.373],[179.388,-60.471],[179.15,-60.549],[179.108,-60.647],[179.067,-60.745],[179.025,-60.842],[178.983,-60.941],[179.142,-61.059],[179.346,-61.079],[179.55,-61.098],[179.792,-61.019],[179.992,-61.039],[-179.842,-61.156],[-179.675,-61.272],[-179.508,-61.389],[-179.342,-61.505],[-179.171,-61.621],[-179,-61.737],[-178.829,-61.853],[-178.654,-61.968],[-178.446,-61.985],[-178.271,-62.1],[-178.304,-62.199],[-178.342,-62.297],[-178.375,-62.396],[-178.625,-62.478],[-178.658,-62.577],[-178.912,-62.658],[-178.95,-62.757],[-179.204,-62.838],[-179.242,-62.936],[-179.279,-63.034],[-179.321,-63.133],[-179.358,-63.231],[-179.179,-63.348],[-179.221,-63.446],[-179.258,-63.544],[-179.3,-63.643],[-179.337,-63.741],[-179.6,-63.821],[-179.867,-63.901],[179.867,-63.981],[179.642,-63.961],[179.375,-64.04],[179.15,-64.02],[178.929,-64],[178.704,-63.979],[178.529,-63.86],[178.308,-63.839],[178.088,-63.817],[177.867,-63.796],[177.646,-63.774],[177.475,-63.654],[177.258,-63.631],[177.038,-63.608],[176.875,-63.487],[176.708,-63.366],[176.492,-63.342],[176.329,-63.221],[176.117,-63.196],[175.9,-63.172],[175.687,-63.147],[175.475,-63.121],[175.258,-63.095],[174.988,-63.166],[174.775,-63.139],[174.5,-63.209],[174.288,-63.181],[174.075,-63.154],[173.863,-63.126],[173.712,-63.002],[173.567,-62.878],[173.417,-62.753],[173.688,-62.686],[173.75,-62.59],[173.813,-62.494],[174.079,-62.426],[174.346,-62.357],[174.404,-62.261],[174.463,-62.165],[174.521,-62.069],[174.433,-61.849],[174.375,-61.945],[174.229,-61.822],[174.083,-61.698],[173.879,-61.67],[173.679,-61.642],[173.475,-61.614],[173.275,-61.585],[173.075,-61.556],[172.813,-61.622],[172.613,-61.592],[172.413,-61.562],[172.208,-61.532],[171.946,-61.597],[171.746,-61.566],[171.546,-61.534],[171.35,-61.503],[171.15,-61.471],[170.95,-61.439],[170.754,-61.407],[170.554,-61.374],[170.429,-61.247],[170.233,-61.214],[170.038,-61.18],[169.842,-61.146],[169.646,-61.113],[169.521,-60.984],[169.329,-60.95],[169.138,-60.915],[168.946,-60.88],[168.75,-60.845],[168.488,-60.903],[168.413,-60.996],[168.146,-61.053],[168.071,-61.146],[167.8,-61.203],[167.725,-61.296],[167.454,-61.352],[167.375,-61.445],[167.104,-61.5],[166.829,-61.554],[166.554,-61.608],[166.475,-61.701],[166.2,-61.754],[165.921,-61.807],[165.838,-61.899],[165.754,-61.991],[165.471,-62.042],[165.192,-62.094],[164.908,-62.145],[164.625,-62.195],[164.342,-62.245],[164.058,-62.294],[163.862,-62.252],[163.579,-62.3],[163.383,-62.257],[163.096,-62.304],[162.808,-62.351],[162.617,-62.307],[162.329,-62.353],[162.038,-62.398],[161.75,-62.442],[161.558,-62.397],[161.267,-62.441],[161.075,-62.395],[160.783,-62.437],[160.592,-62.391],[160.3,-62.432],[160.112,-62.385],[159.821,-62.426],[159.629,-62.378],[159.338,-62.418],[159.15,-62.369],[158.963,-62.321],[158.667,-62.359],[158.483,-62.31],[158.296,-62.26],[158.108,-62.211],[157.925,-62.161],[157.738,-62.111],[157.446,-62.146],[157.154,-62.181],[157.046,-62.267],[156.75,-62.302],[156.638,-62.387],[156.342,-62.421],[156.046,-62.454],[155.929,-62.539],[155.633,-62.571],[155.333,-62.602],[155.15,-62.549],[154.85,-62.579],[154.554,-62.609],[154.371,-62.555],[154.071,-62.584],[153.892,-62.529],[153.712,-62.473],[153.533,-62.418],[153.354,-62.363],[153.175,-62.307],[153,-62.251],[152.821,-62.194],[152.646,-62.138],[152.471,-62.081],[152.421,-61.942],[152.246,-61.885],[152.071,-61.828],[151.9,-61.771],[151.729,-61.713],[151.558,-61.655],[151.388,-61.597],[151.338,-61.458],[151.171,-61.4],[151,-61.341],[150.833,-61.282],[150.667,-61.224],[150.5,-61.165],[150.333,-61.106],[150.167,-61.046],[150.125,-60.906],[150.088,-60.767],[149.921,-60.707],[149.883,-60.567],[149.842,-60.427],[149.679,-60.367],[149.642,-60.227],[149.483,-60.167],[149.446,-60.027],[149.404,-59.887],[149.25,-59.827],[149.213,-59.687],[149.333,-59.607],[149.45,-59.528],[149.571,-59.448],[149.846,-59.428],[150.121,-59.408],[150.396,-59.387],[150.667,-59.365],[150.825,-59.424],[151.1,-59.402],[151.375,-59.379],[151.533,-59.437],[151.808,-59.413],[151.971,-59.47],[152.129,-59.528],[152.404,-59.503],[152.567,-59.559],[152.729,-59.616],[152.892,-59.672],[153.167,-59.646],[153.329,-59.702],[153.604,-59.674],[153.879,-59.646],[154.154,-59.618],[154.263,-59.534],[154.204,-59.396],[154.313,-59.312],[154.417,-59.228],[154.525,-59.144],[154.467,-59.006],[154.575,-58.922],[154.679,-58.838],[154.621,-58.7],[154.725,-58.616],[154.829,-58.531],[154.933,-58.447],[155.033,-58.363],[155.138,-58.279],[155.238,-58.194],[155.338,-58.109],[155.437,-58.025],[155.379,-57.887],[155.321,-57.749],[155.421,-57.664],[155.363,-57.527],[155.462,-57.442],[155.558,-57.357],[155.817,-57.325],[156.071,-57.293],[156.325,-57.26],[156.579,-57.226],[156.833,-57.192],[156.992,-57.243],[157.15,-57.295],[157.404,-57.259],[157.563,-57.31],[157.817,-57.274],[157.975,-57.324],[158.229,-57.287],[158.388,-57.337],[158.642,-57.299],[158.804,-57.348],[158.967,-57.397],[159.217,-57.358],[159.292,-57.494],[159.454,-57.542],[159.529,-57.678],[159.692,-57.726],[159.767,-57.861],[159.933,-57.909],[160.008,-58.044],[160.175,-58.092],[160.342,-58.139],[160.508,-58.186],[160.679,-58.232],[160.846,-58.279],[160.929,-58.413],[161.096,-58.459],[161.354,-58.416],[161.613,-58.372],[161.696,-58.283],[161.783,-58.194],[161.867,-58.105],[161.954,-58.015],[162.204,-57.971],[162.458,-57.925],[162.629,-57.969],[162.796,-58.013],[162.967,-58.056],[163.138,-58.1],[163.308,-58.143],[163.479,-58.186],[163.65,-58.228],[163.742,-58.361],[163.917,-58.404],[164.088,-58.446],[164.342,-58.396],[164.596,-58.347],[164.846,-58.297],[164.925,-58.205],[165,-58.114],[165.079,-58.022],[165.154,-57.931],[165.229,-57.84],[165.304,-57.748],[165.379,-57.657],[165.454,-57.565],[165.529,-57.473],[165.604,-57.382],[165.679,-57.29],[165.921,-57.238],[165.992,-57.146],[166.233,-57.093],[166.404,-57.132],[166.646,-57.078],[166.883,-57.024],[167.054,-57.062],[167.225,-57.099],[167.396,-57.137],[167.633,-57.081],[167.804,-57.118],[167.975,-57.154],[168.217,-57.098],[168.388,-57.134],[168.558,-57.169],[168.667,-57.299],[168.838,-57.334],[168.946,-57.463],[169.054,-57.591],[169.167,-57.72],[169.342,-57.755],[169.517,-57.789],[169.754,-57.729],[169.933,-57.763],[170.108,-57.797],[170.346,-57.736]],[[159.933,-56.432],[160.179,-56.392],[160.425,-56.351],[160.667,-56.309],[160.825,-56.355],[161.071,-56.312],[161.313,-56.269],[161.471,-56.315],[161.633,-56.36],[161.875,-56.316],[162.038,-56.361],[162.2,-56.406],[162.279,-56.539],[162.442,-56.584],[162.525,-56.717],[162.608,-56.851],[162.692,-56.985],[162.613,-57.075],[162.529,-57.165],[162.45,-57.254],[162.367,-57.344],[162.288,-57.434],[162.038,-57.479],[161.788,-57.523],[161.538,-57.567],[161.288,-57.611],[161.121,-57.565],[160.954,-57.519],[160.704,-57.561],[160.538,-57.515],[160.375,-57.468],[160.208,-57.421],[160.046,-57.374],[159.971,-57.239],[159.808,-57.191],[159.733,-57.055],[159.821,-56.967],[159.75,-56.832],[159.833,-56.744],[159.763,-56.609],[159.85,-56.521],[159.933,-56.432]],[[140.563,-54.285],[140.688,-54.354],[140.808,-54.424],[140.933,-54.493],[140.937,-54.635],[140.942,-54.776],[140.821,-54.848],[140.7,-54.92],[140.454,-54.922],[140.208,-54.923],[140.083,-54.853],[139.962,-54.783],[139.838,-54.713],[139.838,-54.571],[139.958,-54.501],[140.079,-54.429],[140.2,-54.358],[140.321,-54.287],[140.563,-54.285]],[[131.617,-46.097],[131.704,-46.174],[131.688,-46.315],[131.667,-46.455],[131.758,-46.533],[131.738,-46.673],[131.625,-46.737],[131.604,-46.877],[131.492,-46.941],[131.375,-47.004],[131.263,-47.067],[131.058,-47.052],[130.942,-47.114],[130.737,-47.099],[130.646,-47.021],[130.554,-46.943],[130.463,-46.865],[130.488,-46.724],[130.508,-46.584],[130.533,-46.443],[130.554,-46.303],[130.671,-46.241],[130.692,-46.1],[130.804,-46.038],[130.917,-45.975],[131.029,-45.912],[131.229,-45.927],[131.321,-46.005],[131.525,-46.019],[131.617,-46.097]],[[125.496,-32.964],[125.567,-33.045],[125.633,-33.127],[125.704,-33.208],[125.771,-33.29],[125.842,-33.371],[125.812,-33.51],[125.783,-33.65],[125.758,-33.789],[125.658,-33.847],[125.563,-33.905],[125.296,-33.939],[125.125,-33.915],[124.958,-33.89],[124.858,-33.947],[124.762,-34.005],[124.663,-34.062],[124.563,-34.119],[124.462,-34.176],[124.363,-34.233],[124.262,-34.289],[124.167,-34.346],[123.996,-34.321],[123.896,-34.377],[123.729,-34.351],[123.558,-34.324],[123.392,-34.298],[123.225,-34.271],[123.154,-34.188],[123.087,-34.105],[123.021,-34.022],[122.954,-33.939],[122.988,-33.8],[123.021,-33.662],[123.054,-33.523],[123.083,-33.384],[123.117,-33.245],[123.15,-33.106],[123.083,-33.024],[123.117,-32.885],[123.05,-32.802],[122.983,-32.719],[122.917,-32.636],[122.85,-32.552],[122.783,-32.469],[122.721,-32.386],[122.654,-32.303],[122.687,-32.164],[122.621,-32.081],[122.654,-31.942],[122.75,-31.887],[122.85,-31.832],[122.946,-31.776],[123.113,-31.803],[123.275,-31.83],[123.342,-31.913],[123.504,-31.94],[123.571,-32.023],[123.637,-32.105],[123.7,-32.188],[123.867,-32.214],[123.933,-32.297],[124.096,-32.323],[124.262,-32.348],[124.358,-32.292],[124.525,-32.317],[124.621,-32.26],[124.788,-32.285],[124.95,-32.31],[125.017,-32.392],[125.088,-32.473],[125.154,-32.555],[125.221,-32.637],[125.292,-32.719],[125.358,-32.801],[125.429,-32.882],[125.496,-32.964]],[[121.238,-30.464],[121.304,-30.548],[121.463,-30.577],[121.625,-30.607],[121.687,-30.691],[121.75,-30.774],[121.717,-30.913],[121.683,-31.051],[121.583,-31.106],[121.488,-31.16],[121.388,-31.215],[121.292,-31.269],[121.192,-31.324],[121.096,-31.378],[120.996,-31.432],[120.896,-31.486],[120.738,-31.456],[120.638,-31.51],[120.475,-31.479],[120.313,-31.449],[120.25,-31.364],[120.088,-31.333],[120.025,-31.249],[120.063,-31.111],[120,-31.026],[120.038,-30.888],[120.071,-30.75],[120.171,-30.697],[120.271,-30.643],[120.367,-30.59],[120.467,-30.536],[120.563,-30.482],[120.663,-30.428],[120.758,-30.374],[120.917,-30.405],[121.079,-30.434],[121.238,-30.464]],[[119.025,-27.783],[119.083,-27.868],[119.146,-27.953],[119.204,-28.038],[119.263,-28.123],[119.229,-28.261],[119.192,-28.398],[119.154,-28.536],[119.058,-28.589],[118.9,-28.556],[118.746,-28.524],[118.683,-28.439],[118.529,-28.406],[118.471,-28.321],[118.408,-28.235],[118.446,-28.098],[118.387,-28.012],[118.329,-27.927],[118.367,-27.79],[118.463,-27.737],[118.5,-27.6],[118.654,-27.633],[118.813,-27.666],[118.871,-27.751],[119.025,-27.783]],[[118.317,-24.652],[118.471,-24.685],[118.525,-24.77],[118.492,-24.908],[118.55,-24.993],[118.604,-25.078],[118.663,-25.163],[118.721,-25.249],[118.683,-25.386],[118.65,-25.524],[118.613,-25.661],[118.575,-25.799],[118.538,-25.936],[118.504,-26.074],[118.467,-26.211],[118.371,-26.263],[118.333,-26.401],[118.238,-26.453],[118.142,-26.505],[118.046,-26.557],[117.95,-26.609],[117.858,-26.661],[117.704,-26.627],[117.608,-26.679],[117.454,-26.645],[117.3,-26.611],[117.204,-26.662],[117.05,-26.627],[116.896,-26.593],[116.8,-26.644],[116.704,-26.695],[116.608,-26.746],[116.513,-26.797],[116.417,-26.848],[116.321,-26.899],[116.221,-26.95],[116.125,-27.001],[116.029,-27.051],[115.933,-27.102],[115.779,-27.066],[115.721,-26.98],[115.667,-26.893],[115.608,-26.807],[115.554,-26.721],[115.496,-26.634],[115.442,-26.548],[115.479,-26.411],[115.521,-26.274],[115.563,-26.137],[115.504,-26.051],[115.546,-25.914],[115.588,-25.778],[115.625,-25.641],[115.667,-25.504],[115.608,-25.418],[115.65,-25.281],[115.688,-25.144],[115.633,-25.058],[115.675,-24.921],[115.617,-24.835],[115.563,-24.749],[115.6,-24.612],[115.546,-24.525],[115.492,-24.439],[115.438,-24.353],[115.379,-24.266],[115.229,-24.23],[115.079,-24.193],[115.025,-24.107],[114.875,-24.07],[114.821,-23.984],[114.863,-23.847],[114.9,-23.71],[114.996,-23.66],[115.146,-23.697],[115.242,-23.647],[115.333,-23.597],[115.483,-23.633],[115.538,-23.719],[115.688,-23.755],[115.742,-23.841],[115.704,-23.978],[115.667,-24.115],[115.721,-24.201],[115.775,-24.288],[115.925,-24.324],[116.021,-24.273],[116.171,-24.308],[116.321,-24.344],[116.417,-24.293],[116.567,-24.328],[116.717,-24.363],[116.867,-24.398],[116.921,-24.484],[117.075,-24.518],[117.129,-24.604],[117.279,-24.639],[117.433,-24.673],[117.488,-24.758],[117.637,-24.792],[117.792,-24.826],[117.883,-24.774],[117.979,-24.722],[118.225,-24.704],[118.317,-24.652]]]]}}]}
